zip,settlement,short,latitude,longitude,cleaned_settlement
1011,Budapest I. kerület,BU,47.5011,19.0469,budapest
1012,Budapest I. kerület,BU,47.5,19.0833,budapest
1013,Budapest I. kerület,BU,47.4961,19.0309,budapest
1014,Budapest I. kerület,BU,47.5034,19.0349,budapest
1015,Budapest I. kerület,BU,47.5,19.0833,budapest
1016,Budapest I. kerület,BU,47.48,19.02,budapest
1021,Budapest II. kerület,BU,47.496,19.0771,budapest
1022,Budapest II. kerület,BU,47.5,19.0833,budapest
1023,Budapest II. kerület,BU,47.521,19.0347,budapest
1024,Budapest II. kerület,BU,47.507,19.0569,budapest
1025,Budapest II. kerület,BU,47.403,19.0915,budapest
1026,Budapest II. kerület,BU,47.5117,19.0131,budapest
1027,Budapest II. kerület,BU,47.5083,19.0386,budapest
1028,Budapest II. kerület,BU,47.5,19.0833,budapest
1029,Budapest II. kerület,BU,47.5,19.0833,budapest
1031,Budapest III. kerület,BU,47.5729,19.0538,budapest
1032,Budapest III. kerület,BU,47.5,19.0833,budapest
1033,Budapest III. kerület,BU,47.5,19.0833,budapest
1034,Budapest III. kerület,BU,47.5,19.0833,budapest
1035,Budapest III. kerület,BU,47.5,19.0833,budapest
1036,Budapest III. kerület,BU,47.5328,19.0419,budapest
1037,Budapest III. kerület,BU,47.5,19.0833,budapest
1038,Budapest III. kerület,BU,47.5915,19.0486,budapest
1039,Budapest III. kerület,BU,47.5562,19.0684,budapest
1041,Budapest IV. kerület,BU,47.5,19.0833,budapest
1042,Budapest IV. kerület,BU,47.5,19.0833,budapest
1043,Budapest IV. kerület,BU,47.5,19.0833,budapest
1044,Budapest IV. kerület,BU,47.5,19.0833,budapest
1045,Budapest IV. kerület,BU,47.5,19.0833,budapest
1046,Budapest IV. kerület,BU,47.5,19.0833,budapest
1047,Budapest IV. kerület,BU,47.5,19.0833,budapest
1048,Budapest IV. kerület,BU,47.5,19.0833,budapest
1051,Budapest V. kerület,BU,47.4986,19.0499,budapest
1052,Budapest V. kerület,BU,47.4968,19.0555,budapest
1053,Budapest V. kerület,BU,47.4839,19.0597,budapest
1054,Budapest V. kerület,BU,47.5068,19.0526,budapest
1055,Budapest V. kerület,BU,47.5,19.0833,budapest
1056,Budapest V. kerület,BU,47.4926,19.0516,budapest
1061,Budapest VI. kerület,BU,47.4996,19.0574,budapest
1062,Budapest VI. kerület,BU,47.525,19.0766,budapest
1063,Budapest VI. kerület,BU,47.5102,19.0702,budapest
1064,Budapest VI. kerület,BU,47.5062,19.069,budapest
1065,Budapest VI. kerület,BU,47.4767,19.0851,budapest
1066,Budapest VI. kerület,BU,47.5075,19.0589,budapest
1067,Budapest VI. kerület,BU,47.5077,19.0602,budapest
1068,Budapest VI. kerület,BU,47.5096,19.0717,budapest
1071,Budapest VII. kerület,BU,47.5,19.0833,budapest
1072,Budapest VII. kerület,BU,47.4997,19.0716,budapest
1073,Budapest VII. kerület,BU,47.4992,19.0718,budapest
1074,Budapest VII. kerület,BU,47.4768,19.071,budapest
1075,Budapest VII. kerület,BU,47.4971,19.0566,budapest
1076,Budapest VII. kerület,BU,47.5,19.0833,budapest
1077,Budapest VII. kerület,BU,47.5007,19.0786,budapest
1078,Budapest VII. kerület,BU,47.5034,19.0821,budapest
1081,Budapest VIII. kerület,BU,47.4946,19.0776,budapest
1082,Budapest VIII. kerület,BU,47.514,19.0788,budapest
1083,Budapest VIII. kerület,BU,47.5,19.0833,budapest
1084,Budapest VIII. kerület,BU,47.5,19.0833,budapest
1085,Budapest VIII. kerület,BU,47.497,19.0756,budapest
1086,Budapest VIII. kerület,BU,47.5,19.0833,budapest
1087,Budapest VIII. kerület,BU,47.4996,19.0817,budapest
1088,Budapest VIII. kerület,BU,47.4902,19.0905,budapest
1089,Budapest VIII. kerület,BU,47.4935,19.0882,budapest
1091,Budapest IX. kerület,BU,47.5,19.0833,budapest
1092,Budapest IX. kerület,BU,47.5,19.0833,budapest
1093,Budapest IX. kerület,BU,47.4919,19.0691,budapest
1094,Budapest IX. kerület,BU,47.481,19.0724,budapest
1095,Budapest IX. kerület,BU,47.4845,19.0492,budapest
1096,Budapest IX. kerület,BU,47.5,19.0833,budapest
1097,Budapest IX. kerület,BU,47.4892,19.074,budapest
1098,Budapest IX. kerület,BU,47.5,19.0833,budapest
1101,Budapest X. kerület,BU,47.5,19.0833,budapest
1102,Budapest X. kerület,BU,47.5,19.0833,budapest
1103,Budapest X. kerület,BU,47.5,19.0833,budapest
1104,Budapest X. kerület,BU,47.5,19.0833,budapest
1105,Budapest X. kerület,BU,47.5,19.0833,budapest
1106,Budapest X. kerület,BU,47.5032,19.1367,budapest
1107,Budapest X. kerület,BU,47.5,19.0833,budapest
1108,Budapest X. kerület,BU,47.5,19.0833,budapest
1111,Budapest XI. kerület,BU,47.482,19.0536,budapest
1112,Budapest XI. kerület,BU,47.4734,19.0076,budapest
1113,Budapest XI. kerület,BU,47.4748,19.037,budapest
1114,Budapest XI. kerület,BU,47.5,19.0833,budapest
1115,Budapest XI. kerület,BU,47.5,19.0833,budapest
1116,Budapest XI. kerület,BU,47.444,19.041,budapest
1117,Budapest XI. kerület,BU,47.501,19.038,budapest
1118,Budapest XI. kerület,BU,47.4846,19.0334,budapest
1119,Budapest XI. kerület,BU,47.4571,19.0402,budapest
1121,Budapest XII. kerület,BU,47.5014,19.0078,budapest
1122,Budapest XII. kerület,BU,47.5,19.0833,budapest
1123,Budapest XII. kerület,BU,47.4942,19.024,budapest
1124,Budapest XII. kerület,BU,47.5,19.0833,budapest
1125,Budapest XII. kerület,BU,47.5,19.0833,budapest
1126,Budapest XII. kerület,BU,47.5,19.0833,budapest
1131,Budapest XIII. kerület,BU,47.5,19.0833,budapest
1132,Budapest XIII. kerület,BU,47.4968,19.0776,budapest
1133,Budapest XIII. kerület,BU,47.5223,19.0564,budapest
1134,Budapest XIII. kerület,BU,47.5243,19.0647,budapest
1135,Budapest XIII. kerület,BU,47.5354,19.0818,budapest
1136,Budapest XIII. kerület,BU,47.5,19.0833,budapest
1137,Budapest XIII. kerület,BU,47.5086,19.0624,budapest
1138,Budapest XIII. kerület,BU,47.5239,19.0455,budapest
1139,Budapest XIII. kerület,BU,47.5,19.0833,budapest
1141,Budapest XIV. kerület,BU,47.4992,19.0688,budapest
1142,Budapest XIV. kerület,BU,47.515,19.0936,budapest
1143,Budapest XIV. kerület,BU,47.5139,19.1268,budapest
1144,Budapest XIV. kerület,BU,47.5,19.0833,budapest
1145,Budapest XIV. kerület,BU,47.5141,19.1038,budapest
1146,Budapest XIV. kerület,BU,47.5067,19.0836,budapest
1147,Budapest XIV. kerület,BU,47.5,19.0833,budapest
1148,Budapest XIV. kerület,BU,47.504,19.1192,budapest
1149,Budapest XIV. kerület,BU,47.5139,19.1268,budapest
1151,Budapest XV. kerület,BU,47.5,19.0833,budapest
1152,Budapest XV. kerület,BU,47.5481,19.1306,budapest
1153,Budapest XV. kerület,BU,47.5,19.0833,budapest
1154,Budapest XV. kerület,BU,47.5,19.0833,budapest
1155,Budapest XV. kerület,BU,47.5,19.0833,budapest
1156,Budapest XV. kerület,BU,47.5,19.0833,budapest
1157,Budapest XV. kerület,BU,47.5,19.0833,budapest
1158,Budapest XV. kerület,BU,47.5,19.0833,budapest
1161,Budapest XVI. kerület,BU,47.5,19.0833,budapest
1162,Budapest XVI. kerület,BU,47.5,19.0833,budapest
1163,Budapest XVI. kerület,BU,47.5,19.0833,budapest
1164,Budapest XVI. kerület,BU,47.5,19.0833,budapest
1165,Budapest XVI. kerület,BU,47.5,19.0833,budapest
1171,Budapest XVII. kerület,BU,47.5,19.0833,budapest
1172,Budapest XVII. kerület,BU,47.5,19.0833,budapest
1173,Budapest XVII. kerület,BU,47.5231,19.0554,budapest
1174,Budapest XVII. kerület,BU,47.5,19.0833,budapest
1181,Budapest XVIII. kerület,BU,47.5,19.0833,budapest
1182,Budapest XVIII. kerület,BU,47.5,19.0833,budapest
1183,Budapest XVIII. kerület,BU,47.5,19.0833,budapest
1184,Budapest XVIII. kerület,BU,47.5,19.0833,budapest
1185,Budapest XVIII. kerület,BU,47.5,19.0833,budapest
1186,Budapest XVIII. kerület,BU,47.5,19.0833,budapest
1188,Budapest XVIII. kerület,BU,47.5,19.0833,budapest
1191,Budapest XIX. kerület,BU,47.5,19.0833,budapest
1192,Budapest XIX. kerület,BU,47.5,19.0833,budapest
1193,Budapest XIX. kerület,BU,47.5,19.0833,budapest
1194,Budapest XIX. kerület,BU,47.5,19.0833,budapest
1195,Budapest XIX. kerület,BU,47.5,19.0833,budapest
1196,Budapest XIX. kerület,BU,47.5,19.0833,budapest
1201,Budapest XX. kerület,BU,47.5,19.0833,budapest
1202,Budapest XX. kerület,BU,47.5,19.0833,budapest
1203,Budapest XX. kerület,BU,47.5,19.0833,budapest
1204,Budapest XX. kerület,BU,47.5,19.0833,budapest
1205,Budapest XX. kerület,BU,47.5,19.0833,budapest
1211,Budapest XXI. kerület,BU,47.5,19.0833,budapest
1212,Budapest XXI. kerület,BU,47.484,19.123,budapest
1213,Budapest XXI. kerület,BU,47.5,19.0833,budapest
1214,Budapest XXI. kerület,BU,47.5,19.0833,budapest
1215,Budapest XXI. kerület,BU,47.5,19.0833,budapest
1221,Budapest XXII. kerület,BU,47.5,19.0833,budapest
1222,Budapest XXII. kerület,BU,47.5,19.0833,budapest
1223,Budapest XXII. kerület,BU,47.5,19.0833,budapest
1224,Budapest XXII. kerület,BU,47.5,19.0833,budapest
1225,Budapest XXII. kerület,BU,47.5,19.0833,budapest
1237,Budapest XXIII. kerület,BU,47.5,19.0833,budapest
1238,Budapest XXIII. kerület,BU,47.5,19.0833,budapest
1239,Budapest XXIII. kerület,BU,47.5,19.0833,budapest
1529,Budapest XII. kerület,BU,47.5,19.0833,budapest
2000,Szentendre,PE,47.6667,19.0833,szentendre
2001,Szentendre,PE,47.6667,19.0833,szentendre
2002,Szentendre,PE,47.6667,19.0833,szentendre
2003,Szentendre,PE,47.6667,19.0833,szentendre
2009,Pilisszentlászló,PE,47.7167,19.0,pilisszentlászló
2011,Budakalász,PE,47.6167,19.05,budakalász
2012,Budakalász,PE,47.6167,19.05,budakalász
2013,Budakalász,PE,47.6167,19.05,budakalász
2014,Csobánka,PE,47.6333,18.9667,csobánka
2015,Szigetmonostor,PE,47.6833,19.1167,szigetmonostor
2016,Leányfalu,PE,47.7167,19.0833,leányfalu
2017,Pócsmegyer,PE,47.7167,19.1,pócsmegyer
2019,Pomáz,PE,47.65,19.0333,pomáz
2021,Tahitótfalu,PE,47.75,19.1,tahitótfalu
2022,Tahitótfalu,PE,47.75,19.1,tahitótfalu
2023,Dunabogdány,PE,47.7833,19.0333,dunabogdány
2024,Kisoroszi,PE,47.8,19.0167,kisoroszi
2025,Visegrád,PE,47.7833,18.9833,visegrád
2026,Visegrád,PE,47.7833,18.9833,visegrád
2027,Dömös,KE,47.7667,18.9167,dömös
2028,Pilismarót,KE,47.7833,18.8833,pilismarót
2030,Érd,PE,47.3667,18.9333,érd
2031,Érd,PE,47.3667,18.9333,érd
2032,Érd,PE,47.3667,18.9333,érd
2033,Érd,PE,47.3667,18.9333,érd
2035,Érd,PE,47.3667,18.9333,érd
2036,Érd,PE,47.3667,18.9333,érd
2038,Sóskút,PE,47.4,18.8333,sóskút
2039,Pusztazámor,PE,47.4,18.7833,pusztazámor
2040,Budaörs,PE,47.4531,18.9602,budaörs
2041,Budaörs,PE,47.45,18.9667,budaörs
2042,Budaörs,PE,47.45,18.9667,budaörs
2043,Budaörs,PE,47.45,18.9667,budaörs
2044,Budaörs,PE,47.45,18.9667,budaörs
2045,Törökbálint,PE,47.4333,18.9167,törökbálint
2046,Törökbálint,PE,47.4333,18.9167,törökbálint
2047,Törökbálint,PE,47.4333,18.9167,törökbálint
2049,Diósd,PE,47.4,18.95,diósd
2050,Diósd,PE,47.4,18.95,diósd
2051,Biatorbágy,PE,47.4667,18.8167,biatorbágy
2052,Biatorbágy,PE,47.4667,18.8167,biatorbágy
2053,Herceghalom,PE,47.5,18.75,herceghalom
2055,Herceghalom,PE,47.5,18.75,herceghalom
2056,Herceghalom,PE,47.5,18.75,herceghalom
2060,Bicske,FE,47.4833,18.6333,bicske
2061,Bicske,FE,47.4833,18.6333,bicske
2063,Bicske,FE,47.4833,18.6333,bicske
2064,Csabdi,FE,47.5167,18.6167,csabdi
2065,Mány,FE,47.5333,18.6667,mány
2066,Újbarok,FE,47.4833,18.5667,újbarok
2066,Szár,FE,47.4833,18.5167,szár
2067,Szárliget,FE,47.4952,18.6095,szárliget
2071,Páty,PE,47.5167,18.8333,páty
2072,Zsámbék,PE,47.55,18.7167,zsámbék
2073,Tök,PE,47.5667,18.7333,tök
2074,Perbál,PE,47.6,18.7667,perbál
2080,Pilisjászfalu,PE,47.6042,18.8521,pilisjászfalu
2081,Piliscsaba,PE,47.6167,18.8333,piliscsaba
2082,Piliscsaba,PE,47.6167,18.8333,piliscsaba
2083,Solymár,PE,47.5833,18.9333,solymár
2084,Pilisszentiván,PE,47.6167,18.9,pilisszentiván
2085,Pilisvörösvár,PE,47.6167,18.9167,pilisvörösvár
2086,Tinnye,PE,47.6167,18.7833,tinnye
2087,Tinnye,PE,47.6167,18.7833,tinnye
2089,Telki,PE,47.55,18.8333,telki
2090,Remeteszőlős,PE,47.6,18.8981,remeteszőlős
2091,Etyek,FE,47.45,18.75,etyek
2092,Budakeszi,PE,47.5167,18.9333,budakeszi
2093,Budajenő,PE,47.55,18.8,budajenő
2094,Nagykovácsi,PE,47.5833,18.8833,nagykovácsi
2095,Pilisszántó,PE,47.6667,18.9,pilisszántó
2096,Üröm,PE,47.6,19.0167,üröm
2097,Pilisborosjenő,PE,47.6167,19.0,pilisborosjenő
2098,Pilisszentkereszt,PE,47.7,18.9,pilisszentkereszt
2099,Dobogókő,PE,47.7167,18.9,dobogókő
2100,Gödöllő,PE,47.6,19.3667,gödöllő
2101,Gödöllő,PE,47.6,19.3667,gödöllő
2102,Gödöllő,PE,47.6,19.3667,gödöllő
2103,Gödöllő,PE,47.6,19.3667,gödöllő
2105,Gödöllő,PE,47.6,19.3667,gödöllő
2111,Szada,PE,47.6333,19.3167,szada
2112,Veresegyház,PE,47.65,19.2833,veresegyház
2113,Erdőkertes,PE,47.6667,19.3167,erdőkertes
2114,Valkó,PE,47.5667,19.5167,valkó
2115,Vácszentlászló,PE,47.5833,19.5333,vácszentlászló
2116,Zsámbok,PE,47.55,19.6167,zsámbok
2117,Isaszeg,PE,47.5333,19.4,isaszeg
2118,Dány,PE,47.5167,19.55,dány
2119,Pécel,PE,47.4833,19.35,pécel
2120,Dunakeszi,PE,47.6333,19.1333,dunakeszi
2121,Dunakeszi,PE,47.6333,19.1333,dunakeszi
2122,Dunakeszi,PE,47.6333,19.1333,dunakeszi
2123,Dunakeszi,PE,47.6333,19.1333,dunakeszi
2131,Göd,PE,47.7,19.1333,göd
2132,Göd,PE,47.6976,19.1539,göd
2133,Sződliget,PE,47.7333,19.15,sződliget
2134,Sződ,PE,47.7167,19.2,sződ
2135,Csörög,PE,47.7333,19.1833,csörög
2141,Csömör,PE,47.55,19.2333,csömör
2142,Nagytarcsa,PE,47.5333,19.2833,nagytarcsa
2143,Kistarcsa,PE,47.5333,19.2667,kistarcsa
2144,Kerepes,PE,47.5333,19.2667,kerepes
2145,Kerepes,PE,47.5333,19.2667,kerepes
2146,Mogyoród,PE,47.6,19.25,mogyoród
2151,Fót,PE,47.6167,19.2,fót
2152,Fót,PE,47.6167,19.2,fót
2153,Fót,PE,47.6167,19.2,fót
2161,Csomád,PE,47.6667,19.2333,csomád
2162,Őrbottyán,PE,47.6833,19.2667,őrbottyán
2163,Vácrátót,PE,47.7167,19.2333,vácrátót
2164,Váchartyán,PE,47.7333,19.2667,váchartyán
2165,Kisnémedi,PE,47.7333,19.3,kisnémedi
2166,Püspökszilágy,PE,47.7333,19.3167,püspökszilágy
2167,Vácduka,PE,47.75,19.2167,vácduka
2170,Aszód,PE,47.65,19.5,aszód
2173,Kartal,PE,47.6667,19.55,kartal
2174,Verseg,PE,47.7167,19.55,verseg
2175,Kálló,NO,47.75,19.5,kálló
2176,Erdőkürt,NO,47.7667,19.4667,erdőkürt
2177,Erdőtarcsa,NO,47.7667,19.55,erdőtarcsa
2181,Iklad,PE,47.6667,19.45,iklad
2182,Domony,PE,47.65,19.4333,domony
2183,Galgamácsa,PE,47.7,19.3833,galgamácsa
2184,Vácegres,PE,47.6833,19.3667,vácegres
2185,Váckisújfalu,PE,47.7,19.35,váckisújfalu
2191,Bag,PE,47.6333,19.4833,bag
2192,Hévízgyörk,PE,47.6333,19.5167,hévízgyörk
2193,Galgahévíz,PE,47.6167,19.5667,galgahévíz
2194,Tura,PE,47.6167,19.6,tura
2200,Monor,PE,47.35,19.45,monor
2201,Monor,PE,47.35,19.45,monor
2202,Monor,PE,47.35,19.45,monor
2209,Péteri,PE,47.3833,19.4167,péteri
2211,Vasad,PE,47.3167,19.4,vasad
2212,Csévharaszt,PE,47.3,19.4333,csévharaszt
2213,Csévharaszt,PE,47.3,19.4333,csévharaszt
2214,Pánd,PE,47.35,19.6333,pánd
2215,Káva,PE,47.35,19.5833,káva
2216,Bénye,PE,47.35,19.55,bénye
2217,Gomba,PE,47.3667,19.5333,gomba
2220,Vecsés,PE,47.4018,19.2458,vecsés
2221,Vecsés,PE,47.4,19.2833,vecsés
2222,Vecsés,PE,47.4,19.2833,vecsés
2225,Üllő,PE,47.3833,19.35,üllő
2230,Gyömrő,PE,47.4167,19.4,gyömrő
2233,Ecser,PE,47.45,19.3333,ecser
2234,Maglód,PE,47.45,19.3667,maglód
2235,Mende,PE,47.4167,19.45,mende
2241,Sülysáp,PE,47.45,19.5583,sülysáp
2242,Sülysáp,PE,47.45,19.5583,sülysáp
2243,Kóka,PE,47.4833,19.5833,kóka
2244,Úri,PE,47.4167,19.5333,úri
2251,Tápiószecső,PE,47.45,19.6,tápiószecső
2252,Tóalmás,PE,47.5167,19.6667,tóalmás
2253,Tápióság,PE,47.4,19.6167,tápióság
2254,Szentmártonkáta,PE,47.45,19.7,szentmártonkáta
2255,Szentlőrinckáta,PE,47.5167,19.75,szentlőrinckáta
2300,Ráckeve,PE,47.1667,18.95,ráckeve
2301,Ráckeve,PE,47.1667,18.95,ráckeve
2309,Lórév,PE,47.1167,18.9,lórév
2310,Szigetszentmiklós,PE,47.35,19.05,szigetszentmiklós
2311,Szigetszentmiklós,PE,47.35,19.05,szigetszentmiklós
2313,Szigetszentmiklós,PE,47.35,19.05,szigetszentmiklós
2314,Halásztelek,PE,47.3667,18.9833,halásztelek
2315,Szigethalom,PE,47.3333,19.0,szigethalom
2316,Tököl,PE,47.3104,19.0021,tököl
2317,Szigetcsép,PE,47.2667,18.9833,szigetcsép
2318,Szigetszentmárton,PE,47.2333,18.9667,szigetszentmárton
2319,Szigetújfalu,PE,47.2333,18.9333,szigetújfalu
2321,Szigetbecse,PE,47.1333,18.95,szigetbecse
2322,Makád,PE,47.0833,18.9333,makád
2330,Dunaharaszti,PE,47.35,19.0833,dunaharaszti
2331,Dunaharaszti,PE,47.35,19.0833,dunaharaszti
2332,Dunaharaszti,PE,47.35,19.0833,dunaharaszti
2335,Taksony,PE,47.3333,19.0833,taksony
2336,Dunavarsány,PE,47.2833,19.0667,dunavarsány
2337,Délegyháza,PE,47.25,19.0667,délegyháza
2338,Áporka,PE,47.2333,19.0167,áporka
2339,Majosháza,PE,47.2667,19.0,majosháza
2340,Kiskunlacháza,PE,47.2,19.0167,kiskunlacháza
2341,Kiskunlacháza,PE,47.2,19.0167,kiskunlacháza
2342,Kiskunlacháza,PE,47.2,19.0167,kiskunlacháza
2344,Dömsöd,PE,47.0833,19.0,dömsöd
2345,Apaj,PE,47.1167,19.1,apaj
2347,Bugyi,PE,47.2167,19.15,bugyi
2351,Alsónémedi,PE,47.3167,19.1667,alsónémedi
2360,Gyál,PE,47.3833,19.2333,gyál
2363,Felsőpakony,PE,47.35,19.25,felsőpakony
2364,Ócsa,PE,47.3,19.2333,ócsa
2365,Inárcs,PE,47.2667,19.3333,inárcs
2366,Kakucs,PE,47.25,19.3667,kakucs
2367,Újhartyán,PE,47.2167,19.3833,újhartyán
2370,Dabas,PE,47.1833,19.3167,dabas
2371,Dabas,PE,47.1833,19.3167,dabas
2372,Dabas,PE,47.1833,19.3167,dabas
2373,Dabas,PE,47.1833,19.3167,dabas
2374,Dabas,PE,47.1833,19.3167,dabas
2375,Tatárszentgyörgy,PE,47.0667,19.3833,tatárszentgyörgy
2376,Hernád,PE,47.1667,19.4333,hernád
2377,Örkény,PE,47.1333,19.4333,örkény
2378,Pusztavacs,PE,47.1667,19.5,pusztavacs
2381,Táborfalva,PE,47.0833,19.4667,táborfalva
2400,Dunaújváros,FE,46.9833,18.9333,dunaújváros
2401,Dunaújváros,FE,46.9833,18.9333,dunaújváros
2402,Dunaújváros,FE,46.9833,18.9333,dunaújváros
2403,Dunaújváros,FE,46.9833,18.9333,dunaújváros
2404,Dunaújváros,FE,46.9833,18.9333,dunaújváros
2405,Dunaújváros,FE,46.9833,18.9333,dunaújváros
2406,Dunaújváros,FE,46.9833,18.9333,dunaújváros
2407,Dunaújváros,FE,46.9833,18.9333,dunaújváros
2408,Dunaújváros,FE,46.9833,18.9333,dunaújváros
2421,Nagyvenyim,FE,46.9667,18.85,nagyvenyim
2422,Mezőfalva,FE,46.9333,18.7667,mezőfalva
2423,Daruszentmiklós,FE,46.8952,18.8452,daruszentmiklós
2424,Előszállás,FE,46.8333,18.8167,előszállás
2425,Nagykarácsony,FE,46.8667,18.7833,nagykarácsony
2426,Baracs,FE,46.8833,18.8833,baracs
2427,Baracs,FE,46.8833,18.8833,baracs
2428,Kisapostag,FE,46.9,18.9333,kisapostag
2431,Perkáta,FE,47.05,18.8,perkáta
2432,Szabadegyháza,FE,47.0667,18.6833,szabadegyháza
2433,Sárosd,FE,47.05,18.65,sárosd
2434,Hantos,FE,47.0,18.7,hantos
2435,Nagylók,FE,46.9667,18.6667,nagylók
2440,Százhalombatta,PE,47.3333,18.9333,százhalombatta
2441,Százhalombatta,PE,47.3333,18.9333,százhalombatta
2442,Százhalombatta,PE,47.3333,18.9333,százhalombatta
2443,Százhalombatta,PE,47.3333,18.9333,százhalombatta
2444,Százhalombatta,PE,47.3333,18.9333,százhalombatta
2451,Ercsi,FE,47.25,18.9,ercsi
2453,Ercsi,FE,47.25,18.9,ercsi
2454,Iváncsa,FE,47.15,18.8167,iváncsa
2455,Beloiannisz,FE,47.1667,18.8333,beloiannisz
2456,Besnyő,FE,47.1833,18.8167,besnyő
2457,Adony,FE,47.1167,18.8667,adony
2458,Kulcs,FE,47.05,18.9167,kulcs
2459,Rácalmás,FE,47.0167,18.95,rácalmás
2461,Tárnok,PE,47.3667,18.85,tárnok
2462,Martonvásár,FE,47.3167,18.7833,martonvásár
2463,Tordas,FE,47.35,18.75,tordas
2464,Gyúró,FE,47.3833,18.7333,gyúró
2465,Ráckeresztúr,FE,47.2667,18.8333,ráckeresztúr
2471,Baracska,FE,47.2833,18.7667,baracska
2472,Kajászó,FE,47.3167,18.7333,kajászó
2473,Vál,FE,47.3667,18.6833,vál
2475,Kápolnásnyék,FE,47.2333,18.6833,kápolnásnyék
2476,Pázmánd,FE,47.2833,18.6667,pázmánd
2477,Vereb,FE,47.3167,18.6167,vereb
2481,Velence,FE,47.2333,18.65,velence
2482,Velence,FE,47.2333,18.65,velence
2483,Gárdony,FE,47.2,18.65,gárdony
2484,Gárdony,FE,47.2,18.65,gárdony
2485,Gárdony,FE,47.2,18.65,gárdony
2490,Pusztaszabolcs,FE,47.1333,18.7667,pusztaszabolcs
2500,Esztergom,KE,47.8,18.75,esztergom
2501,Esztergom,KE,47.8,18.75,esztergom
2503,Esztergom,KE,47.8,18.75,esztergom
2508,Esztergom,KE,47.8,18.75,esztergom
2509,Esztergom,KE,47.8,18.75,esztergom
2510,Dorog,KE,47.7167,18.7333,dorog
2511,Dorog,KE,47.7167,18.7333,dorog
2512,Dorog,KE,47.7167,18.7333,dorog
2517,Kesztölc,KE,47.7167,18.8,kesztölc
2518,Leányvár,KE,47.6833,18.7833,leányvár
2519,Piliscsév,KE,47.6833,18.8167,piliscsév
2521,Csolnok,KE,47.7,18.7167,csolnok
2522,Dág,KE,47.6667,18.7167,dág
2523,Sárisáp,KE,47.6833,18.6833,sárisáp
2524,Nagysáp,KE,47.6833,18.6,nagysáp
2525,Bajna,KE,47.65,18.6,bajna
2526,Epöl,KE,47.65,18.65,epöl
2527,Máriahalom,KE,47.6333,18.7167,máriahalom
2528,Úny,KE,47.6333,18.7333,úny
2529,Annavölgy,KE,47.6625,18.6771,annavölgy
2531,Tokod,KE,47.7167,18.6667,tokod
2532,Tokodaltáró,KE,47.7444,18.5972,tokodaltáró
2533,Bajót,KE,47.7333,18.5667,bajót
2534,Tát,KE,47.75,18.65,tát
2535,Mogyorósbánya,KE,47.7333,18.6,mogyorósbánya
2536,Nyergesújfalu,KE,47.7667,18.55,nyergesújfalu
2537,Nyergesújfalu,KE,47.7667,18.55,nyergesújfalu
2541,Lábatlan,KE,47.75,18.5,lábatlan
2542,Lábatlan,KE,47.75,18.5,lábatlan
2543,Süttő,KE,47.75,18.45,süttő
2544,Neszmély,KE,47.7333,18.3667,neszmély
2545,Dunaalmás,KE,47.7333,18.3333,dunaalmás
2600,Vác,PE,47.7833,19.1333,vác
2601,Vác,PE,47.7833,19.1333,vác
2602,Vác,PE,47.7833,19.1333,vác
2603,Vác,PE,47.7833,19.1333,vác
2610,Nőtincs,NO,47.8833,19.15,nőtincs
2611,Felsőpetény,NO,47.8833,19.2,felsőpetény
2612,Kosd,PE,47.8,19.1833,kosd
2613,Rád,PE,47.8,19.2333,rád
2614,Penc,PE,47.8,19.25,penc
2615,Csővár,PE,47.8167,19.3333,csővár
2616,Ősagárd,NO,47.8667,19.2,ősagárd
2616,Keszeg,NO,47.8333,19.25,keszeg
2617,Alsópetény,NO,47.8833,19.25,alsópetény
2618,Nézsa,NO,47.85,19.3,nézsa
2619,Legénd,NO,47.8833,19.3167,legénd
2621,Verőce,PE,47.8333,19.0333,verőce
2623,Kismaros,PE,47.8333,19.0333,kismaros
2624,Szokolya,PE,47.8667,19.0167,szokolya
2625,Kóspallag,PE,47.8833,18.9333,kóspallag
2626,Nagymaros,PE,47.7833,18.9667,nagymaros
2627,Zebegény,PE,47.8,18.9167,zebegény
2628,Szob,PE,47.8167,18.8667,szob
2629,Márianosztra,PE,47.8667,18.8833,márianosztra
2631,Ipolydamásd,PE,47.85,18.8333,ipolydamásd
2632,Letkés,PE,47.8833,18.7833,letkés
2633,Ipolytölgyes,PE,47.9167,18.7833,ipolytölgyes
2634,Nagybörzsöny,PE,47.9333,18.8333,nagybörzsöny
2635,Vámosmikola,PE,47.9833,18.7833,vámosmikola
2636,Tésa,PE,48.0333,18.85,tésa
2637,Perőcsény,PE,48.0,18.8667,perőcsény
2638,Kemence,PE,48.0167,18.9,kemence
2639,Bernecebaráti,PE,48.0333,18.9167,bernecebaráti
2640,Szendehely,NO,47.85,19.1167,szendehely
2641,Berkenye,NO,47.8833,19.0833,berkenye
2642,Nógrád,NO,47.9167,19.05,nógrád
2643,Diósjenő,NO,47.95,19.05,diósjenő
2644,Borsosberény,NO,47.9667,19.1167,borsosberény
2645,Nagyoroszi,NO,48.0,19.1,nagyoroszi
2646,Drégelypalánk,NO,48.05,19.05,drégelypalánk
2647,Hont,NO,48.05,19.0,hont
2648,Patak,NO,48.0333,19.15,patak
2649,Dejtár,NO,48.0333,19.1667,dejtár
2651,Rétság,NO,47.9333,19.1333,rétság
2652,Tereske,NO,47.95,19.2,tereske
2653,Bánk,NO,47.9333,19.1833,bánk
2654,Romhány,NO,47.9333,19.2667,romhány
2655,Kétbodony,NO,47.9333,19.2667,kétbodony
2655,Kisecset,NO,47.9333,19.3167,kisecset
2655,Szente,NO,47.9667,19.2833,szente
2656,Szátok,NO,47.95,19.2333,szátok
2657,Tolmács,NO,47.9333,19.1333,tolmács
2658,Horpács,NO,48.0,19.1333,horpács
2658,Pusztaberki,NO,47.9667,19.1667,pusztaberki
2659,Érsekvadkert,NO,48.0,19.2,érsekvadkert
2660,Balassagyarmat,NO,48.0833,19.3,balassagyarmat
2661,Balassagyarmat,NO,48.0833,19.3,balassagyarmat
2662,Balassagyarmat,NO,48.0833,19.3,balassagyarmat
2668,Patvarc,NO,48.0667,19.35,patvarc
2669,Ipolyvece,NO,48.0667,19.1167,ipolyvece
2671,Őrhalom,NO,48.0833,19.4167,őrhalom
2672,Hugyag,NO,48.0833,19.4333,hugyag
2673,Csitár,NO,48.05,19.4333,csitár
2675,Iliny,NO,48.0333,19.4333,iliny
2675,Nógrádmarcal,NO,48.0333,19.4,nógrádmarcal
2676,Cserhátsurány,NO,47.9833,19.4333,cserhátsurány
2677,Herencsény,NO,47.9833,19.4833,herencsény
2678,Csesztve,NO,48.0167,19.2833,csesztve
2681,Galgagyörk,PE,47.7333,19.3833,galgagyörk
2682,Püspökhatvan,PE,47.7667,19.3667,püspökhatvan
2683,Acsa,PE,47.8,19.3833,acsa
2685,Nógrádsáp,NO,47.8333,19.35,nógrádsáp
2686,Galgaguta,NO,47.85,19.4,galgaguta
2687,Bercel,NO,47.8667,19.4167,bercel
2688,Vanyarc,NO,47.8333,19.45,vanyarc
2691,Nógrádkövesd,NO,47.8667,19.3833,nógrádkövesd
2692,Szécsénke,NO,47.9,19.3333,szécsénke
2693,Becske,NO,47.9167,19.3833,becske
2694,Magyarnándor,NO,47.9667,19.35,magyarnándor
2694,Debercsény,NO,47.9667,19.3167,debercsény
2694,Cserháthaláp,NO,47.9833,19.3667,cserháthaláp
2696,Terény,NO,47.95,19.45,terény
2697,Szanda,NO,47.9333,19.45,szanda
2698,Mohora,NO,47.9833,19.3333,mohora
2699,Szügy,NO,48.0333,19.3333,szügy
2700,Cegléd,PE,47.1667,19.8,cegléd
2701,Cegléd,PE,47.1667,19.8,cegléd
2702,Cegléd,PE,47.1667,19.8,cegléd
2703,Cegléd,PE,47.1667,19.8,cegléd
2704,Cegléd,PE,47.1667,19.8,cegléd
2711,Tápiószentmárton,PE,47.3333,19.75,tápiószentmárton
2712,Nyársapát,PE,47.1,19.8,nyársapát
2713,Csemő,PE,47.1167,19.7,csemő
2721,Pilis,PE,47.2833,19.55,pilis
2723,Nyáregyháza,PE,47.25,19.5,nyáregyháza
2724,Újlengyel,PE,47.2167,19.45,újlengyel
2730,Albertirsa,PE,47.25,19.6167,albertirsa
2735,Dánszentmiklós,PE,47.2167,19.55,dánszentmiklós
2736,Mikebuda,PE,47.1667,19.6333,mikebuda
2737,Ceglédbercel,PE,47.2167,19.6833,ceglédbercel
2738,Ceglédbercel,PE,47.2167,19.6833,ceglédbercel
2740,Abony,PE,47.1833,20.0,abony
2745,Kőröstetétlen,PE,47.1,20.0333,kőröstetétlen
2746,Jászkarajenő,PE,47.05,20.0667,jászkarajenő
2747,Törtel,PE,47.1167,19.9333,törtel
2750,Nagykőrös,PE,47.0333,19.7833,nagykőrös
2751,Nagykőrös,PE,47.0333,19.7833,nagykőrös
2752,Nagykőrös,PE,47.0333,19.7833,nagykőrös
2755,Kocsér,PE,47.0053,19.9114,kocsér
2760,Nagykáta,PE,47.4167,19.75,nagykáta
2761,Nagykáta,PE,47.4167,19.75,nagykáta
2764,Tápióbicske,PE,47.3667,19.6833,tápióbicske
2765,Farmos,PE,47.3667,19.85,farmos
2766,Tápiószele,PE,47.3333,19.8833,tápiószele
2767,Tápiógyörgye,PE,47.3333,19.95,tápiógyörgye
2768,Újszilvás,PE,47.2833,19.9333,újszilvás
2769,Tápiószőlős,PE,47.3,19.85,tápiószőlős
2800,Tatabánya,KE,47.5667,18.4167,tatabánya
2801,Tatabánya,KE,47.5667,18.4167,tatabánya
2802,Tatabánya,KE,47.5667,18.4167,tatabánya
2803,Tatabánya,KE,47.5667,18.4167,tatabánya
2804,Tatabánya,KE,47.5667,18.4167,tatabánya
2805,Tatabánya,KE,47.5667,18.4167,tatabánya
2806,Tatabánya,KE,47.5667,18.4167,tatabánya
2807,Tatabánya,KE,47.5667,18.4167,tatabánya
2808,Tatabánya,KE,47.5667,18.4167,tatabánya
2809,Tatabánya,KE,47.5667,18.4167,tatabánya
2821,Gyermely,KE,47.6,18.65,gyermely
2822,Szomor,KE,47.5833,18.6667,szomor
2823,Vértessomló,KE,47.5167,18.3667,vértessomló
2824,Várgesztes,KE,47.4667,18.4,várgesztes
2831,Tarján,KE,47.6167,18.5167,tarján
2832,Héreg,KE,47.65,18.5167,héreg
2833,Vértestolna,KE,47.6333,18.45,vértestolna
2834,Tardos,KE,47.6667,18.45,tardos
2835,Tardos,KE,47.6667,18.45,tardos
2836,Baj,KE,47.65,18.3667,baj
2837,Vértesszőlős,KE,47.6167,18.3833,vértesszőlős
2840,Oroszlány,KE,47.4833,18.3167,oroszlány
2841,Oroszlány,KE,47.4833,18.3167,oroszlány
2842,Oroszlány,KE,47.4833,18.3167,oroszlány
2851,Környe,KE,47.55,18.3333,környe
2852,Kecskéd,KE,47.5167,18.3167,kecskéd
2853,Kömlőd,KE,47.55,18.2667,kömlőd
2854,Dad,KE,47.5167,18.2333,dad
2855,Bokod,KE,47.5,18.25,bokod
2856,Szákszend,KE,47.55,18.1667,szákszend
2858,Császár,KE,47.5,18.15,császár
2859,Vérteskethely,KE,47.4833,18.0833,vérteskethely
2861,Bakonysárkány,KE,47.45,18.1,bakonysárkány
2862,Aka,KE,47.4,18.0667,aka
2870,Kisbér,KE,47.5,18.0333,kisbér
2879,Kisbér,KE,47.5,18.0333,kisbér
2881,Ászár,KE,47.5042,18.0,ászár
2882,Kerékteleki,KE,47.5167,17.9333,kerékteleki
2883,Bársonyos,KE,47.5167,17.9167,bársonyos
2884,Bakonyszombathely,KE,47.4667,17.9667,bakonyszombathely
2885,Bakonybánk,KE,47.4667,17.9,bakonybánk
2886,Réde,KE,47.4333,17.9167,réde
2887,Ácsteszér,KE,47.4,18.0167,ácsteszér
2888,Csatka,KE,47.3667,17.9833,csatka
2889,Súr,KE,47.3667,18.0333,súr
2890,Tata,KE,47.65,18.3167,tata
2891,Tata,KE,47.65,18.3167,tata
2892,Tata,KE,47.65,18.3167,tata
2893,Tata,KE,47.65,18.3167,tata
2894,Tata,KE,47.65,18.3167,tata
2896,Szomód,KE,47.6833,18.35,szomód
2897,Dunaszentmiklós,KE,47.7,18.3833,dunaszentmiklós
2898,Kocs,KE,47.6,18.2167,kocs
2899,Naszály,KE,47.7,18.2667,naszály
2900,Komárom,KE,47.7333,18.1167,komárom
2901,Komárom,KE,47.7333,18.1167,komárom
2902,Komárom,KE,47.7333,18.1167,komárom
2903,Komárom,KE,47.7333,18.1167,komárom
2904,Komárom,KE,47.7333,18.1167,komárom
2911,Mocsa,KE,47.6667,18.1833,mocsa
2921,Mocsa,KE,47.6667,18.1833,mocsa
2922,Mocsa,KE,47.6667,18.1833,mocsa
2931,Almásfüzitő,KE,47.7167,18.2667,almásfüzitő
2932,Almásfüzitő,KE,47.7167,18.2667,almásfüzitő
2941,Ács,KE,47.7,18.0167,ács
2942,Nagyigmánd,KE,47.6333,18.0833,nagyigmánd
2943,Bábolna,KE,47.6333,17.9833,bábolna
2944,Bana,KE,47.65,17.9167,bana
2945,Tárkány,KE,47.5833,18.0,tárkány
2946,Csép,KE,47.5833,18.0667,csép
2947,Ete,KE,47.5,18.0333,ete
2948,Kisigmánd,KE,47.65,18.1,kisigmánd
2949,Csém,KE,47.6833,18.1,csém
3000,Hatvan,HE,47.6667,19.6833,hatvan
3001,Hatvan,HE,47.6667,19.6833,hatvan
3002,Hatvan,HE,47.6667,19.6833,hatvan
3003,Hatvan,HE,47.6667,19.6833,hatvan
3009,Hatvan,HE,47.6667,19.6833,hatvan
3011,Heréd,HE,47.7,19.6333,heréd
3012,Nagykökényes,HE,47.7333,19.6,nagykökényes
3013,Ecséd,HE,47.7333,19.7833,ecséd
3014,Hort,HE,47.7,19.7833,hort
3015,Csány,HE,47.65,19.8333,csány
3016,Boldog,HE,47.6,19.7,boldog
3021,Lőrinci,HE,47.7333,19.6833,lőrinci
3022,Lőrinci,HE,47.7333,19.6833,lőrinci
3023,Petőfibánya,HE,47.7667,19.7167,petőfibánya
3024,Petőfibánya,HE,47.7667,19.7167,petőfibánya
3031,Zagyvaszántó,HE,47.7833,19.6833,zagyvaszántó
3032,Apc,HE,47.8,19.7,apc
3033,Rózsaszentmárton,HE,47.7833,19.75,rózsaszentmárton
3034,Szűcsi,HE,47.8,19.7667,szűcsi
3035,Gyöngyöspata,HE,47.8167,19.8,gyöngyöspata
3036,Gyöngyöstarján,HE,47.8,19.8667,gyöngyöstarján
3041,Héhalom,NO,47.8,19.6,héhalom
3042,Palotás,NO,47.8,19.6,palotás
3043,Egyházasdengeleg,NO,47.8,19.5667,egyházasdengeleg
3044,Szirák,NO,47.8333,19.5333,szirák
3045,Bér,NO,47.8667,19.5,bér
3046,Kisbágyon,NO,47.8167,19.5833,kisbágyon
3047,Buják,NO,47.8833,19.55,buják
3051,Szarvasgede,NO,47.8167,19.65,szarvasgede
3052,Csécse,NO,47.8667,19.6333,csécse
3053,Kozárd,NO,47.9167,19.6167,kozárd
3053,Ecseg,NO,47.9,19.6,ecseg
3060,Pásztó,NO,47.9167,19.7,pásztó
3061,Pásztó,NO,47.9167,19.7,pásztó
3062,Pásztó,NO,47.9167,19.7,pásztó
3063,Jobbágyi,NO,47.8333,19.6833,jobbágyi
3064,Szurdokpüspöki,NO,47.85,19.6833,szurdokpüspöki
3065,Szurdokpüspöki,NO,47.85,19.6833,szurdokpüspöki
3066,Kutasó,NO,47.95,19.55,kutasó
3066,Bokor,NO,47.9333,19.55,bokor
3066,Cserhátszentiván,NO,47.9333,19.5833,cserhátszentiván
3067,Felsőtold,NO,47.9667,19.6167,felsőtold
3067,Garáb,NO,47.9833,19.65,garáb
3068,Mátraszőlős,NO,47.9667,19.6833,mátraszőlős
3069,Alsótold,NO,47.95,19.6,alsótold
3070,Bátonyterenye,NO,47.9667,19.8333,bátonyterenye
3071,Bátonyterenye,NO,47.9667,19.8333,bátonyterenye
3072,Bátonyterenye,NO,47.9667,19.8333,bátonyterenye
3073,Tar,NO,47.95,19.75,tar
3074,Sámsonháza,NO,47.9833,19.7333,sámsonháza
3075,Márkháza,NO,48.0167,19.7333,márkháza
3075,Kisbárkány,NO,48.0167,19.6833,kisbárkány
3075,Nagybárkány,NO,48.0,19.7,nagybárkány
3077,Mátraverebély,NO,47.9833,19.7833,mátraverebély
3078,Mátraverebély,NO,47.9833,19.7833,mátraverebély
3082,Mátraverebély,NO,47.9833,19.7833,mátraverebély
3100,Salgótarján,NO,48.1167,19.8167,salgótarján
3101,Salgótarján,NO,48.1167,19.8167,salgótarján
3102,Salgótarján,NO,48.1167,19.8167,salgótarján
3103,Salgótarján,NO,48.1167,19.8167,salgótarján
3104,Salgótarján,NO,48.1167,19.8167,salgótarján
3107,Salgótarján,NO,48.1167,19.8167,salgótarján
3109,Salgótarján,NO,48.1167,19.8167,salgótarján
3110,Salgótarján,NO,48.1167,19.8167,salgótarján
3121,Salgótarján,NO,48.1167,19.8167,salgótarján
3123,Cered,NO,48.15,19.9667,cered
3124,Zabar,NO,48.1333,20.05,zabar
3125,Szilaspogony,NO,48.1167,20.0333,szilaspogony
3126,Bárna,NO,48.1,19.9333,bárna
3127,Kazár,NO,48.05,19.8667,kazár
3128,Vizslás,NO,48.05,19.8167,vizslás
3129,Lucfalva,NO,48.0333,19.7,lucfalva
3131,Sóshartyán,NO,48.0667,19.6833,sóshartyán
3132,Nógrádmegyer,NO,48.0667,19.6333,nógrádmegyer
3133,Magyargéc,NO,48.0833,19.6167,magyargéc
3134,Piliny,NO,48.15,19.6,piliny
3135,Szécsényfelfalu,NO,48.15,19.5667,szécsényfelfalu
3136,Etes,NO,48.1167,19.7167,etes
3137,Karancsberény,NO,48.1833,19.75,karancsberény
3138,Ipolytarnóc,NO,48.2333,19.6333,ipolytarnóc
3141,Ipolytarnóc,NO,48.2333,19.6333,ipolytarnóc
3142,Mátraszele,NO,48.05,19.9,mátraszele
3143,Mátranovák,NO,48.0333,19.9833,mátranovák
3144,Mátranovák,NO,48.0333,19.9833,mátranovák
3145,Mátraterenye,NO,48.0333,19.95,mátraterenye
3146,Mátraterenye,NO,48.0333,19.95,mátraterenye
3147,Mátraterenye,NO,48.0333,19.95,mátraterenye
3151,Rákóczibánya,NO,47.9875,19.9125,rákóczibánya
3152,Nemti,NO,48.0167,19.9,nemti
3153,Dorogháza,NO,47.9833,19.9,dorogháza
3154,Szuha,NO,47.9833,19.9167,szuha
3155,Mátramindszent,NO,47.9667,19.9333,mátramindszent
3161,Kishartyán,NO,48.0833,19.7167,kishartyán
3162,Ságújfalu,NO,48.1,19.6833,ságújfalu
3163,Karancsság,NO,48.1167,19.6667,karancsság
3163,Szalmatercs,NO,48.1167,19.6333,szalmatercs
3165,Endrefalva,NO,48.1333,19.5833,endrefalva
3170,Szécsény,NO,48.0833,19.5167,szécsény
3175,Nagylóc,NO,48.0333,19.5833,nagylóc
3176,Hollókő,NO,48.0,19.6,hollókő
3177,Rimóc,NO,48.0333,19.5333,rimóc
3178,Varsány,NO,48.0333,19.5,varsány
3179,Nógrádsipek,NO,48.0167,19.5,nógrádsipek
3181,Karancsalja,NO,48.1333,19.75,karancsalja
3182,Karancslapujtő,NO,48.15,19.7333,karancslapujtő
3183,Karancskeszi,NO,48.1667,19.7,karancskeszi
3184,Mihálygerge,NO,48.2,19.6333,mihálygerge
3185,Egyházasgerge,NO,48.1833,19.65,egyházasgerge
3186,Litke,NO,48.2167,19.6,litke
3187,Nógrádszakál,NO,48.1833,19.5333,nógrádszakál
3188,Ludányhalászi,NO,48.1333,19.5167,ludányhalászi
3200,Gyöngyös,HE,47.7833,19.9333,gyöngyös
3201,Gyöngyös,HE,47.7833,19.9333,gyöngyös
3202,Gyöngyös,HE,47.7833,19.9333,gyöngyös
3211,Gyöngyösoroszi,HE,47.8333,19.9,gyöngyösoroszi
3212,Gyöngyöshalász,HE,47.7333,19.9333,gyöngyöshalász
3213,Atkár,HE,47.7167,19.9,atkár
3214,Nagyréde,HE,47.7667,19.85,nagyréde
3221,Nagyréde,HE,47.7667,19.85,nagyréde
3231,Gyöngyössolymos,HE,47.8167,19.9333,gyöngyössolymos
3232,Gyöngyössolymos,HE,47.8167,19.9333,gyöngyössolymos
3233,Gyöngyössolymos,HE,47.8167,19.9333,gyöngyössolymos
3234,Gyöngyössolymos,HE,47.8167,19.9333,gyöngyössolymos
3235,Mátraszentimre,HE,47.9167,19.8833,mátraszentimre
3240,Parád,HE,47.9167,20.0333,parád
3242,Parádsasvár,HE,47.9167,19.9833,parádsasvár
3243,Bodony,HE,47.95,20.0333,bodony
3244,Bodony,HE,47.95,20.0333,bodony
3245,Recsk,HE,47.9333,20.1167,recsk
3246,Mátraderecske,HE,47.95,20.0833,mátraderecske
3247,Mátraballa,HE,47.9833,20.0333,mátraballa
3248,Ivád,HE,48.0167,20.0667,ivád
3250,Pétervására,HE,48.0167,20.1,pétervására
3252,Erdőkövesd,HE,48.0333,20.1,erdőkövesd
3253,Istenmezeje,HE,48.0833,20.05,istenmezeje
3254,Váraszó,HE,48.0333,20.1167,váraszó
3255,Fedémes,HE,48.0333,20.2,fedémes
3256,Kisfüzes,HE,47.9833,20.1333,kisfüzes
3257,Bükkszenterzsébet,HE,48.05,20.1667,bükkszenterzsébet
3258,Tarnalelesz,HE,48.05,20.1833,tarnalelesz
3259,Szentdomonkos,HE,48.0667,20.2,szentdomonkos
3261,Abasár,HE,47.8,20.0,abasár
3262,Markaz,HE,47.8167,20.0667,markaz
3263,Domoszló,HE,47.8333,20.1167,domoszló
3264,Kisnána,HE,47.85,20.15,kisnána
3265,Vécs,HE,47.8167,20.1667,vécs
3271,Visonta,HE,47.7833,20.0333,visonta
3272,Visonta,HE,47.7833,20.0333,visonta
3273,Halmajugra,HE,47.7667,20.0667,halmajugra
3274,Ludas,HE,47.7333,20.1,ludas
3275,Detk,HE,47.75,20.1,detk
3281,Karácsond,HE,47.7333,20.0333,karácsond
3282,Nagyfüged,HE,47.6833,20.1167,nagyfüged
3283,Tarnazsadány,HE,47.6667,20.1667,tarnazsadány
3284,Tarnaméra,HE,47.65,20.1667,tarnaméra
3291,Vámosgyörk,HE,47.6833,19.9333,vámosgyörk
3292,Adács,HE,47.7,19.9833,adács
3293,Visznek,HE,47.65,20.0333,visznek
3294,Tarnaörs,HE,47.66,20.03,tarnaörs
3295,Erk,HE,47.6167,20.0833,erk
3296,Zaránk,HE,47.65,20.1167,zaránk
3300,Eger,HE,47.9058,20.3709,eger
3301,Eger,HE,47.9,20.3833,eger
3302,Eger,HE,47.9,20.3833,eger
3303,Eger,HE,47.9,20.3833,eger
3304,Eger,HE,47.9,20.3833,eger
3305,Eger,HE,47.9,20.3833,eger
3321,Egerbakta,HE,47.9333,20.3,egerbakta
3322,Hevesaranyos,HE,48.0167,20.2333,hevesaranyos
3323,Szarvaskő,HE,47.9,20.3833,szarvaskő
3324,Felsőtárkány,HE,47.9667,20.4167,felsőtárkány
3325,Noszvaj,HE,47.9333,20.4833,noszvaj
3326,Ostoros,HE,47.8667,20.4333,ostoros
3327,Novaj,HE,47.85,20.4833,novaj
3328,Egerszólát,HE,47.8833,20.2667,egerszólát
3331,Tarnaszentmária,HE,47.8833,20.2,tarnaszentmária
3332,Sirok,HE,47.9333,20.2,sirok
3333,Terpes,HE,47.9667,20.15,terpes
3334,Szajla,HE,47.9667,20.15,szajla
3335,Bükkszék,HE,47.9833,20.1833,bükkszék
3336,Bátor,HE,47.9833,20.2667,bátor
3337,Egerbocs,HE,48.0333,20.2667,egerbocs
3341,Szúcs,HE,48.05,20.25,szúcs
3341,Egercsehi,HE,48.05,20.2833,egercsehi
3343,Bekölce,HE,48.0833,20.2833,bekölce
3344,Mikófalva,HE,48.05,20.3167,mikófalva
3345,Mónosbél,HE,48.0333,20.35,mónosbél
3346,Bélapátfalva,HE,48.05,20.3667,bélapátfalva
3346,Bükkszentmárton,HE,48.0667,20.35,bükkszentmárton
3347,Balaton,HE,48.1,20.3167,balaton
3348,Szilvásvárad,HE,48.1,20.4,szilvásvárad
3349,Nagyvisnyó,HE,48.1333,20.4333,nagyvisnyó
3350,Kál,HE,47.7333,20.2667,kál
3351,Verpelét,HE,47.85,20.2333,verpelét
3352,Feldebrő,HE,47.8167,20.25,feldebrő
3353,Aldebrő,HE,47.8,20.2333,aldebrő
3354,Tófalu,HE,47.7833,20.25,tófalu
3355,Kápolna,HE,47.7667,20.25,kápolna
3356,Kompolt,HE,47.7333,20.25,kompolt
3357,Nagyút,HE,47.7167,20.1667,nagyút
3358,Erdőtelek,HE,47.6833,20.3167,erdőtelek
3359,Tenk,HE,47.65,20.35,tenk
3360,Heves,HE,47.6,20.2833,heves
3368,Boconád,HE,47.6333,20.2,boconád
3369,Tarnabod,HE,47.6833,20.2333,tarnabod
3371,Átány,HE,47.6167,20.3667,átány
3372,Kömlő,HE,47.6,20.45,kömlő
3373,Besenyőtelek,HE,47.7,20.4333,besenyőtelek
3374,Dormánd,HE,47.7167,20.4167,dormánd
3375,Mezőtárkány,HE,47.7167,20.4833,mezőtárkány
3377,Szihalom,HE,47.7667,20.4833,szihalom
3378,Mezőszemere,HE,47.75,20.5333,mezőszemere
3379,Egerfarmos,HE,47.7167,20.55,egerfarmos
3381,Pély,HE,47.4833,20.35,pély
3382,Tarnaszentmiklós,HE,47.5333,20.3833,tarnaszentmiklós
3383,Hevesvezekény,HE,47.55,20.3667,hevesvezekény
3384,Kisköre,HE,47.5,20.5,kisköre
3385,Tiszanána,HE,47.5667,20.5333,tiszanána
3386,Sarud,HE,47.5833,20.6,sarud
3387,Újlőrincfalva,HE,47.6333,20.6,újlőrincfalva
3388,Poroszló,HE,47.65,20.6667,poroszló
3390,Füzesabony,HE,47.75,20.4167,füzesabony
3392,Füzesabony,HE,47.75,20.4167,füzesabony
3393,Füzesabony,HE,47.75,20.4167,füzesabony
3394,Egerszalók,HE,47.8667,20.3333,egerszalók
3395,Demjén,HE,47.8333,20.3333,demjén
3396,Kerecsend,HE,47.8,20.35,kerecsend
3397,Maklár,HE,47.8,20.4167,maklár
3398,Nagytálya,HE,47.8167,20.4167,nagytálya
3399,Andornaktálya,HE,47.85,20.4167,andornaktálya
3400,Mezőkövesd,BZ,47.8167,20.5833,mezőkövesd
3401,Mezőkövesd,BZ,47.8167,20.5833,mezőkövesd
3402,Mezőkövesd,BZ,47.8167,20.5833,mezőkövesd
3411,Szomolya,BZ,47.9,20.5,szomolya
3412,Bogács,BZ,47.9,20.5333,bogács
3413,Cserépfalu,BZ,47.9333,20.5333,cserépfalu
3414,Bükkzsérc,BZ,47.9667,20.5,bükkzsérc
3416,Tard,BZ,47.8833,20.6167,tard
3417,Cserépváralja,BZ,47.9333,20.5667,cserépváralja
3418,Szentistván,BZ,47.7667,20.6667,szentistván
3421,Mezőnyárád,BZ,47.8667,20.6833,mezőnyárád
3422,Bükkábrány,BZ,47.8833,20.6833,bükkábrány
3423,Tibolddaróc,BZ,47.9167,20.6333,tibolddaróc
3424,Kács,BZ,47.95,20.6167,kács
3425,Sály,BZ,47.95,20.6667,sály
3426,Borsodgeszt,BZ,47.95,20.7,borsodgeszt
3431,Vatta,BZ,47.9167,20.75,vatta
3432,Emőd,BZ,47.9333,20.8167,emőd
3433,Nyékládháza,BZ,47.9833,20.8333,nyékládháza
3434,Mályi,BZ,48.0167,20.8333,mályi
3435,Mályi,BZ,48.0167,20.8333,mályi
3441,Mezőkeresztes,BZ,47.8333,20.7,mezőkeresztes
3442,Csincse,BZ,47.8833,20.7667,csincse
3443,Mezőnagymihály,BZ,47.8167,20.7333,mezőnagymihály
3444,Gelej,BZ,47.8333,20.7833,gelej
3450,Mezőcsát,BZ,47.8167,20.9167,mezőcsát
3458,Tiszakeszi,BZ,47.7833,21.0,tiszakeszi
3459,Igrici,BZ,47.8667,20.8833,igrici
3461,Egerlövő,BZ,47.7167,20.6333,egerlövő
3462,Borsodivánka,BZ,47.7,20.6667,borsodivánka
3463,Négyes,BZ,47.7,20.7167,négyes
3464,Tiszavalk,BZ,47.6833,20.75,tiszavalk
3465,Tiszabábolna,BZ,47.6833,20.8167,tiszabábolna
3466,Tiszadorogma,BZ,47.6833,20.8667,tiszadorogma
3467,Ároktő,BZ,47.7333,20.95,ároktő
3500,Miskolc,BZ,47.9804,20.9354,miskolc
3501,Miskolc,BZ,47.9804,20.9354,miskolc
3502,Miskolc,BZ,47.9804,20.9354,miskolc
3503,Miskolc,BZ,47.9804,20.9354,miskolc
3504,Miskolc,BZ,47.9804,20.9354,miskolc
3505,Miskolc,BZ,47.9804,20.9354,miskolc
3506,Miskolc,BZ,47.9804,20.9354,miskolc
3507,Miskolc,BZ,47.9804,20.9354,miskolc
3508,Miskolc,BZ,47.9804,20.9354,miskolc
3509,Miskolc,BZ,47.9804,20.9354,miskolc
3510,Miskolc,BZ,47.9804,20.9354,miskolc
3511,Miskolc,BZ,47.9804,20.9354,miskolc
3513,Miskolc,BZ,47.9804,20.9354,miskolc
3514,Miskolc,BZ,47.9804,20.9354,miskolc
3515,Miskolc,BZ,47.9804,20.9354,miskolc
3516,Miskolc,BZ,47.9804,20.9354,miskolc
3517,Miskolc,BZ,47.9804,20.9354,miskolc
3518,Miskolc,BZ,47.9804,20.9354,miskolc
3519,Miskolc,BZ,47.9804,20.9354,miskolc
3521,Miskolc,BZ,47.9804,20.9354,miskolc
3523,Miskolc,BZ,47.9804,20.9354,miskolc
3524,Miskolc,BZ,47.9804,20.9354,miskolc
3525,Miskolc,BZ,47.9804,20.9354,miskolc
3526,Miskolc,BZ,47.9804,20.9354,miskolc
3527,Miskolc,BZ,47.9804,20.9354,miskolc
3528,Miskolc,BZ,47.9804,20.9354,miskolc
3529,Miskolc,BZ,47.9804,20.9354,miskolc
3530,Miskolc,BZ,47.9804,20.9354,miskolc
3531,Miskolc,BZ,47.9804,20.9354,miskolc
3532,Miskolc,BZ,47.9804,20.9354,miskolc
3533,Miskolc,BZ,47.9804,20.9354,miskolc
3534,Miskolc,BZ,47.9804,20.9354,miskolc
3535,Miskolc,BZ,47.9804,20.9354,miskolc
3542,Miskolc,BZ,47.9804,20.9354,miskolc
3543,Miskolc,BZ,47.9804,20.9354,miskolc
3544,Miskolc,BZ,47.9804,20.9354,miskolc
3545,Miskolc,BZ,47.9804,20.9354,miskolc
3546,Miskolc,BZ,47.9804,20.9354,miskolc
3547,Miskolc,BZ,47.9804,20.9354,miskolc
3548,Miskolc,BZ,47.9804,20.9354,miskolc
3549,Miskolc,BZ,47.9804,20.9354,miskolc
3551,Ónod,BZ,48.0,20.9167,ónod
3552,Muhi,BZ,47.9833,20.9333,muhi
3553,Kistokaj,BZ,48.05,20.85,kistokaj
3554,Bükkaranyos,BZ,47.9833,20.7833,bükkaranyos
3555,Harsány,BZ,47.9667,20.75,harsány
3556,Kisgyőr,BZ,48.0167,20.7,kisgyőr
3557,Bükkszentkereszt,BZ,48.0667,20.6333,bükkszentkereszt
3559,Répáshuta,BZ,48.05,20.5333,répáshuta
3561,Felsőzsolca,BZ,48.1,20.8667,felsőzsolca
3562,Onga,BZ,48.1167,20.9167,onga
3563,Hernádkak,BZ,48.0833,20.9667,hernádkak
3564,Hernádnémeti,BZ,48.0667,20.9833,hernádnémeti
3565,Tiszalúc,BZ,48.0333,21.0833,tiszalúc
3571,Alsózsolca,BZ,48.0667,20.8833,alsózsolca
3572,Sajólád,BZ,48.05,20.9,sajólád
3573,Sajópetri,BZ,48.0333,20.9,sajópetri
3574,Bőcs,BZ,48.05,20.9667,bőcs
3575,Berzék,BZ,48.0167,20.95,berzék
3576,Sajóhídvég,BZ,48.0,20.95,sajóhídvég
3577,Köröm,BZ,47.9833,20.95,köröm
3578,Girincs,BZ,47.9667,20.9833,girincs
3578,Kiscsécs,BZ,47.9667,21.0167,kiscsécs
3579,Kesznyéten,BZ,47.9667,21.05,kesznyéten
3580,Tiszaújváros,BZ,47.9333,21.0833,tiszaújváros
3581,Tiszaújváros,BZ,47.9333,21.0833,tiszaújváros
3582,Tiszaújváros,BZ,47.9333,21.0833,tiszaújváros
3585,Tiszaújváros,BZ,47.9333,21.0833,tiszaújváros
3586,Sajóörös,BZ,47.95,21.0333,sajóörös
3587,Tiszapalkonya,BZ,47.8833,21.0667,tiszapalkonya
3588,Hejőkürt,BZ,47.8667,21.0,hejőkürt
3589,Tiszatarján,BZ,47.8333,21.0167,tiszatarján
3591,Oszlár,BZ,47.8833,21.0333,oszlár
3592,Nemesbikk,BZ,47.8833,20.9667,nemesbikk
3593,Hejőbába,BZ,47.9,20.95,hejőbába
3594,Hejőpapi,BZ,47.9,20.9167,hejőpapi
3595,Hejőszalonta,BZ,47.9333,20.8833,hejőszalonta
3596,Szakáld,BZ,47.95,20.9167,szakáld
3597,Hejőkeresztúr,BZ,47.9667,20.8833,hejőkeresztúr
3598,Nagycsécs,BZ,47.9667,20.95,nagycsécs
3599,Sajószöged,BZ,47.95,21.0,sajószöged
3600,Ózd,BZ,48.2167,20.3,ózd
3601,Ózd,BZ,48.2167,20.3,ózd
3603,Ózd,BZ,48.2167,20.3,ózd
3604,Ózd,BZ,48.2167,20.3,ózd
3607,Ózd,BZ,48.2167,20.3,ózd
3608,Ózd,BZ,48.2167,20.3,ózd
3621,Ózd,BZ,48.2167,20.3,ózd
3622,Uppony,BZ,48.2167,20.4333,uppony
3623,Borsodszentgyörgy,BZ,48.1833,20.2,borsodszentgyörgy
3625,Borsodszentgyörgy,BZ,48.1833,20.2,borsodszentgyörgy
3626,Hangony,BZ,48.2333,20.2,hangony
3627,Kissikátor,BZ,48.2,20.1333,kissikátor
3627,Domaháza,BZ,48.1833,20.1167,domaháza
3630,Putnok,BZ,48.3,20.4333,putnok
3635,Dubicsány,BZ,48.2833,20.5,dubicsány
3636,Sajógalgóc,BZ,48.3,20.5333,sajógalgóc
3636,Vadna,BZ,48.2667,20.5667,vadna
3641,Nagybarca,BZ,48.25,20.5333,nagybarca
3642,Bánhorváti,BZ,48.2333,20.5167,bánhorváti
3643,Dédestapolcsány,BZ,48.1833,20.4833,dédestapolcsány
3644,Tardona,BZ,48.1667,20.5333,tardona
3645,Mályinka,BZ,48.15,20.5,mályinka
3646,Nekézseny,BZ,48.1667,20.4333,nekézseny
3647,Csokvaomány,BZ,48.1667,20.3833,csokvaomány
3648,Lénárddaróc,BZ,48.15,20.3833,lénárddaróc
3648,Bükkmogyorósd,BZ,48.1333,20.3667,bükkmogyorósd
3648,Csernely,BZ,48.15,20.35,csernely
3651,Lénárddaróc,BZ,48.15,20.3833,lénárddaróc
3652,Sajónémeti,BZ,48.2667,20.3833,sajónémeti
3653,Sajópüspöki,BZ,48.2833,20.35,sajópüspöki
3654,Bánréve,BZ,48.3,20.3667,bánréve
3655,Hét,BZ,48.2833,20.3833,hét
3656,Sajómercse,BZ,48.25,20.4167,sajómercse
3656,Sajóvelezd,BZ,48.2667,20.4667,sajóvelezd
3657,Királd,BZ,48.25,20.4,királd
3658,Borsodbóta,BZ,48.2167,20.4,borsodbóta
3659,Sáta,BZ,48.1833,20.4,sáta
3661,Sáta,BZ,48.1833,20.4,sáta
3662,Sáta,BZ,48.1833,20.4,sáta
3663,Arló,BZ,48.1833,20.2667,arló
3664,Járdánháza,BZ,48.15,20.25,járdánháza
3671,Borsodnádasd,BZ,48.1167,20.25,borsodnádasd
3672,Borsodnádasd,BZ,48.1167,20.25,borsodnádasd
3700,Kazincbarcika,BZ,48.25,20.6333,kazincbarcika
3701,Kazincbarcika,BZ,48.25,20.6333,kazincbarcika
3702,Kazincbarcika,BZ,48.25,20.6333,kazincbarcika
3703,Kazincbarcika,BZ,48.25,20.6333,kazincbarcika
3704,Kazincbarcika,BZ,48.25,20.6333,kazincbarcika
3705,Kazincbarcika,BZ,48.25,20.6333,kazincbarcika
3711,Szirmabesenyő,BZ,48.15,20.8,szirmabesenyő
3712,Sajósenye,BZ,48.2,20.8333,sajósenye
3712,Sajóvámos,BZ,48.1833,20.85,sajóvámos
3713,Arnót,BZ,48.1333,20.8667,arnót
3714,Sajópálfala,BZ,48.1667,20.85,sajópálfala
3715,Gesztely,BZ,48.1,20.9667,gesztely
3716,Újcsanálos,BZ,48.1333,21.0167,újcsanálos
3716,Sóstófalva,BZ,48.15,21.0,sóstófalva
3717,Alsódobsza,BZ,48.1833,21.0,alsódobsza
3718,Megyaszó,BZ,48.1833,21.05,megyaszó
3720,Sajókaza,BZ,48.2833,20.5833,sajókaza
3720,Sajóivánka,BZ,48.2667,20.5833,sajóivánka
3721,Felsőnyárád,BZ,48.3333,20.6,felsőnyárád
3721,Jákfalva,BZ,48.3333,20.5833,jákfalva
3721,Dövény,BZ,48.35,20.55,dövény
3722,Felsőkelecsény,BZ,48.3667,20.6,felsőkelecsény
3723,Zubogy,BZ,48.3833,20.5833,zubogy
3724,Imola,BZ,48.4167,20.55,imola
3724,Ragály,BZ,48.4,20.5167,ragály
3724,Trizs,BZ,48.4333,20.5,trizs
3726,Alsószuha,BZ,48.3667,20.5167,alsószuha
3726,Szuhafő,BZ,48.4167,20.45,szuhafő
3726,Zádorfalva,BZ,48.3833,20.4833,zádorfalva
3728,Gömörszőlős,BZ,48.3833,20.4333,gömörszőlős
3728,Kelemér,BZ,48.35,20.4333,kelemér
3729,Serényfalva,BZ,48.3167,20.4,serényfalva
3731,Szuhakálló,BZ,48.2833,20.6667,szuhakálló
3732,Kurityán,BZ,48.3167,20.6333,kurityán
3733,Rudabánya,BZ,48.3833,20.6333,rudabánya
3734,Szuhogy,BZ,48.3833,20.6833,szuhogy
3735,Kánó,BZ,48.4333,20.6,kánó
3735,Felsőtelekes,BZ,48.4,20.6333,felsőtelekes
3735,Alsótelekes,BZ,48.4167,20.6667,alsótelekes
3741,Izsófalva,BZ,48.3,20.6667,izsófalva
3742,Rudolftelep,BZ,48.3167,20.6833,rudolftelep
3743,Ormosbánya,BZ,48.35,20.65,ormosbánya
3744,Múcsony,BZ,48.2667,20.6833,múcsony
3751,Szendrőlád,BZ,48.35,20.75,szendrőlád
3752,Galvács,BZ,48.4167,20.7833,galvács
3752,Szendrő,BZ,48.4,20.7333,szendrő
3753,Abod,BZ,48.4,20.8,abod
3754,Szalonna,BZ,48.45,20.75,szalonna
3754,Meszes,BZ,48.4333,20.8,meszes
3755,Martonyi,BZ,48.4667,20.7667,martonyi
3756,Varbóc,BZ,48.4667,20.65,varbóc
3756,Perkupa,BZ,48.4667,20.7,perkupa
3757,Égerszög,BZ,48.45,20.5833,égerszög
3757,Teresztenye,BZ,48.45,20.6167,teresztenye
3757,Szőlősardó,BZ,48.45,20.6333,szőlősardó
3758,Jósvafő,BZ,48.4833,20.5667,jósvafő
3759,Aggtelek,BZ,48.4667,20.5167,aggtelek
3761,Szin,BZ,48.5,20.6667,szin
3761,Tornakápolna,BZ,48.4667,20.6167,tornakápolna
3761,Szinpetri,BZ,48.4833,20.6333,szinpetri
3762,Szögliget,BZ,48.5167,20.6833,szögliget
3763,Bódvaszilas,BZ,48.5333,20.7333,bódvaszilas
3764,Bódvarákó,BZ,48.5167,20.75,bódvarákó
3765,Tornaszentandrás,BZ,48.5167,20.7833,tornaszentandrás
3765,Komjáti,BZ,48.55,20.7667,komjáti
3765,Tornabarakony,BZ,48.5,20.8167,tornabarakony
3767,Tornanádaska,BZ,48.5667,20.7833,tornanádaska
3768,Hidvégardó,BZ,48.5667,20.85,hidvégardó
3768,Bódvalenke,BZ,48.55,20.8167,bódvalenke
3768,Becskeháza,BZ,48.5333,20.85,becskeháza
3769,Tornaszentjakab,BZ,48.5167,20.8833,tornaszentjakab
3770,Sajószentpéter,BZ,48.2167,20.7167,sajószentpéter
3773,Sajókápolna,BZ,48.2,20.7,sajókápolna
3773,Sajólászlófalva,BZ,48.1833,20.6833,sajólászlófalva
3775,Kondó,BZ,48.2,20.65,kondó
3776,Radostyán,BZ,48.1833,20.6667,radostyán
3777,Parasznya,BZ,48.1667,20.65,parasznya
3778,Varbó,BZ,48.1667,20.6333,varbó
3779,Alacska,BZ,48.2167,20.65,alacska
3780,Ládbesenyő,BZ,48.3,20.7333,ládbesenyő
3780,Damak,BZ,48.3167,20.8333,damak
3780,Balajt,BZ,48.3,20.7333,balajt
3780,Edelény,BZ,48.3,20.7333,edelény
3783,Ládbesenyő,BZ,48.3,20.7333,ládbesenyő
3786,Irota,BZ,48.4,20.8833,irota
3786,Szakácsi,BZ,48.3833,20.8667,szakácsi
3786,Hegymeg,BZ,48.3333,20.8667,hegymeg
3786,Lak,BZ,48.35,20.8667,lak
3787,Tomor,BZ,48.3333,20.8833,tomor
3791,Sajókeresztúr,BZ,48.1667,20.7833,sajókeresztúr
3792,Sajóbábony,BZ,48.1667,20.7333,sajóbábony
3793,Sajóecseg,BZ,48.2,20.7833,sajóecseg
3794,Boldva,BZ,48.2167,20.8,boldva
3794,Ziliz,BZ,48.25,20.8,ziliz
3795,Hangács,BZ,48.3,20.8333,hangács
3795,Nyomár,BZ,48.2833,20.8167,nyomár
3796,Borsodszirák,BZ,48.2667,20.7667,borsodszirák
3800,Szikszó,BZ,48.2,20.9333,szikszó
3809,Abaújszolnok,BZ,48.3667,20.9833,abaújszolnok
3809,Nyésta,BZ,48.3667,20.95,nyésta
3809,Selyeb,BZ,48.3333,20.9667,selyeb
3811,Alsóvadász,BZ,48.25,20.9167,alsóvadász
3812,Monaj,BZ,48.3,20.95,monaj
3812,Homrogd,BZ,48.2833,20.9167,homrogd
3813,Kupa,BZ,48.3333,20.9167,kupa
3814,Felsővadász,BZ,48.3667,20.9333,felsővadász
3815,Gadna,BZ,48.4,20.9333,gadna
3815,Abaújlak,BZ,48.4,20.9667,abaújlak
3816,Gagyvendégi,BZ,48.4333,20.9833,gagyvendégi
3817,Gagybátor,BZ,48.4333,20.95,gagybátor
3821,Pamlény,BZ,48.5,20.9333,pamlény
3821,Büttös,BZ,48.4833,21.0167,büttös
3821,Szászfa,BZ,48.4667,20.95,szászfa
3821,Kány,BZ,48.5167,21.0167,kány
3821,Perecse,BZ,48.5,21.0,perecse
3821,Krasznokvajda,BZ,48.4667,20.9833,krasznokvajda
3821,Keresztéte,BZ,48.5,20.95,keresztéte
3825,Debréte,BZ,48.5,20.8667,debréte
3825,Rakaca,BZ,48.4667,20.9,rakaca
3825,Viszló,BZ,48.5,20.9,viszló
3826,Rakacaszend,BZ,48.4667,20.85,rakacaszend
3831,Kázsmárk,BZ,48.2833,20.9833,kázsmárk
3832,Léh,BZ,48.2833,20.9833,léh
3833,Rásonysápberencs,BZ,48.3167,21.0,rásonysápberencs
3834,Beret,BZ,48.35,21.0333,beret
3834,Detek,BZ,48.3333,21.0333,detek
3836,Baktakék,BZ,48.3833,21.0333,baktakék
3837,Felsőgagy,BZ,48.4333,21.0167,felsőgagy
3837,Gagyapáti,BZ,48.4167,21.0,gagyapáti
3837,Alsógagy,BZ,48.4,21.0333,alsógagy
3837,Csenyéte,BZ,48.4333,21.05,csenyéte
3841,Aszaló,BZ,48.2167,20.9667,aszaló
3842,Halmaj,BZ,48.25,21.0,halmaj
3843,Kiskinizs,BZ,48.25,21.05,kiskinizs
3844,Szentistvánbaksa,BZ,48.2167,21.0333,szentistvánbaksa
3844,Nagykinizs,BZ,48.2333,21.0333,nagykinizs
3846,Hernádkércs,BZ,48.25,21.05,hernádkércs
3847,Felsődobsza,BZ,48.2667,21.0667,felsődobsza
3848,Csobád,BZ,48.2833,21.0333,csobád
3849,Forró,BZ,48.3167,21.0833,forró
3851,Ináncs,BZ,48.2833,21.0667,ináncs
3852,Hernádszentandrás,BZ,48.2833,21.1,hernádszentandrás
3853,Pere,BZ,48.2833,21.1333,pere
3853,Hernádbűd,BZ,48.3,21.1333,hernádbűd
3854,Hernádbűd,BZ,48.3,21.1333,hernádbűd
3855,Fancsal,BZ,48.35,21.0667,fancsal
3860,Encs,BZ,48.3333,21.1333,encs
3861,Encs,BZ,48.3333,21.1333,encs
3863,Szalaszend,BZ,48.3833,21.1333,szalaszend
3864,Fulókércs,BZ,48.4333,21.1167,fulókércs
3865,Fáj,BZ,48.4167,21.0833,fáj
3866,Szemere,BZ,48.4667,21.1,szemere
3866,Litka,BZ,48.45,21.0667,litka
3871,Méra,BZ,48.35,21.15,méra
3872,Novajidrány,BZ,48.4,21.1833,novajidrány
3873,Garadna,BZ,48.4167,21.1833,garadna
3874,Pusztaradvány,BZ,48.4667,21.1333,pusztaradvány
3874,Hernádvécse,BZ,48.45,21.1667,hernádvécse
3874,Hernádpetri,BZ,48.4833,21.1667,hernádpetri
3875,Hernádszurdok,BZ,48.4833,21.2167,hernádszurdok
3876,Hidasnémeti,BZ,48.5,21.2333,hidasnémeti
3877,Tornyosnémeti,BZ,48.5167,21.2667,tornyosnémeti
3881,Abaújszántó,BZ,48.2833,21.2,abaújszántó
3881,Sima,BZ,48.3,21.3,sima
3881,Baskó,BZ,48.3333,21.3333,baskó
3882,Abaújalpár,BZ,48.3167,21.2333,abaújalpár
3882,Abaújkér,BZ,48.3,21.2,abaújkér
3884,Boldogkőújfalu,BZ,48.3167,21.25,boldogkőújfalu
3885,Boldogkőváralja,BZ,48.3333,21.2333,boldogkőváralja
3885,Arka,BZ,48.35,21.25,arka
3886,Korlát,BZ,48.3833,21.25,korlát
3887,Hernádcéce,BZ,48.35,21.2,hernádcéce
3888,Vizsoly,BZ,48.3833,21.2167,vizsoly
3891,Vilmány,BZ,48.4167,21.2333,vilmány
3892,Hejce,BZ,48.4333,21.2833,hejce
3893,Regéc,BZ,48.4,21.35,regéc
3893,Fony,BZ,48.4,21.3,fony
3893,Mogyoróska,BZ,48.3833,21.3333,mogyoróska
3894,Göncruszka,BZ,48.45,21.25,göncruszka
3895,Gönc,BZ,48.4667,21.2833,gönc
3896,Telkibánya,BZ,48.4833,21.3667,telkibánya
3897,Zsujta,BZ,48.5,21.2833,zsujta
3898,Abaújvár,BZ,48.5333,21.3167,abaújvár
3898,Pányok,BZ,48.5333,21.3667,pányok
3899,Kéked,BZ,48.55,21.35,kéked
3900,Szerencs,BZ,48.1667,21.2,szerencs
3901,Szerencs,BZ,48.1667,21.2,szerencs
3903,Bekecs,BZ,48.15,21.1833,bekecs
3904,Legyesbénye,BZ,48.1667,21.15,legyesbénye
3905,Monok,BZ,48.2167,21.15,monok
3906,Golop,BZ,48.2333,21.2,golop
3907,Tállya,BZ,48.2333,21.2333,tállya
3908,Rátka,BZ,48.2167,21.2333,rátka
3909,Mád,BZ,48.2,21.2833,mád
3910,Tokaj,BZ,48.1167,21.4167,tokaj
3911,Tokaj,BZ,48.1167,21.4167,tokaj
3915,Tarcal,BZ,48.1333,21.35,tarcal
3916,Bodrogkeresztúr,BZ,48.1667,21.3667,bodrogkeresztúr
3917,Bodrogkisfalud,BZ,48.1833,21.3667,bodrogkisfalud
3918,Szegi,BZ,48.2,21.3833,szegi
3918,Szegilong,BZ,48.2167,21.4,szegilong
3921,Taktaszada,BZ,48.1167,21.1833,taktaszada
3922,Taktaharkány,BZ,48.0833,21.1333,taktaharkány
3923,Taktaharkány,BZ,48.0833,21.1333,taktaharkány
3924,Taktakenéz,BZ,48.05,21.2167,taktakenéz
3925,Prügy,BZ,48.0833,21.25,prügy
3926,Taktabáj,BZ,48.0667,21.3167,taktabáj
3927,Csobaj,BZ,48.05,21.35,csobaj
3928,Tiszatardos,BZ,48.05,21.3833,tiszatardos
3929,Tiszaladány,BZ,48.0667,21.4167,tiszaladány
3931,Mezőzombor,BZ,48.15,21.2667,mezőzombor
3932,Erdőbénye,BZ,48.2667,21.3667,erdőbénye
3933,Olaszliszka,BZ,48.25,21.4333,olaszliszka
3934,Tolcsva,BZ,48.2833,21.45,tolcsva
3935,Erdőhorváti,BZ,48.3167,21.4333,erdőhorváti
3936,Háromhuta,BZ,48.3833,21.4333,háromhuta
3937,Komlóska,BZ,48.3333,21.4667,komlóska
3941,Vámosújfalu,BZ,48.2667,21.4667,vámosújfalu
3942,Sárazsadány,BZ,48.2667,21.5,sárazsadány
3943,Bodrogolaszi,BZ,48.2833,21.5167,bodrogolaszi
3944,Bodrogolaszi,BZ,48.2833,21.5167,bodrogolaszi
3945,Bodrogolaszi,BZ,48.2833,21.5167,bodrogolaszi
3950,Sárospatak,BZ,48.3167,21.5833,sárospatak
3954,Györgytarló,BZ,48.2,21.6667,györgytarló
3955,Kenézlő,BZ,48.2,21.5333,kenézlő
3956,Viss,BZ,48.2167,21.5167,viss
3957,Zalkod,BZ,48.1833,21.4667,zalkod
3958,Hercegkút,BZ,48.3333,21.5333,hercegkút
3959,Makkoshotyka,BZ,48.35,21.5167,makkoshotyka
3961,Vajdácska,BZ,48.3167,21.6667,vajdácska
3962,Karos,BZ,48.3333,21.75,karos
3963,Karcsa,BZ,48.3167,21.8,karcsa
3964,Pácin,BZ,48.3333,21.8333,pácin
3965,Kisrozvágy,BZ,48.35,21.95,kisrozvágy
3965,Nagyrozvágy,BZ,48.3333,21.9167,nagyrozvágy
3967,Lácacséke,BZ,48.3667,22.0,lácacséke
3971,Tiszakarád,BZ,48.2,21.7167,tiszakarád
3972,Tiszacsermely,BZ,48.2333,21.7833,tiszacsermely
3973,Cigánd,BZ,48.25,21.9,cigánd
3974,Ricse,BZ,48.3333,21.9667,ricse
3974,Semjén,BZ,48.35,21.9667,semjén
3976,Révleányvár,BZ,48.3167,22.05,révleányvár
3977,Zemplénagárd,BZ,48.35,22.0833,zemplénagárd
3978,Dámóc,BZ,48.3667,22.0333,dámóc
3980,Sátoraljaújhely,BZ,48.4,21.6667,sátoraljaújhely
3981,Sátoraljaújhely,BZ,48.4,21.6667,sátoraljaújhely
3985,Felsőberecki,BZ,48.3667,21.7,felsőberecki
3985,Alsóberecki,BZ,48.35,21.7,alsóberecki
3987,Bodroghalom,BZ,48.3,21.7167,bodroghalom
3988,Bodroghalom,BZ,48.3,21.7167,bodroghalom
3989,Mikóháza,BZ,48.475,21.6167,mikóháza
3989,Felsőregmec,BZ,48.4833,21.6167,felsőregmec
3989,Alsóregmec,BZ,48.4667,21.6167,alsóregmec
3991,Vilyvitány,BZ,48.5,21.5667,vilyvitány
3992,Vágáshuta,BZ,48.4167,21.55,vágáshuta
3992,Kovácsvágás,BZ,48.45,21.5333,kovácsvágás
3993,Füzérradvány,BZ,48.4833,21.5333,füzérradvány
3994,Kishuta,BZ,48.45,21.4833,kishuta
3994,Filkeháza,BZ,48.5,21.5,filkeháza
3994,Nagyhuta,BZ,48.4333,21.5,nagyhuta
3994,Füzérkajata,BZ,48.5167,21.5,füzérkajata
3994,Pálháza,BZ,48.4667,21.5167,pálháza
3994,Bózsva,BZ,48.4667,21.4667,bózsva
3995,Pusztafalu,BZ,48.55,21.5,pusztafalu
3996,Füzér,BZ,48.55,21.4667,füzér
3997,Füzérkomlós,BZ,48.5167,21.4667,füzérkomlós
3998,Nyíri,BZ,48.5,21.45,nyíri
3999,Hollóháza,BZ,48.55,21.4167,hollóháza
4000,Debrecen,HB,47.7675,21.24,debrecen
4001,Debrecen,HB,47.7675,21.24,debrecen
4002,Debrecen,HB,47.7675,21.24,debrecen
4003,Debrecen,HB,47.7675,21.24,debrecen
4004,Debrecen,HB,47.7675,21.24,debrecen
4005,Debrecen,HB,47.7675,21.24,debrecen
4006,Debrecen,HB,47.7675,21.24,debrecen
4007,Debrecen,HB,47.7675,21.24,debrecen
4008,Debrecen,HB,47.7675,21.24,debrecen
4009,Debrecen,HB,47.7675,21.24,debrecen
4010,Debrecen,HB,47.7675,21.24,debrecen
4011,Debrecen,HB,47.7675,21.24,debrecen
4012,Debrecen,HB,47.7675,21.24,debrecen
4013,Debrecen,HB,47.7675,21.24,debrecen
4014,Debrecen,HB,47.7675,21.24,debrecen
4015,Debrecen,HB,47.7675,21.24,debrecen
4017,Debrecen,HB,47.7675,21.24,debrecen
4021,Debrecen,HB,47.7675,21.24,debrecen
4022,Debrecen,HB,47.7675,21.24,debrecen
4024,Debrecen,HB,47.7675,21.24,debrecen
4025,Debrecen,HB,47.7675,21.24,debrecen
4026,Debrecen,HB,47.7675,21.24,debrecen
4027,Debrecen,HB,47.7675,21.24,debrecen
4028,Debrecen,HB,47.7675,21.24,debrecen
4029,Debrecen,HB,47.7675,21.24,debrecen
4030,Debrecen,HB,47.7675,21.24,debrecen
4031,Debrecen,HB,47.7675,21.24,debrecen
4032,Debrecen,HB,47.7675,21.24,debrecen
4033,Debrecen,HB,47.7675,21.24,debrecen
4034,Debrecen,HB,47.7675,21.24,debrecen
4040,Debrecen,HB,47.7675,21.24,debrecen
4041,Debrecen,HB,47.7675,21.24,debrecen
4042,Debrecen,HB,47.7675,21.24,debrecen
4044,Debrecen,HB,47.7675,21.24,debrecen
4045,Debrecen,HB,47.7675,21.24,debrecen
4046,Debrecen,HB,47.7675,21.24,debrecen
4047,Debrecen,HB,47.7675,21.24,debrecen
4048,Debrecen,HB,47.7675,21.24,debrecen
4060,Balmazújváros,HB,47.6167,21.35,balmazújváros
4063,Balmazújváros,HB,47.6167,21.35,balmazújváros
4063,Debrecen,HB,47.6167,21.35,debrecen
4064,Nagyhegyes,HB,47.5167,21.4167,nagyhegyes
4065,Újszentmargita,HB,47.7333,21.1,újszentmargita
4066,Tiszacsege,HB,47.7,21.0,tiszacsege
4067,Tiszacsege,HB,47.7,21.0,tiszacsege
4069,Egyek,HB,47.6333,20.9,egyek
4071,Hortobágy,HB,47.5833,21.1667,hortobágy
4074,Tarnalelesz,HB,47.7708,21.2167,tarnalelesz
4075,Görbeháza,HB,47.8333,21.2333,görbeháza
4078,Görbeháza,HB,47.8333,21.2333,görbeháza
4079,Görbeháza,HB,47.8333,21.2333,görbeháza
4080,Hajdúnánás,HB,47.85,21.4333,hajdúnánás
4081,Hajdúnánás,HB,47.85,21.4333,hajdúnánás
4085,Hajdúnánás,HB,47.85,21.4333,hajdúnánás
4086,Hajdúnánás,HB,47.85,21.4333,hajdúnánás
4087,Hajdúdorog,HB,47.8167,21.5,hajdúdorog
4090,Polgár,HB,47.8667,21.1167,polgár
4090,Folyás,HB,47.8,21.1333,folyás
4096,Újtikos,HB,47.9167,21.1833,újtikos
4097,Tiszagyulaháza,HB,47.95,21.15,tiszagyulaháza
4100,Berettyóújfalu,HB,47.2167,21.55,berettyóújfalu
4101,Berettyóújfalu,HB,47.2167,21.55,berettyóújfalu
4103,Berettyóújfalu,HB,47.2167,21.55,berettyóújfalu
4110,Biharkeresztes,HB,47.1333,21.7167,biharkeresztes
4114,Bojt,HB,47.2,21.7333,bojt
4115,Ártánd,HB,47.1167,21.7667,ártánd
4116,Berekböszörmény,HB,47.0667,21.6833,berekböszörmény
4117,Told,HB,47.1167,21.65,told
4118,Mezőpeterd,HB,47.1667,21.6167,mezőpeterd
4119,Váncsod,HB,47.2,21.65,váncsod
4121,Szentpéterszeg,HB,47.2333,21.6167,szentpéterszeg
4122,Gáborján,HB,47.2333,21.6667,gáborján
4123,Hencida,HB,47.25,21.7,hencida
4124,Esztár,HB,47.2833,21.7833,esztár
4125,Pocsaj,HB,47.2833,21.8167,pocsaj
4126,Kismarja,HB,47.25,21.8333,kismarja
4127,Nagykereki,HB,47.1833,21.8,nagykereki
4128,Bedő,HB,47.1667,21.75,bedő
4130,Derecske,HB,47.35,21.5667,derecske
4131,Derecske,HB,47.35,21.5667,derecske
4132,Tépe,HB,47.3167,21.5833,tépe
4133,Konyár,HB,47.3167,21.6667,konyár
4134,Mezősas,HB,47.1167,21.5667,mezősas
4135,Körösszegapáti,HB,47.0333,21.6333,körösszegapáti
4136,Körösszakál,HB,47.0167,21.6,körösszakál
4137,Magyarhomorog,HB,47.0167,21.55,magyarhomorog
4138,Komádi,HB,47.0,21.5,komádi
4141,Furta,HB,47.1333,21.4667,furta
4142,Zsáka,HB,47.1333,21.4333,zsáka
4143,Vekerd,HB,47.1,21.4,vekerd
4144,Darvas,HB,47.1,21.35,darvas
4145,Csökmő,HB,47.0333,21.3,csökmő
4146,Újiráz,HB,46.9833,21.3667,újiráz
4150,Püspökladány,HB,47.3167,21.1167,püspökladány
4151,Püspökladány,HB,47.3167,21.1167,püspökladány
4152,Püspökladány,HB,47.3167,21.1167,püspökladány
4155,Püspökladány,HB,47.3167,21.1167,püspökladány
4161,Báránd,HB,47.3,21.2333,báránd
4162,Báránd,HB,47.3,21.2333,báránd
4163,Szerep,HB,47.2333,21.15,szerep
4164,Bakonszeg,HB,47.1833,21.45,bakonszeg
4171,Sárrétudvari,HB,47.2333,21.2,sárrétudvari
4172,Biharnagybajom,HB,47.2167,21.2333,biharnagybajom
4173,Nagyrábé,HB,47.2,21.3333,nagyrábé
4174,Bihartorda,HB,47.2167,21.3667,bihartorda
4175,Bihardancsháza,HB,47.2333,21.3167,bihardancsháza
4176,Sáp,HB,47.25,21.3667,sáp
4177,Földes,HB,47.3,21.3667,földes
4181,Nádudvar,HB,47.4167,21.1667,nádudvar
4183,Kaba,HB,47.35,21.2833,kaba
4184,Tetétlen,HB,47.3167,21.3,tetétlen
4200,Hajdúszoboszló,HB,47.4467,21.3924,hajdúszoboszló
4201,Hajdúszoboszló,HB,47.45,21.4,hajdúszoboszló
4202,Hajdúszoboszló,HB,47.45,21.4,hajdúszoboszló
4211,Ebes,HB,47.4667,21.5,ebes
4212,Hajdúszovát,HB,47.3833,21.4833,hajdúszovát
4220,Hajdúböszörmény,HB,47.6667,21.5167,hajdúböszörmény
4221,Hajdúböszörmény,HB,47.6667,21.5167,hajdúböszörmény
4224,Hajdúböszörmény,HB,47.6667,21.5167,hajdúböszörmény
4225,Hajdúböszörmény,HB,47.6667,21.5167,hajdúböszörmény
4225,Debrecen,HB,47.6667,21.5167,debrecen
4231,Bököny,SZ,47.7333,21.75,bököny
4232,Geszteréd,SZ,47.7667,21.7833,geszteréd
4233,Balkány,SZ,47.7667,21.8667,balkány
4234,Szakoly,SZ,47.7667,21.9167,szakoly
4235,Biri,SZ,47.8167,21.85,biri
4241,Bocskaikert,HB,47.4333,21.9167,bocskaikert
4242,Hajdúhadház,HB,47.6833,21.6667,hajdúhadház
4243,Téglás,HB,47.7167,21.6833,téglás
4244,Újfehértó,SZ,47.8,21.6833,újfehértó
4245,Érpatak,SZ,47.8,21.7667,érpatak
4246,Érpatak,SZ,47.8,21.7667,érpatak
4251,Hajdúsámson,HB,47.6,21.7667,hajdúsámson
4252,Hajdúsámson,HB,47.6,21.7667,hajdúsámson
4253,Hajdúsámson,HB,47.6,21.7667,hajdúsámson
4254,Nyíradony,HB,47.6833,21.9167,nyíradony
4262,Nyíracsád,HB,47.6,21.9833,nyíracsád
4263,Nyírmártonfalva,HB,47.5833,21.9,nyírmártonfalva
4264,Nyírábrány,HB,47.55,22.0333,nyírábrány
4266,Fülöp,HB,47.6,22.0667,fülöp
4267,Penészlek,SZ,47.6333,22.15,penészlek
4271,Mikepércs,HB,47.45,21.6333,mikepércs
4272,Sáránd,HB,47.4,21.6333,sáránd
4273,Hajdúbagos,HB,47.4,21.6667,hajdúbagos
4274,Hosszúpályi,HB,47.4,21.75,hosszúpályi
4275,Monostorpályi,HB,47.4,21.7833,monostorpályi
4281,Létavértes,HB,47.3833,21.9,létavértes
4283,Létavértes,HB,47.3833,21.9,létavértes
4284,Kokad,HB,47.4,21.95,kokad
4285,Álmosd,HB,47.4167,21.9833,álmosd
4286,Bagamér,HB,47.45,22.0,bagamér
4287,Vámospércs,HB,47.5333,21.9,vámospércs
4288,Újléta,HB,47.4667,21.8833,újléta
4300,Nyírbátor,SZ,47.8333,22.1333,nyírbátor
4301,Nyírbátor,SZ,47.8333,22.1333,nyírbátor
4311,Nyírgyulaj,SZ,47.8833,22.1,nyírgyulaj
4320,Nagykálló,SZ,47.8833,21.85,nagykálló
4321,Nagykálló,SZ,47.8833,21.85,nagykálló
4324,Kállósemjén,SZ,47.8667,21.9333,kállósemjén
4325,Kisléta,SZ,47.8333,22.0167,kisléta
4326,Máriapócs,SZ,47.8833,22.0333,máriapócs
4327,Pócspetri,SZ,47.8833,22.0,pócspetri
4331,Nyírcsászári,SZ,47.8667,22.1833,nyírcsászári
4332,Nyírderzs,SZ,47.9,22.1667,nyírderzs
4333,Nyírkáta,SZ,47.8667,22.2667,nyírkáta
4334,Hodász,SZ,47.9167,22.2167,hodász
4335,Kántorjánosi,SZ,47.9333,22.15,kántorjánosi
4336,Őr,SZ,47.9833,22.2,őr
4337,Jármi,SZ,47.9667,22.25,jármi
4338,Papos,SZ,47.9833,22.25,papos
4341,Nyírvasvári,SZ,47.8167,22.1833,nyírvasvári
4342,Terem,SZ,47.8,22.3167,terem
4343,Bátorliget,SZ,47.8083,22.25,bátorliget
4351,Vállaj,SZ,47.7667,22.3833,vállaj
4352,Mérk,SZ,47.7833,22.3667,mérk
4353,Tiborszállás,SZ,47.8167,22.4167,tiborszállás
4354,Fábiánháza,SZ,47.8333,22.3667,fábiánháza
4355,Nagyecsed,SZ,47.8667,22.4,nagyecsed
4356,Nyírcsaholy,SZ,47.9,22.3333,nyírcsaholy
4361,Nyírbogát,SZ,47.8,22.0667,nyírbogát
4362,Nyírgelse,SZ,47.75,21.9833,nyírgelse
4363,Nyírmihálydi,SZ,47.7333,21.9833,nyírmihálydi
4371,Nyírlugos,SZ,47.7,22.05,nyírlugos
4372,Nyírbéltek,SZ,47.7,22.1333,nyírbéltek
4373,Ömböly,SZ,47.7,22.2167,ömböly
4374,Encsencs,SZ,47.7333,22.1167,encsencs
4375,Piricse,SZ,47.7667,22.15,piricse
4376,Nyírpilis,SZ,47.7833,22.1833,nyírpilis
4400,Nyíregyháza,SZ,47.95,21.7167,nyíregyháza
4401,Nyíregyháza,SZ,47.95,21.7167,nyíregyháza
4402,Nyíregyháza,SZ,47.95,21.7167,nyíregyháza
4403,Nyíregyháza,SZ,47.95,21.7167,nyíregyháza
4404,Nyíregyháza,SZ,47.95,21.7167,nyíregyháza
4405,Nyíregyháza,SZ,47.95,21.7167,nyíregyháza
4406,Nyíregyháza,SZ,47.95,21.7167,nyíregyháza
4407,Nyíregyháza,SZ,47.95,21.7167,nyíregyháza
4410,Nyíregyháza,SZ,47.95,21.7167,nyíregyháza
4411,Nyíregyháza,SZ,47.95,21.7167,nyíregyháza
4412,Nyíregyháza,SZ,47.95,21.7167,nyíregyháza
4413,Nyíregyháza,SZ,47.95,21.7167,nyíregyháza
4431,Nyíregyháza,SZ,47.95,21.7167,nyíregyháza
4432,Nyíregyháza,SZ,47.95,21.7167,nyíregyháza
4433,Nyíregyháza,SZ,47.95,21.7167,nyíregyháza
4434,Kálmánháza,SZ,47.8833,21.5833,kálmánháza
4435,Nyíregyháza,SZ,47.95,21.7167,nyíregyháza
4440,Tiszavasvári,SZ,47.9667,21.35,tiszavasvári
4441,Szorgalmatos,SZ,47.9667,21.4875,szorgalmatos
4444,Szorgalmatos,SZ,47.9667,21.4875,szorgalmatos
4445,Nagycserkesz,SZ,47.9667,21.5333,nagycserkesz
4446,Nagycserkesz,SZ,47.9667,21.5333,nagycserkesz
4447,Nagycserkesz,SZ,47.9667,21.5333,nagycserkesz
4450,Tiszalök,SZ,48.0167,21.3833,tiszalök
4455,Tiszadada,SZ,48.0333,21.25,tiszadada
4456,Tiszadob,SZ,48.0167,21.1667,tiszadob
4461,Nyírtelek,SZ,48.0167,21.6333,nyírtelek
4463,Tiszanagyfalu,SZ,48.1,21.4833,tiszanagyfalu
4464,Tiszaeszlár,SZ,48.05,21.4667,tiszaeszlár
4465,Rakamaz,SZ,48.1333,21.4667,rakamaz
4466,Timár,SZ,48.1667,21.4667,timár
4467,Szabolcs,SZ,48.1833,21.5,szabolcs
4468,Balsa,SZ,48.1833,21.55,balsa
4471,Gávavencsellő,SZ,48.1667,21.6,gávavencsellő
4472,Gávavencsellő,SZ,48.1667,21.6,gávavencsellő
4474,Tiszabercel,SZ,48.15,21.65,tiszabercel
4475,Paszab,SZ,48.15,21.6833,paszab
4481,Paszab,SZ,48.15,21.6833,paszab
4482,Kótaj,SZ,48.05,21.7167,kótaj
4483,Buj,SZ,48.1,21.65,buj
4484,Ibrány,SZ,48.1333,21.7167,ibrány
4485,Nagyhalász,SZ,48.1333,21.7667,nagyhalász
4486,Nagyhalász,SZ,48.1333,21.7667,nagyhalász
4487,Tiszatelek,SZ,48.2,21.8,tiszatelek
4488,Beszterec,SZ,48.15,21.85,beszterec
4491,Újdombrád,SZ,48.2333,21.9333,újdombrád
4492,Dombrád,SZ,48.2333,21.9333,dombrád
4493,Tiszakanyár,SZ,48.25,21.9667,tiszakanyár
4494,Kékcse,SZ,48.25,22.0,kékcse
4495,Döge,SZ,48.2667,22.0833,döge
4496,Szabolcsveresmart,SZ,48.3,22.0167,szabolcsveresmart
4501,Kemecse,SZ,48.0667,21.8,kemecse
4502,Vasmegyer,SZ,48.1167,21.8167,vasmegyer
4503,Tiszarád,SZ,48.1167,21.8,tiszarád
4511,Nyírbogdány,SZ,48.05,21.8833,nyírbogdány
4512,Nyírbogdány,SZ,48.05,21.8833,nyírbogdány
4515,Kék,SZ,48.1167,21.8833,kék
4516,Demecser,SZ,48.1167,21.9167,demecser
4517,Gégény,SZ,48.15,21.95,gégény
4521,Berkesz,SZ,48.1,21.9833,berkesz
4522,Nyírtass,SZ,48.1167,22.0333,nyírtass
4523,Pátroha,SZ,48.1667,22.0,pátroha
4524,Ajak,SZ,48.1833,22.0667,ajak
4525,Rétközberencs,SZ,48.2,22.0167,rétközberencs
4531,Nyírpazony,SZ,47.9833,21.8,nyírpazony
4532,Nyírtura,SZ,48.0167,21.8333,nyírtura
4533,Sényő,SZ,48.0,21.8833,sényő
4534,Székely,SZ,48.0667,21.95,székely
4535,Nyíribrony,SZ,48.0167,21.9667,nyíribrony
4536,Ramocsaháza,SZ,48.05,22.0,ramocsaháza
4537,Nyírkércs,SZ,48.0167,22.05,nyírkércs
4541,Nyírjákó,SZ,48.0333,22.0833,nyírjákó
4542,Petneháza,SZ,48.0667,22.0833,petneháza
4543,Laskod,SZ,48.05,22.05,laskod
4544,Nyírkarász,SZ,48.1,22.1,nyírkarász
4545,Gyulaháza,SZ,48.1333,22.1167,gyulaháza
4546,Anarcs,SZ,48.1833,22.1167,anarcs
4547,Szabolcsbáka,SZ,48.15,22.15,szabolcsbáka
4551,Szabolcsbáka,SZ,48.15,22.15,szabolcsbáka
4552,Napkor,SZ,47.9333,21.8833,napkor
4553,Apagy,SZ,47.9667,21.9333,apagy
4554,Nyírtét,SZ,48.0167,21.9333,nyírtét
4555,Levelek,SZ,47.9667,22.0,levelek
4556,Magy,SZ,47.9333,21.9833,magy
4557,Besenyőd,SZ,47.9667,22.0167,besenyőd
4558,Ófehértó,SZ,47.9333,22.05,ófehértó
4561,Baktalórántháza,SZ,48.0,22.0833,baktalórántháza
4562,Vaja,SZ,48.0,22.1667,vaja
4563,Rohod,SZ,48.0333,22.1333,rohod
4564,Nyírmada,SZ,48.0667,22.2,nyírmada
4565,Pusztadobos,SZ,48.0667,22.2333,pusztadobos
4566,Ilk,SZ,48.1167,22.2333,ilk
4567,Gemzse,SZ,48.1333,22.2,gemzse
4600,Kisvárda,SZ,48.2167,22.0833,kisvárda
4601,Kisvárda,SZ,48.2167,22.0833,kisvárda
4603,Kisvárda,SZ,48.2167,22.0833,kisvárda
4611,Jéke,SZ,48.2333,22.1667,jéke
4621,Fényeslitke,SZ,48.2667,22.1,fényeslitke
4622,Komoró,SZ,48.3,22.1167,komoró
4623,Tuzsér,SZ,48.35,22.1333,tuzsér
4624,Tiszabezdéd,SZ,48.3667,22.15,tiszabezdéd
4625,Győröcske,SZ,48.3833,22.15,győröcske
4625,Záhony,SZ,48.4167,22.1833,záhony
4627,Zsurk,SZ,48.4167,22.2167,zsurk
4628,Tiszaszentmárton,SZ,48.3833,22.2333,tiszaszentmárton
4631,Pap,SZ,48.2167,22.15,pap
4632,Nyírlövő,SZ,48.2,22.1833,nyírlövő
4633,Lövőpetri,SZ,48.1833,22.2,lövőpetri
4634,Aranyosapáti,SZ,48.2,22.2667,aranyosapáti
4635,Újkenéz,SZ,48.25,22.2333,újkenéz
4641,Mezőladány,SZ,48.2833,22.2167,mezőladány
4642,Tornyospálca,SZ,48.2667,22.1833,tornyospálca
4643,Benk,SZ,48.3,22.2333,benk
4644,Mándok,SZ,48.3167,22.2,mándok
4645,Tiszamogyorós,SZ,48.3167,22.2333,tiszamogyorós
4646,Eperjeske,SZ,48.35,22.2167,eperjeske
4700,Mátészalka,SZ,47.95,22.3333,mátészalka
4701,Mátészalka,SZ,47.95,22.3333,mátészalka
4702,Mátészalka,SZ,47.95,22.3333,mátészalka
4721,Szamoskér,SZ,48.0167,22.4167,szamoskér
4722,Nyírmeggyes,SZ,47.9167,22.2667,nyírmeggyes
4731,Tunyogmatolcs,SZ,47.9667,22.4667,tunyogmatolcs
4732,Cégénydányád,SZ,47.9333,22.55,cégénydányád
4733,Gyügye,SZ,47.9333,22.5667,gyügye
4734,Szamosújlak,SZ,47.9167,22.6,szamosújlak
4735,Hermánszeg,SZ,47.9,22.6333,hermánszeg
4735,Szamossályi,SZ,47.9,22.6167,szamossályi
4737,Darnó,SZ,47.9667,22.6667,darnó
4737,Kisnamény,SZ,47.95,22.7,kisnamény
4741,Jánkmajtis,SZ,47.95,22.65,jánkmajtis
4742,Csegöld,SZ,47.8875,22.6875,csegöld
4743,Csengersima,SZ,47.8667,22.7333,csengersima
4745,Szamosbecs,SZ,47.8667,22.7,szamosbecs
4746,Szamostatárfalva,SZ,47.8667,22.6667,szamostatárfalva
4751,Kocsord,SZ,47.95,22.3833,kocsord
4752,Győrtelek,SZ,47.9333,22.4333,győrtelek
4754,Géberjén,SZ,47.9333,22.4667,géberjén
4754,Fülpösdaróc,SZ,47.9333,22.5,fülpösdaróc
4755,Ököritófülpös,SZ,47.9167,22.5167,ököritófülpös
4756,Rápolt,SZ,47.9167,22.5667,rápolt
4761,Porcsalma,SZ,47.8833,22.5667,porcsalma
4762,Tyukod,SZ,47.85,22.55,tyukod
4763,Ura,SZ,47.8167,22.6167,ura
4764,Csengerújfalu,SZ,47.8,22.6333,csengerújfalu
4765,Komlódtótfalu,SZ,47.85,22.7,komlódtótfalu
4765,Csenger,SZ,47.8333,22.6833,csenger
4766,Pátyod,SZ,47.8667,22.6167,pátyod
4767,Szamosangyalos,SZ,47.8667,22.6667,szamosangyalos
4800,Vásárosnamény,SZ,48.1333,22.3167,vásárosnamény
4801,Vásárosnamény,SZ,48.1333,22.3167,vásárosnamény
4803,Vásárosnamény,SZ,48.1333,22.3167,vásárosnamény
4804,Vásárosnamény,SZ,48.1333,22.3167,vásárosnamény
4811,Kisvarsány,SZ,48.15,22.3,kisvarsány
4812,Nagyvarsány,SZ,48.1667,22.2833,nagyvarsány
4813,Gyüre,SZ,48.1833,22.2833,gyüre
4821,Ópályi,SZ,48.0,22.3167,ópályi
4822,Nyírparasznya,SZ,48.0333,22.2833,nyírparasznya
4823,Nagydobos,SZ,48.05,22.3167,nagydobos
4824,Szamosszeg,SZ,48.05,22.3667,szamosszeg
4826,Olcsva,SZ,48.0833,22.3333,olcsva
4831,Tiszaszalka,SZ,48.1833,22.3167,tiszaszalka
4832,Tiszavid,SZ,48.2,22.3,tiszavid
4833,Tiszaadony,SZ,48.2333,22.3,tiszaadony
4834,Tiszakerecseny,SZ,48.2667,22.3,tiszakerecseny
4835,Mátyus,SZ,48.2833,22.2833,mátyus
4836,Lónya,SZ,48.3167,22.2833,lónya
4841,Jánd,SZ,48.1167,22.3833,jánd
4842,Gulács,SZ,48.0833,22.4667,gulács
4843,Hetefejércse,SZ,48.1167,22.4833,hetefejércse
4844,Csaroda,SZ,48.1667,22.4667,csaroda
4845,Tákos,SZ,48.15,22.4333,tákos
4900,Fehérgyarmat,SZ,47.9833,22.5167,fehérgyarmat
4901,Fehérgyarmat,SZ,47.9833,22.5167,fehérgyarmat
4911,Nábrád,SZ,48.0,22.45,nábrád
4912,Kérsemjén,SZ,48.0167,22.4167,kérsemjén
4913,Panyola,SZ,48.05,22.4,panyola
4914,Olcsvaapáti,SZ,48.0833,22.35,olcsvaapáti
4921,Tivadar,SZ,48.0667,22.5167,tivadar
4921,Kisar,SZ,48.05,22.5167,kisar
4922,Nagyar,SZ,48.05,22.5667,nagyar
4931,Tarpa,SZ,48.1,22.5333,tarpa
4932,Márokpapi,SZ,48.15,22.5167,márokpapi
4933,Beregsurány,SZ,48.1667,22.55,beregsurány
4934,Beregdaróc,SZ,48.2,22.5333,beregdaróc
4935,Gelénes,SZ,48.2,22.45,gelénes
4936,Vámosatya,SZ,48.2,22.4167,vámosatya
4937,Barabás,SZ,48.2333,22.4333,barabás
4941,Penyige,SZ,47.9833,22.5667,penyige
4942,Mánd,SZ,48.0,22.6167,mánd
4942,Nemesborzova,SZ,47.9833,22.6333,nemesborzova
4943,Kömörő,SZ,48.0167,22.5833,kömörő
4944,Túristvándi,SZ,48.05,22.65,túristvándi
4945,Szatmárcseke,SZ,48.0833,22.6333,szatmárcseke
4946,Tiszakóród,SZ,48.1,22.7167,tiszakóród
4947,Tiszacsécse,SZ,48.1,22.75,tiszacsécse
4948,Milota,SZ,48.1,22.7833,milota
4951,Tiszabecs,SZ,48.1,22.8167,tiszabecs
4952,Uszka,SZ,48.0667,22.8667,uszka
4953,Magosliget,SZ,48.05,22.8667,magosliget
4954,Sonkád,SZ,48.05,22.75,sonkád
4955,Botpalád,SZ,48.0333,22.8,botpalád
4956,Kispalád,SZ,48.0167,22.8333,kispalád
4961,Zsarolyán,SZ,47.95,22.6,zsarolyán
4962,Nagyszekeres,SZ,47.9667,22.6167,nagyszekeres
4963,Kisszekeres,SZ,47.9667,22.6333,kisszekeres
4964,Fülesd,SZ,48.0167,22.6833,fülesd
4965,Kölcse,SZ,48.05,22.7167,kölcse
4966,Vámosoroszi,SZ,47.9833,22.6833,vámosoroszi
4967,Csaholc,SZ,47.9833,22.7333,csaholc
4968,Túrricse,SZ,47.9667,22.7667,túrricse
4969,Tisztaberek,SZ,47.95,22.8,tisztaberek
4971,Rozsály,SZ,47.9167,22.8,rozsály
4972,Gacsály,SZ,47.9333,22.7667,gacsály
4973,Császló,SZ,47.9167,22.7333,császló
4974,Zajta,SZ,47.9,22.8,zajta
4975,Méhtelek,SZ,47.9333,22.85,méhtelek
4976,Garbolc,SZ,47.95,22.8667,garbolc
4977,Kishódos,SZ,47.9667,22.8333,kishódos
4977,Nagyhódos,SZ,47.9667,22.85,nagyhódos
5000,Szolnok,JN,47.1833,20.2,szolnok
5001,Szolnok,JN,47.1833,20.2,szolnok
5002,Szolnok,JN,47.1833,20.2,szolnok
5003,Szolnok,JN,47.1833,20.2,szolnok
5004,Szolnok,JN,47.1833,20.2,szolnok
5005,Szolnok,JN,47.1833,20.2,szolnok
5006,Szolnok,JN,47.1833,20.2,szolnok
5007,Szolnok,JN,47.1833,20.2,szolnok
5008,Szolnok,JN,47.1833,20.2,szolnok
5009,Szolnok,JN,47.1833,20.2,szolnok
5051,Zagyvarékas,JN,47.2667,20.1333,zagyvarékas
5052,Újszász,JN,47.3,20.0833,újszász
5053,Szászberek,JN,47.3167,20.1,szászberek
5054,Jászalsószentgyörgy,JN,47.3667,20.1,jászalsószentgyörgy
5055,Jászladány,JN,47.3667,20.1667,jászladány
5061,Tiszasüly,JN,47.3833,20.4,tiszasüly
5062,Kőtelek,JN,47.3333,20.45,kőtelek
5063,Hunyadfalva,JN,47.3167,20.3833,hunyadfalva
5064,Csataszög,JN,47.2833,20.4,csataszög
5065,Nagykörű,JN,47.2667,20.45,nagykörű
5071,Besenyszög,JN,47.3,20.2667,besenyszög
5081,Szajol,JN,47.1833,20.3,szajol
5082,Tiszatenyő,JN,47.1333,20.3833,tiszatenyő
5083,Kengyel,JN,47.0833,20.3333,kengyel
5084,Rákócziújfalu,JN,47.0667,20.2667,rákócziújfalu
5085,Rákóczifalva,JN,47.0833,20.2333,rákóczifalva
5091,Tószeg,JN,47.1,20.15,tószeg
5092,Tiszavárkony,JN,47.0667,20.1833,tiszavárkony
5093,Vezseny,JN,47.0333,20.2167,vezseny
5094,Tiszajenő,JN,47.0333,20.15,tiszajenő
5095,Tiszajenő,JN,47.0333,20.15,tiszajenő
5100,Jászberény,JN,47.5,19.9167,jászberény
5101,Jászberény,JN,47.5,19.9167,jászberény
5102,Jászberény,JN,47.5,19.9167,jászberény
5111,Jászfelsőszentgyörgy,JN,47.5,19.8,jászfelsőszentgyörgy
5121,Jászjákóhalma,JN,47.5167,20.0,jászjákóhalma
5122,Jászdózsa,JN,47.5667,20.0167,jászdózsa
5123,Jászárokszállás,JN,47.6333,19.9833,jászárokszállás
5124,Jászágó,JN,47.6,19.8667,jászágó
5125,Pusztamonostor,JN,47.55,19.8,pusztamonostor
5126,Jászfényszaru,JN,47.5667,19.7167,jászfényszaru
5130,Jászapáti,JN,47.5167,20.15,jászapáti
5131,Jászapáti,JN,47.5167,20.15,jászapáti
5135,Jászivány,JN,47.5333,20.25,jászivány
5136,Jászszentandrás,JN,47.5833,20.1833,jászszentandrás
5137,Jászkisér,JN,47.45,20.2167,jászkisér
5141,Jásztelek,JN,47.4833,20.0,jásztelek
5142,Alattyán,JN,47.4333,20.05,alattyán
5143,Jánoshida,JN,47.3833,20.0667,jánoshida
5144,Jászboldogháza,JN,47.3667,20.0,jászboldogháza
5152,Jászboldogháza,JN,47.3667,20.0,jászboldogháza
5200,Törökszentmiklós,JN,47.1833,20.4167,törökszentmiklós
5201,Törökszentmiklós,JN,47.1833,20.4167,törökszentmiklós
5211,Tiszapüspöki,JN,47.2167,20.3167,tiszapüspöki
5212,Tiszapüspöki,JN,47.2167,20.3167,tiszapüspöki
5213,Tiszapüspöki,JN,47.2167,20.3167,tiszapüspöki
5222,Örményes,JN,47.2,20.5833,örményes
5231,Fegyvernek,JN,47.2667,20.5333,fegyvernek
5232,Tiszabő,JN,47.3,20.4833,tiszabő
5233,Tiszagyenda,JN,47.3833,20.5167,tiszagyenda
5234,Tiszaroff,JN,47.4,20.45,tiszaroff
5235,Tiszabura,JN,47.45,20.4667,tiszabura
5241,Abádszalók,JN,47.4667,20.6,abádszalók
5243,Tiszaderzs,JN,47.5167,20.65,tiszaderzs
5244,Tiszaszőlős,JN,47.6167,20.7667,tiszaszőlős
5300,Karcag,JN,47.3167,20.9333,karcag
5301,Karcag,JN,47.3167,20.9333,karcag
5302,Karcag,JN,47.3167,20.9333,karcag
5309,Berekfürdő,JN,47.3833,20.85,berekfürdő
5310,Kisújszállás,JN,47.2167,20.7667,kisújszállás
5311,Kisújszállás,JN,47.2167,20.7667,kisújszállás
5321,Kunmadaras,JN,47.4333,20.8,kunmadaras
5322,Tiszaszentimre,JN,47.4833,20.7333,tiszaszentimre
5323,Tiszaszentimre,JN,47.4833,20.7333,tiszaszentimre
5324,Tomajmonostora,JN,47.4333,20.7167,tomajmonostora
5331,Kenderes,JN,47.25,20.6833,kenderes
5340,Kunhegyes,JN,47.3667,20.6333,kunhegyes
5341,Kunhegyes,JN,47.3667,20.6333,kunhegyes
5349,Kunhegyes,JN,47.3667,20.6333,kunhegyes
5350,Tiszafüred,JN,47.6167,20.7667,tiszafüred
5351,Tiszafüred,JN,47.6167,20.7667,tiszafüred
5358,Tiszafüred,JN,47.6167,20.7667,tiszafüred
5359,Tiszafüred,JN,47.6167,20.7667,tiszafüred
5361,Tiszaigar,JN,47.5333,20.8,tiszaigar
5362,Tiszaörs,JN,47.5167,20.8333,tiszaörs
5363,Nagyiván,JN,47.4833,20.9333,nagyiván
5400,Mezőtúr,JN,47.0,20.6333,mezőtúr
5401,Mezőtúr,JN,47.0,20.6333,mezőtúr
5403,Mezőtúr,JN,47.0,20.6333,mezőtúr
5404,Mezőtúr,JN,47.0,20.6333,mezőtúr
5411,Kétpó,JN,47.0833,20.4667,kétpó
5412,Kuncsorba,JN,47.1333,20.5667,kuncsorba
5420,Túrkeve,JN,47.1,20.75,túrkeve
5421,Túrkeve,JN,47.1,20.75,túrkeve
5430,Tiszaföldvár,JN,46.9833,20.25,tiszaföldvár
5431,Tiszaföldvár,JN,46.9833,20.25,tiszaföldvár
5432,Tiszaföldvár,JN,46.9833,20.25,tiszaföldvár
5435,Martfű,JN,47.0167,20.2833,martfű
5440,Kunszentmárton,JN,46.8333,20.2833,kunszentmárton
5441,Kunszentmárton,JN,46.8333,20.2833,kunszentmárton
5449,Kunszentmárton,JN,46.8333,20.2833,kunszentmárton
5451,Öcsöd,JN,46.9,20.4,öcsöd
5452,Mesterszállás,JN,46.95,20.4333,mesterszállás
5453,Mezőhék,JN,47.0,20.4,mezőhék
5461,Mezőhék,JN,47.0,20.4,mezőhék
5462,Cibakháza,JN,46.9667,20.2,cibakháza
5463,Nagyrév,JN,46.95,20.15,nagyrév
5464,Tiszainoka,JN,46.9,20.15,tiszainoka
5465,Cserkeszőlő,JN,46.8667,20.1833,cserkeszőlő
5471,Tiszakürt,JN,46.8833,20.1167,tiszakürt
5473,Tiszaug,JN,46.8333,20.1542,tiszaug
5474,Tiszasas,JN,46.8167,20.0833,tiszasas
5475,Csépa,JN,46.8,20.1333,csépa
5476,Szelevény,JN,46.8333,20.2833,szelevény
5500,Gyomaendrőd,BE,46.9333,20.8333,gyomaendrőd
5501,Gyomaendrőd,BE,46.9333,20.8333,gyomaendrőd
5502,Gyomaendrőd,BE,46.9333,20.8333,gyomaendrőd
5510,Dévaványa,BE,47.0333,20.9667,dévaványa
5515,Ecsegfalva,BE,47.15,20.9167,ecsegfalva
5516,Körösladány,BE,46.9667,21.0833,körösladány
5520,Szeghalom,BE,47.0333,21.1667,szeghalom
5521,Szeghalom,BE,47.0333,21.1667,szeghalom
5525,Füzesgyarmat,BE,47.1,21.2167,füzesgyarmat
5526,Kertészsziget,BE,47.15,21.0667,kertészsziget
5527,Bucsa,BE,47.2,21.0,bucsa
5530,Vésztő,BE,46.9167,21.2667,vésztő
5534,Okány,BE,46.9,21.35,okány
5536,Körösújfalu,BE,46.9667,21.4,körösújfalu
5537,Zsadány,BE,46.9167,21.5,zsadány
5538,Biharugra,BE,46.9667,21.6,biharugra
5539,Körösnagyharsány,BE,47.0,21.65,körösnagyharsány
5540,Szarvas,BE,46.8667,20.55,szarvas
5541,Szarvas,BE,46.8667,20.55,szarvas
5551,Csabacsűd,BE,46.8333,20.65,csabacsűd
5552,Kardos,BE,46.8167,20.7708,kardos
5553,Kondoros,BE,46.7667,20.8,kondoros
5555,Hunya,BE,46.8167,20.85,hunya
5556,Örménykút,BE,46.85,20.7833,örménykút
5561,Békésszentandrás,BE,46.8667,20.4833,békésszentandrás
5600,Békéscsaba,BE,46.6833,21.1,békéscsaba
5601,Békéscsaba,BE,46.6833,21.1,békéscsaba
5602,Békéscsaba,BE,46.6833,21.1,békéscsaba
5603,Békéscsaba,BE,46.6833,21.1,békéscsaba
5604,Békéscsaba,BE,46.6833,21.1,békéscsaba
5605,Békéscsaba,BE,46.6833,21.1,békéscsaba
5609,Csabaszabadi,BE,46.6833,21.0833,csabaszabadi
5621,Csárdaszállás,BE,46.8667,20.9333,csárdaszállás
5622,Köröstarcsa,BE,46.8833,21.0333,köröstarcsa
5623,Köröstarcsa,BE,46.8833,21.0333,köröstarcsa
5624,Doboz,BE,46.7333,21.25,doboz
5630,Békés,BE,46.7667,21.1333,békés
5631,Békés,BE,46.7667,21.1333,békés
5641,Tarhos,BE,46.8167,21.2167,tarhos
5643,Bélmegyer,BE,46.8667,21.1833,bélmegyer
5650,Mezőberény,BE,46.8167,21.0333,mezőberény
5661,Újkígyós,BE,46.5833,21.0333,újkígyós
5662,Csanádapáca,BE,46.55,20.8833,csanádapáca
5663,Medgyesbodzás,BE,46.5167,20.9667,medgyesbodzás
5664,Medgyesbodzás,BE,46.5167,20.9667,medgyesbodzás
5665,Pusztaottlaka,BE,46.55,20.9833,pusztaottlaka
5666,Medgyesegyháza,BE,46.5,21.0333,medgyesegyháza
5667,Magyarbánhegyes,BE,46.45,20.9667,magyarbánhegyes
5668,Nagybánhegyes,BE,46.4667,20.9,nagybánhegyes
5671,Nagybánhegyes,BE,46.4667,20.9,nagybánhegyes
5672,Murony,BE,46.7667,21.05,murony
5673,Kamut,BE,46.7667,20.9833,kamut
5674,Kétsoprony,BE,46.7167,20.8667,kétsoprony
5675,Telekgerendás,BE,46.65,20.9667,telekgerendás
5700,Gyula,BE,46.6474,21.2773,gyula
5701,Gyula,BE,46.65,21.2833,gyula
5702,Gyula,BE,46.65,21.2833,gyula
5703,Gyula,BE,46.65,21.2833,gyula
5711,Gyula,BE,46.65,21.2833,gyula
5712,Szabadkígyós,BE,46.6167,21.1,szabadkígyós
5720,Sarkad,BE,46.75,21.3833,sarkad
5721,Sarkad,BE,46.75,21.3833,sarkad
5722,Sarkad,BE,46.75,21.3833,sarkad
5725,Kötegyán,BE,46.7333,21.4833,kötegyán
5726,Méhkerék,BE,46.7833,21.45,méhkerék
5727,Újszalonta,BE,46.8,21.5,újszalonta
5731,Sarkadkeresztúr,BE,46.8,21.3833,sarkadkeresztúr
5732,Mezőgyán,BE,46.8667,21.5333,mezőgyán
5734,Geszt,BE,46.8833,21.5833,geszt
5741,Kétegyháza,BE,46.5333,21.1833,kétegyháza
5742,Elek,BE,46.5333,21.25,elek
5743,Lőkösháza,BE,46.4333,21.2333,lőkösháza
5744,Kevermes,BE,46.4167,21.1833,kevermes
5745,Dombiratos,BE,46.4167,21.1167,dombiratos
5746,Kunágota,BE,46.4333,21.05,kunágota
5747,Almáskamarás,BE,46.4667,21.1,almáskamarás
5751,Nagykamarás,BE,46.4667,21.1167,nagykamarás
5752,Nagykamarás,BE,46.4667,21.1167,nagykamarás
5800,Mezőkovácsháza,BE,46.4,20.9167,mezőkovácsháza
5801,Mezőkovácsháza,BE,46.4,20.9167,mezőkovácsháza
5802,Mezőkovácsháza,BE,46.4,20.9167,mezőkovácsháza
5811,Végegyháza,BE,46.3833,20.8667,végegyháza
5820,Mezőhegyes,BE,46.3167,20.8167,mezőhegyes
5830,Battonya,BE,46.2833,21.0167,battonya
5836,Dombegyház,BE,46.3333,21.1333,dombegyház
5837,Kisdombegyház,BE,46.3667,21.1,kisdombegyház
5838,Magyardombegyház,BE,46.3833,21.0667,magyardombegyház
5900,Orosháza,BE,46.5667,20.6667,orosháza
5901,Orosháza,BE,46.5667,20.6667,orosháza
5902,Orosháza,BE,46.5667,20.6667,orosháza
5903,Orosháza,BE,46.5667,20.6667,orosháza
5904,Orosháza,BE,46.5667,20.6667,orosháza
5905,Orosháza,BE,46.5667,20.6667,orosháza
5919,Pusztaföldvár,BE,46.5333,20.8,pusztaföldvár
5920,Csorvás,BE,46.6333,20.8333,csorvás
5925,Gerendás,BE,46.6,20.8667,gerendás
5931,Nagyszénás,BE,46.6833,20.6667,nagyszénás
5932,Gádoros,BE,46.6667,20.6,gádoros
5940,Tótkomlós,BE,46.4167,20.7333,tótkomlós
5945,Kardoskút,BE,46.4833,20.6667,kardoskút
5946,Békéssámson,BE,46.4167,20.6333,békéssámson
5948,Kaszaper,BE,46.4667,20.8333,kaszaper
6000,Kecskemét,BK,46.9,19.7833,kecskemét
6001,Kecskemét,BK,46.9,19.7833,kecskemét
6002,Kecskemét,BK,46.9,19.7833,kecskemét
6003,Kecskemét,BK,46.9,19.7833,kecskemét
6004,Kecskemét,BK,46.9,19.7833,kecskemét
6005,Kecskemét,BK,46.9,19.7833,kecskemét
6006,Kecskemét,BK,46.9,19.7833,kecskemét
6007,Kecskemét,BK,46.9,19.7833,kecskemét
6008,Kecskemét,BK,46.9,19.7833,kecskemét
6010,Kecskemét,BK,46.9,19.7833,kecskemét
6031,Szentkirály,BK,46.9167,19.9333,szentkirály
6032,Nyárlőrinc,BK,46.8622,19.8733,nyárlőrinc
6033,Városföld,BK,46.8167,19.7667,városföld
6034,Helvécia,BK,46.8333,19.6167,helvécia
6035,Ballószög,BK,46.8667,19.5833,ballószög
6041,Kerekegyháza,BK,46.9372,19.4781,kerekegyháza
6042,Fülöpháza,BK,46.8833,19.4167,fülöpháza
6043,Kunbaracs,BK,46.9833,19.4167,kunbaracs
6044,Kunbaracs,BK,46.9833,19.4167,kunbaracs
6045,Ladánybene,BK,47.0333,19.45,ladánybene
6050,Lajosmizse,BK,47.0167,19.55,lajosmizse
6055,Felsőlajos,BK,47.0667,19.5167,felsőlajos
6060,Tiszakécske,BK,46.9333,20.1,tiszakécske
6061,Tiszakécske,BK,46.9333,20.1,tiszakécske
6062,Tiszakécske,BK,46.9333,20.1,tiszakécske
6063,Tiszakécske,BK,46.9333,20.1,tiszakécske
6064,Tiszaug,BK,46.8515,20.0553,tiszaug
6065,Lakitelek,BK,46.8761,19.9889,lakitelek
6066,Tiszaalpár,BK,46.8217,19.9842,tiszaalpár
6067,Tiszaalpár,BK,46.8217,19.9842,tiszaalpár
6070,Izsák,BK,46.8014,19.3547,izsák
6075,Páhi,BK,46.7167,19.4,páhi
6076,Ágasegyháza,BK,46.8333,19.45,ágasegyháza
6077,Orgovány,BK,46.7486,19.4736,orgovány
6078,Jakabszállás,BK,46.7603,19.6072,jakabszállás
6080,Szabadszállás,BK,46.8728,19.2242,szabadszállás
6085,Fülöpszállás,BK,46.8178,19.2386,fülöpszállás
6086,Szalkszentmárton,BK,46.9742,19.02,szalkszentmárton
6087,Dunavecse,BK,46.9167,18.9833,dunavecse
6088,Apostag,BK,46.8833,18.95,apostag
6090,Kunszentmiklós,BK,47.0333,19.1333,kunszentmiklós
6093,Kunszentmiklós,BK,47.0333,19.1333,kunszentmiklós
6096,Kunpeszér,BK,47.0667,19.2833,kunpeszér
6097,Kunadacs,BK,46.95,19.3167,kunadacs
6098,Tass,BK,47.0167,19.0333,tass
6100,Kiskunfélegyháza,BK,46.7136,19.8522,kiskunfélegyháza
6101,Kiskunfélegyháza,BK,46.7136,19.8522,kiskunfélegyháza
6102,Kiskunfélegyháza,BK,46.7136,19.8522,kiskunfélegyháza
6111,Gátér,BK,46.6833,19.9667,gátér
6112,Pálmonostora,BK,46.6278,19.9422,pálmonostora
6113,Petőfiszállás,BK,46.6167,19.8333,petőfiszállás
6114,Bugac,BK,46.6889,19.6794,bugac
6114,Bugacpusztaháza,BK,46.6889,19.6794,bugacpusztaháza
6115,Kunszállás,BK,46.7667,19.75,kunszállás
6116,Fülöpjakab,BK,46.6767,19.8343,fülöpjakab
6120,Kiskunmajsa,BK,46.4903,19.74,kiskunmajsa
6131,Szank,BK,46.5544,19.6722,szank
6132,Móricgát,BK,46.4915,19.7487,móricgát
6133,Jászszentlászló,BK,46.5681,19.7611,jászszentlászló
6134,Kömpöc,BK,46.4667,19.8667,kömpöc
6135,Csólyospálos,BK,46.4183,19.8436,csólyospálos
6136,Harkakötöny,BK,46.45,19.6,harkakötöny
6200,Kiskőrös,BK,46.6206,19.2886,kiskőrös
6201,Kiskőrös,BK,46.6206,19.2886,kiskőrös
6211,Kaskantyú,BK,46.6667,19.4,kaskantyú
6221,Akasztó,BK,46.6917,19.2081,akasztó
6222,Csengőd,BK,46.7167,19.2667,csengőd
6223,Soltszentimre,BK,46.7697,19.2831,soltszentimre
6224,Tabdi,BK,46.6833,19.3,tabdi
6230,Soltvadkert,BK,46.5781,19.3958,soltvadkert
6235,Bócsa,BK,46.6,19.5,bócsa
6236,Tázlár,BK,46.5486,19.5203,tázlár
6237,Kecel,BK,46.5253,19.2519,kecel
6238,Imrehegy,BK,46.4833,19.3167,imrehegy
6239,Császártöltés,BK,46.4219,19.1836,császártöltés
6300,Kalocsa,BK,46.5339,18.9861,kalocsa
6301,Kalocsa,BK,46.5264,18.9858,kalocsa
6311,Öregcsertő,BK,46.5139,19.1117,öregcsertő
6320,Solt,BK,46.7997,19.0161,solt
6321,Újsolt,BK,46.8667,19.1167,újsolt
6323,Dunaegyháza,BK,46.8333,18.95,dunaegyháza
6325,Dunatetétlen,BK,46.75,19.1167,dunatetétlen
6326,Harta,BK,46.6936,19.0314,harta
6327,Harta,BK,46.6936,19.0314,harta
6328,Dunapataj,BK,46.64,19.0022,dunapataj
6331,Foktő,BK,46.5167,18.9167,foktő
6332,Uszód,BK,46.5667,18.9167,uszód
6333,Dunaszentbenedek,BK,46.6,18.9,dunaszentbenedek
6334,Géderlak,BK,46.6167,18.9167,géderlak
6335,Ordas,BK,46.6333,18.95,ordas
6336,Szakmár,BK,46.5522,19.0742,szakmár
6337,Újtelek,BK,46.59,19.0586,újtelek
6341,Homokmégy,BK,46.4869,19.0744,homokmégy
6342,Drágszél,BK,46.4667,19.05,drágszél
6343,Miske,BK,46.4417,19.0322,miske
6344,Hajós,BK,46.3986,19.1206,hajós
6345,Nemesnádudvar,BK,46.3356,19.0531,nemesnádudvar
6346,Sükösd,BK,46.2833,19.0,sükösd
6347,Érsekcsanád,BK,46.25,18.9833,érsekcsanád
6348,Érsekhalma,BK,46.35,19.1167,érsekhalma
6351,Bátya,BK,46.4833,18.95,bátya
6352,Fajsz,BK,46.4167,18.9167,fajsz
6353,Dusnok,BK,46.3833,18.9667,dusnok
6400,Kiskunhalas,BK,46.4314,19.4875,kiskunhalas
6401,Kiskunhalas,BK,46.4314,19.4875,kiskunhalas
6402,Kiskunhalas,BK,46.4314,19.4875,kiskunhalas
6411,Zsana,BK,46.4167,19.6833,zsana
6412,Balotaszállás,BK,46.35,19.5333,balotaszállás
6413,Kunfehértó,BK,46.35,19.4167,kunfehértó
6414,Pirtó,BK,46.5167,19.4333,pirtó
6421,Kisszállás,BK,46.2783,19.4961,kisszállás
6422,Tompa,BK,46.2178,19.5422,tompa
6423,Kelebia,BK,46.1939,19.6119,kelebia
6424,Csikéria,BK,46.1222,19.4789,csikéria
6425,Bácsszőlős,BK,46.15,19.45,bácsszőlős
6430,Bácsalmás,BK,46.1253,19.3361,bácsalmás
6435,Kunbaja,BK,46.0836,19.4278,kunbaja
6440,Jánoshalma,BK,46.2986,19.3258,jánoshalma
6444,Kéleshalom,BK,46.3667,19.25,kéleshalom
6445,Borota,BK,46.2631,19.2253,borota
6446,Rém,BK,46.2431,19.1461,rém
6447,Felsőszentiván,BK,46.195,19.1903,felsőszentiván
6448,Csávoly,BK,46.1892,19.1467,csávoly
6449,Mélykút,BK,46.2111,19.3869,mélykút
6451,Tataháza,BK,46.1742,19.3061,tataháza
6452,Mátételke,BK,46.1667,19.2833,mátételke
6453,Bácsbokod,BK,46.1219,19.1589,bácsbokod
6454,Bácsborsód,BK,46.0964,19.1581,bácsborsód
6455,Katymár,BK,46.0322,19.2108,katymár
6456,Madaras,BK,46.055,19.2667,madaras
6500,Baja,BK,46.1833,18.9667,baja
6501,Baja,BK,46.1833,18.9667,baja
6502,Baja,BK,46.1833,18.9667,baja
6503,Baja,BK,46.1833,18.9667,baja
6511,Bácsszentgyörgy,BK,45.9722,19.0389,bácsszentgyörgy
6512,Szeremle,BK,46.15,18.8833,szeremle
6513,Dunafalva,BK,46.0611,18.9611,dunafalva
6521,Vaskút,BK,46.1167,18.9833,vaskút
6522,Gara,BK,46.0319,19.0428,gara
6523,Csátalja,BK,46.0333,18.95,csátalja
6524,Dávod,BK,45.995,18.9172,dávod
6525,Hercegszántó,BK,45.95,18.9392,hercegszántó
6527,Nagybaracska,BK,46.05,18.9,nagybaracska
6528,Bátmonostor,BK,46.1,18.9333,bátmonostor
6600,Szentes,CS,46.65,20.2667,szentes
6601,Szentes,CS,46.65,20.2667,szentes
6602,Szentes,CS,46.65,20.2667,szentes
6603,Szentes,CS,46.65,20.2667,szentes
6612,Nagytőke,CS,46.7,20.2833,nagytőke
6621,Derekegyház,CS,46.5833,20.3667,derekegyház
6622,Nagymágocs,CS,46.5833,20.5,nagymágocs
6623,Árpádhalom,CS,46.6167,20.55,árpádhalom
6624,Eperjes,CS,46.6833,20.5667,eperjes
6625,Fábiánsebestyén,CS,46.6833,20.4667,fábiánsebestyén
6630,Mindszent,CS,46.5333,20.2,mindszent
6635,Szegvár,CS,46.5833,20.2333,szegvár
6636,Mártély,CS,46.4833,20.2167,mártély
6640,Csongrád,CS,46.7,20.15,csongrád
6641,Csongrád,CS,46.7,20.15,csongrád
6642,Csongrád,CS,46.7,20.15,csongrád
6645,Felgyő,CS,46.65,20.1,felgyő
6646,Tömörkény,CS,46.6167,20.0333,tömörkény
6647,Csanytelek,CS,46.6,20.1167,csanytelek
6648,Csanytelek,CS,46.6,20.1167,csanytelek
6700,Szeged,CS,46.318,20.027,szeged
6701,Szeged,CS,46.318,20.027,szeged
6702,Szeged,CS,46.318,20.027,szeged
6703,Szeged,CS,46.318,20.027,szeged
6704,Szeged,CS,46.318,20.027,szeged
6705,Szeged,CS,46.318,20.027,szeged
6706,Szeged,CS,46.318,20.027,szeged
6707,Szeged,CS,46.318,20.027,szeged
6708,Szeged,CS,46.318,20.027,szeged
6709,Szeged,CS,46.318,20.027,szeged
6710,Szeged,CS,46.318,20.027,szeged
6712,Szeged,CS,46.318,20.027,szeged
6713,Szeged,CS,46.318,20.027,szeged
6717,Szeged,CS,46.318,20.027,szeged
6718,Szeged,CS,46.318,20.027,szeged
6719,Szeged,CS,46.318,20.027,szeged
6720,Szeged,CS,46.318,20.027,szeged
6721,Szeged,CS,46.318,20.027,szeged
6722,Szeged,CS,46.318,20.027,szeged
6723,Szeged,CS,46.318,20.027,szeged
6724,Szeged,CS,46.318,20.027,szeged
6725,Szeged,CS,46.318,20.027,szeged
6726,Szeged,CS,46.318,20.027,szeged
6727,Szeged,CS,46.318,20.027,szeged
6728,Szeged,CS,46.318,20.027,szeged
6729,Szeged,CS,46.318,20.027,szeged
6740,Szeged,CS,46.318,20.027,szeged
6741,Szeged,CS,46.318,20.027,szeged
6742,Szeged,CS,46.318,20.027,szeged
6743,Szeged,CS,46.318,20.027,szeged
6744,Szeged,CS,46.318,20.027,szeged
6745,Szeged,CS,46.318,20.027,szeged
6746,Szeged,CS,46.318,20.027,szeged
6747,Szeged,CS,46.318,20.027,szeged
6748,Szeged,CS,46.318,20.027,szeged
6750,Algyő,CS,46.17,20.17,algyő
6750,Szeged,CS,46.17,20.17,szeged
6753,Algyő,CS,46.17,20.17,algyő
6753,Szeged,CS,46.17,20.17,szeged
6754,Újszentiván,CS,46.1833,20.1833,újszentiván
6755,Kübekháza,CS,46.15,20.2833,kübekháza
6756,Tiszasziget,CS,46.1667,20.1667,tiszasziget
6757,Tiszasziget,CS,46.1667,20.1667,tiszasziget
6757,Szeged,CS,46.1667,20.1667,szeged
6758,Röszke,CS,46.1833,20.05,röszke
6760,Kistelek,CS,46.4725,19.9797,kistelek
6762,Sándorfalva,CS,46.3667,20.1,sándorfalva
6763,Szatymaz,CS,46.35,20.05,szatymaz
6764,Balástya,CS,46.4167,20.0167,balástya
6765,Csengele,CS,46.5333,19.8667,csengele
6766,Dóc,CS,46.4333,20.1333,dóc
6767,Ópusztaszer,CS,46.4833,20.0833,ópusztaszer
6768,Baks,CS,46.55,20.1,baks
6769,Pusztaszer,CS,46.55,19.9833,pusztaszer
6771,Pusztaszer,CS,46.55,19.9833,pusztaszer
6771,Szeged,CS,46.55,19.9833,szeged
6772,Deszk,CS,46.2167,20.25,deszk
6773,Klárafalva,CS,46.2167,20.3333,klárafalva
6774,Ferencszállás,CS,46.2167,20.35,ferencszállás
6775,Kiszombor,CS,46.1833,20.4333,kiszombor
6781,Domaszék,CS,46.2492,20.0111,domaszék
6782,Mórahalom,CS,46.2194,19.8911,mórahalom
6783,Ásotthalom,CS,46.2006,19.7906,ásotthalom
6784,Öttömös,CS,46.2833,19.6833,öttömös
6785,Pusztamérges,CS,46.3333,19.6833,pusztamérges
6786,Ruzsa,CS,46.2897,19.7544,ruzsa
6787,Zákányszék,CS,46.2667,19.9167,zákányszék
6791,Szeged,CS,46.2667,19.9167,szeged
6791,Zákányszék,CS,46.2667,19.9167,zákányszék
6792,Zsombó,CS,46.3333,19.9833,zsombó
6793,Forráskút,CS,46.3667,19.9167,forráskút
6794,Üllés,CS,46.3381,19.8519,üllés
6795,Bordány,CS,46.3217,19.925,bordány
6800,Hódmezővásárhely,CS,46.4167,20.3333,hódmezővásárhely
6801,Hódmezővásárhely,CS,46.4167,20.3333,hódmezővásárhely
6802,Hódmezővásárhely,CS,46.4167,20.3333,hódmezővásárhely
6803,Hódmezővásárhely,CS,46.4167,20.3333,hódmezővásárhely
6804,Hódmezővásárhely,CS,46.4167,20.3333,hódmezővásárhely
6806,Hódmezővásárhely,CS,46.4167,20.3333,hódmezővásárhely
6808,Hódmezővásárhely,CS,46.4167,20.3333,hódmezővásárhely
6811,Hódmezővásárhely,CS,46.4167,20.3333,hódmezővásárhely
6821,Székkutas,CS,46.5,20.5333,székkutas
6900,Makó,CS,46.2167,20.4833,makó
6901,Makó,CS,46.2167,20.4833,makó
6902,Makó,CS,46.2167,20.4833,makó
6903,Makó,CS,46.2167,20.4833,makó
6911,Királyhegyes,CS,46.2667,20.6167,királyhegyes
6912,Kövegy,CS,46.2167,20.6833,kövegy
6913,Csanádpalota,CS,46.25,20.7333,csanádpalota
6914,Pitvaros,CS,46.2972,20.7028,pitvaros
6915,Csanádalberti,CS,46.3333,20.7167,csanádalberti
6916,Ambrózfalva,CS,46.35,20.7333,ambrózfalva
6917,Nagyér,CS,46.3667,20.7333,nagyér
6921,Maroslele,CS,46.2667,20.35,maroslele
6922,Földeák,CS,46.3167,20.5,földeák
6923,Óföldeák,CS,46.3,20.45,óföldeák
6931,Apátfalva,CS,46.1667,20.5833,apátfalva
6932,Magyarcsanád,CS,46.1667,20.6167,magyarcsanád
6933,Nagylak,CS,46.1667,20.7167,nagylak
7000,Sárbogárd,FE,46.8833,18.6333,sárbogárd
7001,Sárbogárd,FE,46.8833,18.6333,sárbogárd
7002,Sárbogárd,FE,46.8833,18.6333,sárbogárd
7003,Sárbogárd,FE,46.8833,18.6333,sárbogárd
7011,Alap,FE,46.8,18.7,alap
7012,Alsószentiván,FE,46.7833,18.7333,alsószentiván
7013,Cece,FE,46.7667,18.65,cece
7014,Sáregres,FE,46.7833,18.6,sáregres
7015,Igar,FE,46.7833,18.5167,igar
7016,Igar,FE,46.7833,18.5167,igar
7017,Mezőszilas,FE,46.8167,18.4833,mezőszilas
7018,Mezőszilas,FE,46.8167,18.4833,mezőszilas
7019,Mezőszilas,FE,46.8167,18.4833,mezőszilas
7020,Dunaföldvár,TO,46.8,18.9333,dunaföldvár
7021,Dunaföldvár,TO,46.8,18.9333,dunaföldvár
7025,Bölcske,TO,46.7333,18.9667,bölcske
7026,Madocsa,TO,46.6833,18.9667,madocsa
7027,Madocsa,TO,46.6833,18.9667,madocsa
7030,Paks,TO,46.6333,18.8667,paks
7031,Paks,TO,46.6333,18.8667,paks
7032,Paks,TO,46.6333,18.8667,paks
7038,Pusztahencse,TO,46.6,18.7167,pusztahencse
7039,Németkér,TO,46.7167,18.7667,németkér
7041,Vajta,FE,46.7167,18.6667,vajta
7042,Pálfa,TO,46.7167,18.6333,pálfa
7043,Bikács,TO,46.6833,18.6667,bikács
7044,Nagydorog,TO,46.6333,18.6667,nagydorog
7045,Györköny,TO,46.6333,18.7,györköny
7047,Sárszentlőrinc,TO,46.6333,18.6167,sárszentlőrinc
7051,Kajdacs,TO,46.5667,18.6333,kajdacs
7052,Kölesd,TO,46.5167,18.5833,kölesd
7054,Tengelic,TO,46.5333,18.7167,tengelic
7056,Szedres,TO,46.4833,18.6833,szedres
7057,Medina,TO,46.4667,18.65,medina
7061,Belecska,TO,46.65,18.4167,belecska
7062,Keszőhidegkút,TO,46.6167,18.4333,keszőhidegkút
7063,Szárazd,TO,46.5667,18.4333,szárazd
7064,Gyönk,TO,46.55,18.4833,gyönk
7065,Miszla,TO,46.6333,18.4833,miszla
7066,Udvari,TO,46.6,18.5167,udvari
7067,Varsád,TO,46.5333,18.5167,varsád
7068,Kistormás,TO,46.5,18.5667,kistormás
7071,Szakadát,TO,46.5333,18.4833,szakadát
7072,Diósberény,TO,46.5333,18.45,diósberény
7081,Simontornya,TO,46.75,18.55,simontornya
7082,Kisszékely,TO,46.6833,18.55,kisszékely
7083,Tolnanémedi,TO,46.7167,18.4833,tolnanémedi
7084,Pincehely,TO,46.6833,18.45,pincehely
7085,Nagyszékely,TO,46.65,18.5333,nagyszékely
7086,Ozora,TO,46.75,18.4,ozora
7087,Fürged,TO,46.7167,18.3,fürged
7090,Tamási,TO,46.6333,18.2833,tamási
7091,Tamási,TO,46.6333,18.2833,tamási
7092,Nagykónyi,TO,46.5833,18.2,nagykónyi
7093,Értény,TO,46.6167,18.1333,értény
7094,Koppányszántó,TO,46.6,18.1167,koppányszántó
7095,Iregszemcse,TO,46.7,18.1833,iregszemcse
7095,Újireg,TO,46.65,18.1833,újireg
7097,Nagyszokoly,TO,46.7167,18.2167,nagyszokoly
7098,Magyarkeszi,TO,46.75,18.2333,magyarkeszi
7099,Felsőnyék,TO,46.7833,18.3,felsőnyék
7100,Szekszárd,TO,46.35,18.7167,szekszárd
7101,Szekszárd,TO,46.35,18.7167,szekszárd
7102,Szekszárd,TO,46.35,18.7167,szekszárd
7103,Szekszárd,TO,46.35,18.7167,szekszárd
7121,Szálka,TO,46.2833,18.6333,szálka
7122,Kakasd,TO,46.35,18.6,kakasd
7130,Tolna,TO,46.4333,18.7833,tolna
7131,Tolna,TO,46.4333,18.7833,tolna
7132,Bogyiszló,TO,46.3833,18.8333,bogyiszló
7133,Fadd,TO,46.4667,18.8333,fadd
7134,Gerjen,TO,46.5,18.9,gerjen
7135,Dunaszentgyörgy,TO,46.5333,18.8333,dunaszentgyörgy
7136,Fácánkert,TO,46.45,18.7333,fácánkert
7140,Bátaszék,TO,46.1833,18.7333,bátaszék
7142,Pörböly,TO,46.2,18.8167,pörböly
7143,Őcsény,TO,46.3167,18.7667,őcsény
7144,Decs,TO,46.2833,18.7667,decs
7145,Sárpilis,TO,46.25,18.75,sárpilis
7146,Várdomb,TO,46.25,18.7,várdomb
7147,Alsónána,TO,46.25,18.6667,alsónána
7148,Alsónyék,TO,46.2,18.7333,alsónyék
7149,Báta,TO,46.1333,18.7833,báta
7150,Bonyhád,TO,46.3,18.5333,bonyhád
7151,Bonyhád,TO,46.3,18.5333,bonyhád
7153,Bonyhád,TO,46.3,18.5333,bonyhád
7158,Bonyhádvarasd,TO,46.3667,18.4833,bonyhádvarasd
7159,Kisdorog,TO,46.3833,18.5,kisdorog
7161,Cikó,TO,46.25,18.5667,cikó
7162,Grábóc,TO,46.2833,18.6167,grábóc
7163,Mőcsény,TO,46.2667,18.6,mőcsény
7164,Bátaapáti,TO,46.2167,18.6,bátaapáti
7165,Mórágy,TO,46.2167,18.65,mórágy
7171,Sióagárd,TO,46.4,18.65,sióagárd
7172,Harc,TO,46.4,18.6333,harc
7173,Zomba,TO,46.4,18.5667,zomba
7174,Kéty,TO,46.4333,18.5333,kéty
7175,Felsőnána,TO,46.4667,18.5333,felsőnána
7176,Murga,TO,46.4667,18.4833,murga
7181,Tevel,TO,46.4167,18.45,tevel
7182,Závod,TO,46.4,18.4167,závod
7183,Kisvejke,TO,46.3833,18.4167,kisvejke
7184,Lengyel,BA,46.3786,18.4357,lengyel
7184,Szárász,TO,46.3786,18.4357,szárász
7185,Mucsfa,TO,46.35,18.4167,mucsfa
7186,Aparhant,TO,46.3333,18.45,aparhant
7186,Nagyvejke,TO,46.3833,18.45,nagyvejke
7187,Nagyvejke,TO,46.3833,18.45,nagyvejke
7188,Szárász,BA,46.34,18.4046,szárász
7191,Hőgyész,TO,46.4833,18.4167,hőgyész
7192,Szakály,TO,46.5333,18.3833,szakály
7193,Regöly,TO,46.5833,18.4167,regöly
7194,Kalaznó,TO,46.5,18.4833,kalaznó
7195,Mucsi,TO,46.4333,18.4,mucsi
7200,Dombóvár,TO,46.3833,18.1167,dombóvár
7201,Dombóvár,TO,46.3833,18.1167,dombóvár
7202,Dombóvár,TO,46.3833,18.1167,dombóvár
7203,Dombóvár,TO,46.3833,18.1167,dombóvár
7211,Dalmand,TO,46.5,18.1833,dalmand
7212,Kocsola,TO,46.5333,18.1833,kocsola
7213,Szakcs,TO,46.5133,18.11,szakcs
7214,Várong,TO,46.5333,18.05,várong
7214,Lápafő,TO,46.5167,18.0667,lápafő
7215,Nak,TO,46.4833,18.0667,nak
7224,Dúzs,TO,46.4833,18.3833,dúzs
7225,Csibrák,TO,46.4667,18.35,csibrák
7226,Kurd,TO,46.45,18.3167,kurd
7227,Gyulaj,TO,46.5,18.3,gyulaj
7228,Döbrököz,TO,46.4167,18.25,döbrököz
7251,Kapospula,TO,46.3524,18.0143,kapospula
7252,Attala,TO,46.3524,18.0143,attala
7253,Csoma,SO,46.3667,18.05,csoma
7253,Szabadi,SO,46.3667,18.0333,szabadi
7255,Nagyberki,SO,46.3667,18.0167,nagyberki
7256,Kercseliget,SO,46.3333,18.0667,kercseliget
7257,Mosdós,SO,46.35,18.0,mosdós
7258,Kaposkeresztúr,SO,46.3333,17.9667,kaposkeresztúr
7258,Baté,SO,46.35,17.9667,baté
7261,Kaposhomok,SO,46.3667,17.9167,kaposhomok
7261,Taszár,SO,46.3667,17.9167,taszár
7271,Fonó,SO,46.4,17.95,fonó
7272,Gölle,SO,46.4333,18.0167,gölle
7273,Büssü,SO,46.4667,17.9667,büssü
7274,Kazsok,SO,46.4833,17.9667,kazsok
7275,Igal,SO,46.5333,17.95,igal
7276,Somogyszil,SO,46.5167,18.0,somogyszil
7276,Gadács,SO,46.5333,18.0167,gadács
7279,Kisgyalán,SO,46.4167,17.9833,kisgyalán
7281,Bonnya,SO,46.5833,17.9,bonnya
7282,Kisbárapáti,SO,46.6,17.8667,kisbárapáti
7282,Fiad,SO,46.6333,17.85,fiad
7283,Somogyacsa,SO,46.5833,17.95,somogyacsa
7284,Somogydöröcske,SO,46.5833,18.0,somogydöröcske
7285,Kára,SO,46.6167,18.0167,kára
7285,Szorosad,SO,46.6,18.0333,szorosad
7285,Törökkoppány,SO,46.6,18.05,törökkoppány
7286,Miklósi,SO,46.65,18.0,miklósi
7300,Mecsekpölöske,BA,46.2167,18.2167,mecsekpölöske
7300,Komló,BA,46.2,18.2667,komló
7301,Mecsekpölöske,BA,46.2167,18.2167,mecsekpölöske
7302,Mecsekpölöske,BA,46.2167,18.2167,mecsekpölöske
7303,Mecsekpölöske,BA,46.2167,18.2167,mecsekpölöske
7304,Mánfa,BA,46.1667,18.25,mánfa
7305,Mánfa,BA,46.1667,18.25,mánfa
7306,Mánfa,BA,46.1667,18.25,mánfa
7309,Mánfa,BA,46.1667,18.25,mánfa
7331,Liget,BA,46.2333,18.2,liget
7332,Magyaregregy,BA,46.25,18.3167,magyaregregy
7333,Kárász,BA,46.2667,18.3167,kárász
7333,Vékény,BA,46.2667,18.35,vékény
7334,Köblény,BA,46.3,18.3,köblény
7334,Szalatnak,BA,46.2833,18.2833,szalatnak
7341,Csikóstőttős,TO,46.3333,18.1667,csikóstőttős
7342,Mágocs,BA,46.35,18.2333,mágocs
7343,Nagyhajmás,BA,46.3278,18.2944,nagyhajmás
7344,Mekényes,BA,46.3833,18.3333,mekényes
7345,Alsómocsolád,BA,46.3167,18.25,alsómocsolád
7346,Bikal,BA,46.3333,18.2833,bikal
7347,Egyházaskozár,BA,46.3333,18.3167,egyházaskozár
7348,Tófű,BA,46.3167,18.3667,tófű
7348,Hegyhátmaróc,BA,46.3167,18.3333,hegyhátmaróc
7349,Szászvár,BA,46.2667,18.3667,szászvár
7351,Máza,BA,46.2667,18.4,máza
7352,Györe,TO,46.3,18.4,györe
7353,Izmény,TO,46.3167,18.4167,izmény
7354,Váralja,TO,46.2667,18.4333,váralja
7355,Nagymányok,TO,46.2833,18.4667,nagymányok
7356,Kismányok,TO,46.2667,18.4833,kismányok
7357,Jágónak,TO,46.3167,18.0833,jágónak
7361,Kaposszekcső,TO,46.3333,18.1333,kaposszekcső
7362,Gerényes,BA,46.3,18.1833,gerényes
7362,Vásárosdombó,BA,46.3,18.15,vásárosdombó
7362,Tarrós,TO,46.3056,18.1389,tarrós
7362,Jágónak,TO,46.3167,18.0833,jágónak
7370,Felsőegerszeg,BA,46.25,18.1333,felsőegerszeg
7370,Oroszló,BA,46.2167,18.1333,oroszló
7370,Palé,BA,46.2667,18.0667,palé
7370,Sásd,BA,46.25,18.1167,sásd
7370,Varga,BA,46.2333,18.15,varga
7370,Vázsnok,BA,46.2667,18.1333,vázsnok
7370,Meződ,BA,46.2833,18.1,meződ
7381,Ág,BA,46.2833,18.2,ág
7381,Kisvaszar,BA,46.2833,18.2167,kisvaszar
7381,Tékes,BA,46.2833,18.1667,tékes
7383,Baranyaszentgyörgy,BA,46.2333,18.0167,baranyaszentgyörgy
7383,Tormás,BA,46.2333,18.0,tormás
7383,Szágy,BA,46.2333,17.95,szágy
7384,Baranyajenő,BA,46.2667,18.05,baranyajenő
7385,Gödre,BA,46.2833,17.9833,gödre
7386,Gödre,BA,46.2833,17.9833,gödre
7391,Kisbeszterce,BA,46.2,18.0333,kisbeszterce
7391,Kishajmás,BA,46.2,18.0833,kishajmás
7391,Mindszentgodisa,BA,46.2167,18.0667,mindszentgodisa
7393,Bakóca,BA,46.2167,18.0,bakóca
7394,Magyarhertelend,BA,46.1833,18.15,magyarhertelend
7394,Bodolyabér,BA,46.2,18.1167,bodolyabér
7396,Magyarszék,BA,46.2,18.2,magyarszék
7400,Kaposvár,SO,46.3667,17.8,kaposvár
7400,Orci,SO,46.4,17.8667,orci
7400,Zselickislak,SO,46.3167,17.8167,zselickislak
7401,Zselickislak,SO,46.3167,17.8167,zselickislak
7402,Zselickislak,SO,46.3167,17.8167,zselickislak
7403,Zselickislak,SO,46.3167,17.8167,zselickislak
7404,Zselickislak,SO,46.3167,17.8167,zselickislak
7405,Zselickislak,SO,46.3167,17.8167,zselickislak
7406,Zselickislak,SO,46.3167,17.8167,zselickislak
7407,Zselickislak,SO,46.3167,17.8167,zselickislak
7408,Zselickislak,SO,46.3167,17.8167,zselickislak
7409,Zselickislak,SO,46.3167,17.8167,zselickislak
7431,Juta,SO,46.4,17.75,juta
7432,Csombárd,SO,46.45,17.6833,csombárd
7432,Hetes,SO,46.4167,17.7,hetes
7434,Mezőcsokonya,SO,46.4333,17.65,mezőcsokonya
7435,Somogysárd,SO,46.4167,17.6,somogysárd
7436,Újvárfalva,SO,46.4333,17.5833,újvárfalva
7439,Bodrog,SO,46.4667,17.6667,bodrog
7441,Magyaregres,SO,46.45,17.7833,magyaregres
7442,Várda,SO,46.45,17.7333,várda
7443,Alsóbogát,SO,46.5,17.75,alsóbogát
7443,Somogyjád,SO,46.5,17.7,somogyjád
7443,Edde,SO,46.5167,17.7167,edde
7444,Osztopán,SO,46.5167,17.6667,osztopán
7452,Somogyaszaló,SO,46.45,17.8167,somogyaszaló
7453,Mernye,SO,46.5,17.8333,mernye
7454,Somodor,SO,46.4833,17.85,somodor
7455,Somogygeszti,SO,46.5167,17.7833,somogygeszti
7456,Felsőmocsolád,SO,46.5833,17.8333,felsőmocsolád
7457,Ecseny,SO,46.55,17.85,ecseny
7458,Polány,SO,46.55,17.7833,polány
7463,Magyaratád,SO,46.4667,17.9,magyaratád
7463,Patalom,SO,46.45,17.9167,patalom
7464,Ráksi,SO,46.5167,17.9167,ráksi
7465,Szentgáloskér,SO,46.5,17.8833,szentgáloskér
7471,Zimány,SO,46.4167,17.9167,zimány
7472,Cserénfa,SO,46.3167,17.8833,cserénfa
7472,Szentbalázs,SO,46.3167,17.9,szentbalázs
7473,Gálosfa,SO,46.25,17.9,gálosfa
7473,Kaposgyarmat,SO,46.2833,17.8833,kaposgyarmat
7473,Hajmás,SO,46.2833,17.9167,hajmás
7474,Zselicszentpál,SO,46.3,17.8333,zselicszentpál
7474,Simonfa,SO,46.2833,17.8333,simonfa
7475,Bőszénfa,SO,46.2333,17.85,bőszénfa
7476,Kaposszerdahely,SO,46.3167,17.75,kaposszerdahely
7477,Patca,SO,46.2833,17.7167,patca
7477,Szenna,SO,46.3,17.7333,szenna
7477,Zselickisfalud,SO,46.2667,17.7333,zselickisfalud
7477,Szilvásszentmárton,SO,46.2667,17.7333,szilvásszentmárton
7478,Bárdudvarnok,SO,46.3333,17.6833,bárdudvarnok
7479,Sántos,SO,46.35,17.8833,sántos
7500,Nagyatád,SO,46.2167,17.3667,nagyatád
7501,Nagyatád,SO,46.2167,17.3667,nagyatád
7511,Ötvöskónyi,SO,46.2167,17.3667,ötvöskónyi
7512,Mike,SO,46.2333,17.5333,mike
7513,Rinyaszentkirály,SO,46.15,17.4,rinyaszentkirály
7514,Tarany,SO,46.1833,17.3,tarany
7515,Somogyudvarhely,SO,46.1667,17.2,somogyudvarhely
7516,Berzence,SO,46.2,17.15,berzence
7517,Bolhás,SO,46.2667,17.2833,bolhás
7521,Kaposmérő,SO,46.3667,17.7167,kaposmérő
7522,Kaposújlak,SO,46.3667,17.7333,kaposújlak
7523,Kisasszond,SO,46.3333,17.6333,kisasszond
7523,Kaposfő,SO,46.3667,17.6667,kaposfő
7524,Kiskorpád,SO,46.35,17.6167,kiskorpád
7525,Jákó,SO,46.3333,17.55,jákó
7526,Csököly,SO,46.3,17.55,csököly
7527,Rinyakovácsi,SO,46.2833,17.6,rinyakovácsi
7527,Gige,SO,46.3,17.6167,gige
7530,Kőkút,SO,46.1833,17.5833,kőkút
7530,Kadarkút,SO,46.2333,17.6333,kadarkút
7532,Hencse,SO,46.2,17.6333,hencse
7533,Visnye,SO,46.1833,17.6833,visnye
7533,Hedrehely,SO,46.1833,17.6667,hedrehely
7535,Lad,SO,46.15,17.65,lad
7536,Patosfa,SO,46.1333,17.6667,patosfa
7537,Homokszentgyörgy,SO,46.1167,17.5833,homokszentgyörgy
7538,Kálmáncsa,SO,46.0667,17.6167,kálmáncsa
7539,Szulok,SO,46.05,17.55,szulok
7541,Kutas,SO,46.3333,17.45,kutas
7542,Kisbajom,SO,46.3,17.5,kisbajom
7543,Beleg,SO,46.3167,17.4167,beleg
7544,Szabás,SO,46.2833,17.45,szabás
7545,Nagykorpád,SO,46.2667,17.4667,nagykorpád
7551,Lábod,SO,46.2,17.45,lábod
7552,Rinyabesenyő,SO,46.1667,17.5167,rinyabesenyő
7553,Görgeteg,SO,46.15,17.4333,görgeteg
7555,Csokonyavisonta,SO,46.0833,17.45,csokonyavisonta
7556,Rinyaújlak,SO,46.0833,17.4167,rinyaújlak
7557,Rinyaújlak,SO,46.0833,17.4167,rinyaújlak
7561,Nagybajom,SO,46.3833,17.5167,nagybajom
7561,Pálmajor,SO,46.3833,17.5667,pálmajor
7562,Segesd,SO,46.35,17.35,segesd
7563,Somogyszob,SO,46.3,17.3,somogyszob
7564,Kaszó,SO,46.3542,17.4333,kaszó
7570,Barcs,SO,45.96,17.4586,barcs
7571,Barcs,SO,45.96,17.4586,barcs
7582,Komlósd,SO,46.0167,17.3833,komlósd
7582,Péterhida,SO,46.0167,17.3667,péterhida
7584,Babócsa,SO,46.0333,17.3667,babócsa
7584,Rinyaújnép,SO,46.0833,17.35,rinyaújnép
7584,Somogyaracs,SO,46.05,17.4,somogyaracs
7585,Háromfa,SO,46.1,17.3333,háromfa
7585,Bakháza,SO,46.1,17.3667,bakháza
7586,Bolhó,SO,46.0333,17.3,bolhó
7587,Heresznye,SO,46.05,17.2833,heresznye
7588,Vízvár,SO,46.0833,17.2333,vízvár
7589,Bélavár,SO,46.1167,17.2167,bélavár
7600,Pécs,BA,46.0967,18.2068,pécs
7601,Pécs,BA,46.0967,18.2068,pécs
7602,Pécs,BA,46.0967,18.2068,pécs
7603,Pécs,BA,46.0967,18.2068,pécs
7604,Pécs,BA,46.0967,18.2068,pécs
7605,Pécs,BA,46.0967,18.2068,pécs
7606,Pécs,BA,46.0967,18.2068,pécs
7607,Pécs,BA,46.0967,18.2068,pécs
7608,Pécs,BA,46.0967,18.2068,pécs
7610,Pécs,BA,46.0967,18.2068,pécs
7611,Pécs,BA,46.0967,18.2068,pécs
7612,Pécs,BA,46.0967,18.2068,pécs
7613,Pécs,BA,46.0967,18.2068,pécs
7614,Pécs,BA,46.0967,18.2068,pécs
7615,Pécs,BA,46.0967,18.2068,pécs
7616,Pécs,BA,46.0967,18.2068,pécs
7617,Pécs,BA,46.0967,18.2068,pécs
7618,Pécs,BA,46.0967,18.2068,pécs
7619,Pécs,BA,46.0967,18.2068,pécs
7621,Pécs,BA,46.0967,18.2068,pécs
7622,Pécs,BA,46.0967,18.2068,pécs
7623,Pécs,BA,46.0967,18.2068,pécs
7624,Pécs,BA,46.0967,18.2068,pécs
7625,Pécs,BA,46.0967,18.2068,pécs
7626,Pécs,BA,46.0967,18.2068,pécs
7627,Pécs,BA,46.0967,18.2068,pécs
7628,Pécs,BA,46.0967,18.2068,pécs
7629,Pécs,BA,46.0967,18.2068,pécs
7630,Pécs,BA,46.0967,18.2068,pécs
7631,Pécs,BA,46.0967,18.2068,pécs
7632,Pécs,BA,46.0967,18.2068,pécs
7633,Pécs,BA,46.0967,18.2068,pécs
7634,Pécs,BA,46.0967,18.2068,pécs
7635,Pécs,BA,46.0967,18.2068,pécs
7636,Pécs,BA,46.0967,18.2068,pécs
7639,Pécs,BA,46.0967,18.2068,pécs
7643,Pécs,BA,46.0967,18.2068,pécs
7644,Pécs,BA,46.0967,18.2068,pécs
7645,Pécs,BA,46.0967,18.2068,pécs
7646,Pécs,BA,46.0967,18.2068,pécs
7647,Pécs,BA,46.0967,18.2068,pécs
7648,Pécs,BA,46.0967,18.2068,pécs
7650,Pécs,BA,46.0967,18.2068,pécs
7661,Erzsébet,BA,46.1,18.4667,erzsébet
7661,Kékesd,BA,46.1,18.4667,kékesd
7661,Kátoly,BA,46.0667,18.45,kátoly
7661,Szellő,BA,46.0667,18.4667,szellő
7663,Máriakéménd,BA,46.0333,18.4667,máriakéménd
7664,Berkesd,BA,46.0667,18.4167,berkesd
7664,Szilágy,BA,46.1,18.4167,szilágy
7664,Pereked,BA,46.1,18.3833,pereked
7666,Pogány,BA,45.98,18.26,pogány
7668,Gyód,BA,45.9958,18.1786,gyód
7668,Keszü,BA,46.0167,18.1833,keszü
7668,Kökény,BA,45.9969,18.2028,kökény
7671,Bicsérd,BA,46.0167,18.0833,bicsérd
7671,Zók,BA,46.0,18.1,zók
7671,Aranyosgadány,BA,46.0,18.1167,aranyosgadány
7672,Boda,BA,46.0833,18.05,boda
7673,Kővágószőlős,BA,46.0833,18.1333,kővágószőlős
7673,Cserkút,BA,46.0667,18.1333,cserkút
7675,Kővágótöttös,BA,46.0833,18.0833,kővágótöttös
7675,Bakonya,BA,46.0833,18.0833,bakonya
7677,Orfű,BA,46.1333,18.15,orfű
7678,Abaliget,BA,46.15,18.1167,abaliget
7678,Kovácsszénája,BA,46.1667,18.1167,kovácsszénája
7678,Husztót,BA,46.1667,18.0833,husztót
7681,Okorvölgy,BA,46.15,18.0667,okorvölgy
7681,Hetvehely,BA,46.1333,18.05,hetvehely
7681,Szentkatalin,BA,46.1667,18.05,szentkatalin
7682,Bükkösd,BA,46.1,17.9833,bükkösd
7683,Helesfa,BA,46.0833,17.9833,helesfa
7683,Dinnyeberki,BA,46.0833,17.95,dinnyeberki
7683,Cserdi,BA,46.0667,18.0,cserdi
7691,Pécs,BA,46.0833,17.95,pécs
7691,Dinnyeberki,BA,46.0833,17.95,dinnyeberki
7693,Pécs,BA,46.0833,17.95,pécs
7693,Dinnyeberki,BA,46.0833,17.95,dinnyeberki
7694,Hosszúhetény,BA,46.15,18.35,hosszúhetény
7695,Ófalu,BA,46.2167,18.5333,ófalu
7695,Mecseknádasd,BA,46.2167,18.4667,mecseknádasd
7695,Óbánya,BA,46.2167,18.4167,óbánya
7696,Hidas,BA,46.2667,18.5,hidas
7700,Mohács,BA,45.9931,18.6831,mohács
7701,Mohács,BA,45.9931,18.6831,mohács
7702,Mohács,BA,45.9931,18.6831,mohács
7711,Bár,BA,46.05,18.7167,bár
7712,Dunaszekcső,BA,46.0833,18.7667,dunaszekcső
7714,Dunaszekcső,BA,46.0833,18.7667,dunaszekcső
7715,Dunaszekcső,BA,46.0833,18.7667,dunaszekcső
7716,Homorúd,BA,45.9814,18.7922,homorúd
7717,Kölked,BA,45.9503,18.7078,kölked
7718,Udvar,BA,45.9006,18.6597,udvar
7720,Apátvarasd,BA,46.1833,18.4833,apátvarasd
7720,Martonfa,BA,46.1167,18.3833,martonfa
7720,Lovászhetény,BA,46.1667,18.4833,lovászhetény
7720,Zengővárkony,BA,46.1667,18.4333,zengővárkony
7720,Pécsvárad,BA,46.15,18.4167,pécsvárad
7723,Erdősmecske,BA,46.1833,18.5167,erdősmecske
7724,Feked,BA,46.1667,18.5667,feked
7725,Szebény,BA,46.1333,18.6,szebény
7726,Véménd,BA,46.15,18.6167,véménd
7727,Palotabozsok,BA,46.1333,18.65,palotabozsok
7728,Görcsönydoboka,BA,46.0667,18.6333,görcsönydoboka
7728,Somberek,BA,46.0833,18.6667,somberek
7731,Nagypall,BA,46.15,18.45,nagypall
7732,Fazekasboda,BA,46.1167,18.4833,fazekasboda
7733,Maráza,BA,46.0667,18.5167,maráza
7733,Geresdlak,BA,46.1,18.5333,geresdlak
7735,Szűr,BA,46.1,18.5833,szűr
7735,Erdősmárok,BA,46.05,18.55,erdősmárok
7735,Himesháza,BA,46.0833,18.5667,himesháza
7737,Székelyszabar,BA,46.05,18.6,székelyszabar
7741,Bogád,BA,46.0833,18.3333,bogád
7741,Nagykozár,BA,46.0667,18.3333,nagykozár
7741,Romonya,BA,46.0833,18.35,romonya
7742,Bogád,BA,46.0833,18.3333,bogád
7743,Romonya,BA,46.0833,18.35,romonya
7744,Ellend,BA,46.05,18.3833,ellend
7745,Olasz,BA,46.0167,18.4167,olasz
7745,Hásságy,BA,46.0333,18.3833,hásságy
7747,Belvárdgyula,BA,45.9722,18.4339,belvárdgyula
7747,Birján,BA,45.9978,18.3747,birján
7751,Szederkény,BA,45.9969,18.4578,szederkény
7751,Monyoród,BA,46.0,18.4833,monyoród
7752,Versend,BA,45.9953,18.5114,versend
7753,Szajk,BA,45.9906,18.5314,szajk
7754,Bóly,BA,45.9672,18.5183,bóly
7755,Töttös,BA,45.9156,18.5422,töttös
7756,Borjád,BA,45.9339,18.4672,borjád
7756,Pócsa,BA,45.9097,18.4708,pócsa
7756,Kisbudmér,BA,45.9125,18.4475,kisbudmér
7756,Nagybudmér,BA,45.9361,18.4456,nagybudmér
7757,Babarc,BA,45.9981,18.5547,babarc
7757,Liptód,BA,46.05,18.5167,liptód
7759,Lánycsók,BA,46.0,18.6333,lánycsók
7759,Kisnyárád,BA,46.0333,18.5667,kisnyárád
7761,Lothárd,BA,45.9989,18.3525,lothárd
7761,Kozármisleny,BA,46.0333,18.3,kozármisleny
7761,Magyarsarlós,BA,46.0333,18.3667,magyarsarlós
7762,Pécsudvard,BA,46.0167,18.2833,pécsudvard
7763,Áta,BA,45.9364,18.2947,áta
7763,Szemely,BA,46.0167,18.3333,szemely
7763,Egerág,BA,45.9839,18.3047,egerág
7763,Szőkéd,BA,45.9667,18.2869,szőkéd
7763,Kisherend,BA,45.9661,18.3297,kisherend
7766,Pécsdevecser,BA,45.9567,18.3842,pécsdevecser
7766,Újpetre,BA,45.9367,18.3625,újpetre
7766,Peterd,BA,45.9742,18.3589,peterd
7766,Kiskassa,BA,45.9531,18.3978,kiskassa
7768,Kistótfalu,BA,45.9075,18.3075,kistótfalu
7768,Vokány,BA,45.9094,18.3361,vokány
7771,Palkonya,BA,45.8967,18.3897,palkonya
7772,Ivánbattyán,BA,45.9072,18.4181,ivánbattyán
7772,Villánykövesd,BA,45.8822,18.4253,villánykövesd
7773,Villány,BA,45.8689,18.4539,villány
7773,Kisjakabfalva,BA,45.8958,18.4347,kisjakabfalva
7774,Márok,BA,45.8736,18.5086,márok
7775,Illocska,BA,45.8003,18.5225,illocska
7775,Magyarbóly,BA,45.8419,18.4914,magyarbóly
7775,Kislippó,BA,45.8272,18.5297,kislippó
7775,Lapáncsa,BA,45.8192,18.4978,lapáncsa
7781,Ivándárda,BA,45.8306,18.5903,ivándárda
7781,Lippó,BA,45.8628,18.57,lippó
7781,Sárok,BA,45.8411,18.6114,sárok
7782,Bezedek,BA,45.8647,18.5864,bezedek
7783,Majs,BA,45.9092,18.6003,majs
7784,Nagynyárád,BA,45.9433,18.5781,nagynyárád
7785,Sátorhely,BA,45.9408,18.6344,sátorhely
7800,Kisharsány,BA,45.8586,18.3642,kisharsány
7800,Siklós,BA,45.8553,18.2986,siklós
7800,Nagytótfalu,BA,45.8639,18.3453,nagytótfalu
7801,Nagytótfalu,BA,45.8639,18.3453,nagytótfalu
7802,Nagytótfalu,BA,45.8639,18.3453,nagytótfalu
7811,Bisse,BA,45.9078,18.2581,bisse
7811,Szalánta,BA,45.9486,18.2375,szalánta
7811,Bosta,BA,45.9483,18.2092,bosta
7811,Szilvás,BA,45.9622,18.2,szilvás
7811,Csarnóta,BA,45.8953,18.2147,csarnóta
7811,Túrony,BA,45.9044,18.2317,túrony
7812,Garé,BA,45.9189,18.1933,garé
7813,Szava,BA,45.9022,18.1761,szava
7814,Babarcszőlős,BA,45.9,18.1364,babarcszőlős
7814,Ócsárd,BA,45.9342,18.1519,ócsárd
7814,Kisdér,BA,45.9406,18.1281,kisdér
7814,Siklósbodony,BA,45.9103,18.1203,siklósbodony
7815,Harkány,BA,45.8478,18.2375,harkány
7817,Rádfalva,BA,45.8597,18.1258,rádfalva
7817,Diósviszló,BA,45.8772,18.1633,diósviszló
7817,Márfa,BA,45.86,18.1853,márfa
7822,Nagyharsány,BA,45.8464,18.3922,nagyharsány
7823,Kistapolca,BA,45.8219,18.3847,kistapolca
7823,Siklósnagyfalu,BA,45.8197,18.3614,siklósnagyfalu
7824,Egyházasharaszti,BA,45.8094,18.3336,egyházasharaszti
7824,Old,BA,45.7881,18.3522,old
7826,Alsószentmárton,BA,45.7892,18.3056,alsószentmárton
7827,Kásád,BA,45.7783,18.3989,kásád
7827,Beremend,BA,45.7853,18.4347,beremend
7831,Pellérd,BA,46.0333,18.15,pellérd
7833,Görcsöny,BA,45.9694,18.1358,görcsöny
7833,Szőke,BA,45.96,18.1858,szőke
7833,Regenye,BA,45.9692,18.1681,regenye
7834,Baksa,BA,45.9536,18.0889,baksa
7834,Tengeri,BA,45.9261,18.0881,tengeri
7834,Téseny,BA,45.9399,18.0885,téseny
7836,Bogádmindszent,BA,45.9069,18.0406,bogádmindszent
7836,Ózdfalu,BA,45.9292,18.0217,ózdfalu
7837,Hegyszentmárton,BA,45.9039,18.09,hegyszentmárton
7838,Nagycsány,BA,45.8667,17.95,nagycsány
7838,Hirics,BA,45.8167,18.0,hirics
7838,Piskó,BA,45.8167,17.95,piskó
7838,Besence,BA,45.9,17.9667,besence
7838,Vajszló,BA,45.8633,17.9761,vajszló
7838,Lúzsok,BA,45.8333,17.95,lúzsok
7838,Páprád,BA,45.8925,18.0097,páprád
7838,Vejti,BA,45.8167,17.9667,vejti
7839,Kemse,BA,45.8167,17.9167,kemse
7839,Zaláta,BA,45.8167,17.8833,zaláta
7841,Baranyahídvég,BA,45.8464,18.0233,baranyahídvég
7841,Sámod,BA,45.8544,18.0375,sámod
7841,Adorjás,BA,45.8506,18.0628,adorjás
7841,Kisszentmárton,BA,45.8242,18.0242,kisszentmárton
7841,Kórós,BA,45.8669,18.0844,kórós
7843,Cún,BA,45.8125,18.0669,cún
7843,Kémes,BA,45.8242,18.1011,kémes
7843,Drávapiski,BA,45.84,18.1011,drávapiski
7843,Tésenfa,BA,45.8131,18.1183,tésenfa
7843,Szaporca,BA,45.8136,18.1044,szaporca
7846,Drávacsepely,BA,45.8292,18.1386,drávacsepely
7847,Kovácshida,BA,45.8342,18.1814,kovácshida
7847,Drávaszerdahely,BA,45.8358,18.1633,drávaszerdahely
7847,Ipacsfa,BA,45.8347,18.2033,ipacsfa
7849,Drávacsehi,BA,45.8128,18.1672,drávacsehi
7850,Drávapalkonya,BA,45.8031,18.1789,drávapalkonya
7851,Drávapalkonya,BA,45.8031,18.1789,drávapalkonya
7851,Drávacsehi,BA,45.8128,18.1672,drávacsehi
7851,Drávaszabolcs,BA,45.8058,18.2114,drávaszabolcs
7853,Gordisa,BA,45.7964,18.2333,gordisa
7854,Matty,BA,45.7981,18.2661,matty
7900,Botykapeterd,BA,46.05,17.8667,botykapeterd
7900,Szigetvár,BA,46.05,17.8,szigetvár
7900,Csertő,BA,46.1,17.8167,csertő
7901,Csertő,BA,46.1,17.8167,csertő
7912,Nyugotszenterzsébet,BA,46.0833,17.9167,nyugotszenterzsébet
7912,Nagyváty,BA,46.0667,17.9333,nagyváty
7912,Nagypeterd,BA,46.05,17.9,nagypeterd
7913,Szentdénes,BA,46.0,17.9333,szentdénes
7914,Katádfa,BA,46.0,17.8667,katádfa
7914,Rózsafa,BA,46.0167,17.8833,rózsafa
7914,Bánfa,BA,45.9833,17.8833,bánfa
7915,Szentegát,BA,45.9667,17.8333,szentegát
7915,Dencsháza,BA,46.0,17.8333,dencsháza
7918,Tótújfalu,SO,45.8994,17.6556,tótújfalu
7918,Szentborbás,SO,45.8833,17.6667,szentborbás
7918,Lakócsa,SO,45.8964,17.6839,lakócsa
7921,Somogyhatvan,BA,46.1167,17.7167,somogyhatvan
7922,Basal,BA,46.0667,17.7833,basal
7922,Somogyapáti,BA,46.0833,17.75,somogyapáti
7922,Somogyviszló,BA,46.1167,17.7667,somogyviszló
7922,Patapoklosi,BA,46.0667,17.75,patapoklosi
7923,Basal,BA,46.0667,17.7833,basal
7924,Somogyviszló,BA,46.1167,17.7667,somogyviszló
7925,Magyarlukafa,BA,46.1667,17.7667,magyarlukafa
7925,Somogyhárságy,BA,46.1667,17.7833,somogyhárságy
7926,Vásárosbéc,BA,46.1833,17.7333,vásárosbéc
7932,Almáskeresztúr,BA,46.1167,17.9,almáskeresztúr
7932,Szulimán,BA,46.1333,17.8,szulimán
7932,Mozsgó,BA,46.1167,17.85,mozsgó
7934,Almamellék,BA,46.15,17.8833,almamellék
7935,Horváthertelend,BA,46.1667,17.9167,horváthertelend
7935,Csebény,BA,46.1833,17.9333,csebény
7935,Ibafa,BA,46.15,17.9167,ibafa
7936,Szentlászló,BA,46.15,17.8333,szentlászló
7937,Boldogasszonyfa,BA,46.1833,17.8333,boldogasszonyfa
7940,Szentlőrinc,BA,46.05,17.9833,szentlőrinc
7940,Csonkamindszent,BA,46.05,17.9667,csonkamindszent
7940,Kacsóta,BA,46.0333,17.95,kacsóta
7951,Gerde,BA,45.9897,18.0242,gerde
7951,Pécsbagota,BA,45.9903,18.0733,pécsbagota
7951,Szabadszentkirály,BA,46.0167,18.0333,szabadszentkirály
7951,Velény,BA,45.9803,18.0533,velény
7953,Királyegyháza,BA,46.0,17.9667,királyegyháza
7954,Gilvánfa,BA,45.9167,17.9667,gilvánfa
7954,Magyartelek,BA,45.9333,17.9833,magyartelek
7954,Gyöngyfa,BA,45.9667,17.95,gyöngyfa
7954,Kisasszonyfa,BA,45.9467,18.0061,kisasszonyfa
7954,Magyarmecske,BA,45.95,17.9667,magyarmecske
7957,Okorág,BA,45.9167,17.8833,okorág
7958,Kákics,BA,45.9025,17.8528,kákics
7960,Marócsa,BA,45.9167,17.8167,marócsa
7960,Drávaiványi,BA,45.85,17.8167,drávaiványi
7960,Sellye,BA,45.8747,17.8439,sellye
7960,Drávasztára,BA,45.8167,17.8167,drávasztára
7960,Sósvertike,BA,45.8333,17.8667,sósvertike
7960,Sumony,BA,45.9714,17.9058,sumony
7964,Csányoszró,BA,45.8819,17.9019,csányoszró
7966,Bogdása,BA,45.8833,17.8,bogdása
7967,Markóc,BA,45.8667,17.7667,markóc
7967,Drávafok,BA,45.8864,17.76,drávafok
7967,Drávakeresztúr,BA,45.8333,17.7667,drávakeresztúr
7968,Felsőszentmárton,BA,45.8522,17.7,felsőszentmárton
7971,Hobol,BA,46.0167,17.7667,hobol
7972,Gyöngyösmellék,BA,45.9833,17.7,gyöngyösmellék
7972,Pettend,BA,46.0,17.7,pettend
7973,Bürüs,BA,45.9667,17.7667,bürüs
7973,Teklafalu,BA,45.95,17.7333,teklafalu
7973,Endrőc,BA,45.9294,17.7586,endrőc
7973,Várad,BA,45.9667,17.75,várad
7975,Kétújfalu,BA,45.9669,17.705,kétújfalu
7976,Zádor,BA,45.9667,17.6653,zádor
7976,Szörény,BA,45.9667,17.6833,szörény
7977,Drávagárdony,SO,45.95,17.6167,drávagárdony
7977,Potony,SO,45.9303,17.6433,potony
7977,Kastélyosdombó,SO,45.9544,17.6133,kastélyosdombó
7979,Drávatamási,SO,45.9444,17.5694,drávatamási
7980,Pettend,BA,46.0,17.7,pettend
7981,Kistamási,BA,46.0167,17.7333,kistamási
7981,Merenye,BA,46.0667,17.7,merenye
7981,Tótszentgyörgy,BA,46.0333,17.725,tótszentgyörgy
7981,Molvány,BA,46.0333,17.75,molvány
7981,Nemeske,BA,46.0167,17.7167,nemeske
7985,Kisdobsza,BA,46.0333,17.6667,kisdobsza
7985,Nagydobsza,BA,46.0333,17.6667,nagydobsza
7987,Istvándi,SO,46.0167,17.6333,istvándi
7988,Darány,SO,45.9803,17.5853,darány
8000,Székesfehérvár,FE,47.2,18.4166,székesfehérvár
8001,Székesfehérvár,FE,47.2,18.4167,székesfehérvár
8002,Székesfehérvár,FE,47.2,18.4167,székesfehérvár
8003,Székesfehérvár,FE,47.2,18.4167,székesfehérvár
8004,Székesfehérvár,FE,47.2,18.4167,székesfehérvár
8005,Székesfehérvár,FE,47.2,18.4167,székesfehérvár
8006,Székesfehérvár,FE,47.2,18.4167,székesfehérvár
8007,Székesfehérvár,FE,47.2,18.4167,székesfehérvár
8008,Székesfehérvár,FE,47.2,18.4167,székesfehérvár
8011,Székesfehérvár,FE,47.2,18.4167,székesfehérvár
8019,Székesfehérvár,FE,47.2,18.4167,székesfehérvár
8020,Székesfehérvár,FE,47.2,18.4167,székesfehérvár
8041,Csór,FE,47.2,18.2667,csór
8042,Moha,FE,47.25,18.3333,moha
8043,Iszkaszentgyörgy,FE,47.2333,18.3,iszkaszentgyörgy
8044,Kincsesbánya,FE,47.25,18.2667,kincsesbánya
8045,Isztimér,FE,47.2833,18.2,isztimér
8046,Bakonykúti,FE,47.25,18.2,bakonykúti
8051,Sárkeresztes,FE,47.25,18.35,sárkeresztes
8052,Fehérvárcsurgó,FE,47.3,18.2667,fehérvárcsurgó
8053,Bodajk,FE,47.3167,18.2333,bodajk
8054,Bodajk,FE,47.3167,18.2333,bodajk
8055,Balinka,FE,47.3167,18.1833,balinka
8056,Bakonycsernye,FE,47.3167,18.0833,bakonycsernye
8060,Mór,FE,47.3833,18.2,mór
8061,Mór,FE,47.3833,18.2,mór
8062,Mór,FE,47.3833,18.2,mór
8065,Nagyveleg,FE,47.3667,18.1167,nagyveleg
8066,Pusztavám,FE,47.4333,18.2333,pusztavám
8071,Magyaralmás,FE,47.3,18.3333,magyaralmás
8072,Söréd,FE,47.3167,18.2833,söréd
8073,Csákberény,FE,47.35,18.3333,csákberény
8074,Csókakő,FE,47.35,18.2667,csókakő
8080,Bodmér,FE,47.45,18.55,bodmér
8081,Zámoly,FE,47.3167,18.4167,zámoly
8082,Gánt,FE,47.3833,18.4,gánt
8083,Csákvár,FE,47.4,18.45,csákvár
8084,Csákvár,FE,47.4,18.45,csákvár
8085,Vértesboglár,FE,47.4333,18.5333,vértesboglár
8086,Felcsút,FE,47.45,18.5833,felcsút
8087,Alcsútdoboz,FE,47.4167,18.6167,alcsútdoboz
8088,Tabajd,FE,47.4,18.6333,tabajd
8089,Vértesacsa,FE,47.3667,18.5833,vértesacsa
8092,Pátka,FE,47.2833,18.5,pátka
8093,Lovasberény,FE,47.3,18.55,lovasberény
8095,Pákozd,FE,47.2167,18.55,pákozd
8096,Sukoró,FE,47.2333,18.6167,sukoró
8097,Nadap,FE,47.2667,18.6167,nadap
8100,Várpalota,VE,47.2,18.1333,várpalota
8101,Várpalota,VE,47.2,18.1333,várpalota
8102,Várpalota,VE,47.2,18.1333,várpalota
8103,Várpalota,VE,47.2,18.1333,várpalota
8104,Várpalota,VE,47.2,18.1333,várpalota
8105,Pétfürdő,VE,47.1667,18.1167,pétfürdő
8109,Tés,VE,47.2667,18.0333,tés
8111,Seregélyes,FE,47.1,18.5833,seregélyes
8112,Zichyújfalu,FE,47.1333,18.6833,zichyújfalu
8121,Tác,FE,47.0833,18.4,tác
8122,Csősz,FE,47.0333,18.4167,csősz
8123,Soponya,FE,47.0167,18.45,soponya
8124,Káloz,FE,46.95,18.4833,káloz
8125,Sárkeresztúr,FE,47.0,18.55,sárkeresztúr
8126,Sárszentágota,FE,46.9667,18.5667,sárszentágota
8127,Aba,FE,47.0333,18.5167,aba
8130,Enying,FE,46.9333,18.25,enying
8131,Enying,FE,46.9333,18.25,enying
8132,Lepsény,FE,47.0,18.25,lepsény
8133,Mezőszentgyörgy,FE,47.0,18.2833,mezőszentgyörgy
8134,Mátyásdomb,FE,46.9167,18.35,mátyásdomb
8135,Dég,FE,46.8667,18.45,dég
8136,Lajoskomárom,FE,46.85,18.35,lajoskomárom
8137,Mezőkomárom,FE,46.8333,18.2833,mezőkomárom
8138,Szabadhídvég,FE,46.8167,18.2833,szabadhídvég
8142,Úrhida,FE,47.1333,18.3333,úrhida
8143,Sárszentmihály,FE,47.15,18.3333,sárszentmihály
8144,Sárkeszi,FE,47.1667,18.2833,sárkeszi
8145,Nádasdladány,FE,47.1333,18.25,nádasdladány
8146,Jenő,FE,47.1,18.25,jenő
8151,Szabadbattyán,FE,47.1167,18.3833,szabadbattyán
8152,Kőszárhegy,FE,47.1,18.3333,kőszárhegy
8153,Kőszárhegy,FE,47.1,18.3333,kőszárhegy
8154,Polgárdi,FE,47.05,18.3,polgárdi
8156,Kisláng,FE,46.9667,18.3833,kisláng
8157,Füle,FE,47.05,18.25,füle
8161,Ősi,VE,47.15,18.2,ősi
8162,Küngös,VE,47.0667,18.1833,küngös
8163,Csajág,VE,47.05,18.1833,csajág
8164,Balatonfőkajár,VE,47.0167,18.2167,balatonfőkajár
8171,Balatonvilágos,VE,46.9667,18.1667,balatonvilágos
8172,Balatonvilágos,VE,46.9667,18.1667,balatonvilágos
8173,Balatonvilágos,VE,46.9667,18.1667,balatonvilágos
8174,Balatonkenese,VE,47.0333,18.1167,balatonkenese
8175,Balatonfűzfő,VE,47.0667,18.05,balatonfűzfő
8181,Berhida,VE,47.1167,18.1333,berhida
8182,Berhida,VE,47.1167,18.1333,berhida
8183,Papkeszi,VE,47.0833,18.0833,papkeszi
8184,Papkeszi,VE,47.0833,18.0833,papkeszi
8191,Öskü,VE,47.1667,18.0833,öskü
8192,Hajmáskér,VE,47.15,18.0167,hajmáskér
8193,Sóly,VE,47.1333,18.0333,sóly
8194,Vilonya,VE,47.1167,18.0667,vilonya
8195,Királyszentistván,VE,47.1,18.05,királyszentistván
8196,Litér,VE,47.1,18.0167,litér
8200,Veszprém,VE,47.1,17.9167,veszprém
8201,Veszprém,VE,47.1,17.9167,veszprém
8202,Veszprém,VE,47.1,17.9167,veszprém
8204,Veszprém,VE,47.1,17.9167,veszprém
8205,Veszprém,VE,47.1,17.9167,veszprém
8206,Veszprém,VE,47.1,17.9167,veszprém
8207,Veszprém,VE,47.1,17.9167,veszprém
8220,Balatonalmádi,VE,47.033,18.0164,balatonalmádi
8221,Balatonalmádi,VE,47.0333,18.0167,balatonalmádi
8222,Balatonalmádi,VE,47.0333,18.0167,balatonalmádi
8225,Szentkirályszabadja,VE,47.05,17.9667,szentkirályszabadja
8226,Alsóörs,VE,46.9833,17.9833,alsóörs
8227,Felsőörs,VE,47.0167,17.95,felsőörs
8228,Lovas,VE,47.0,17.9667,lovas
8229,Csopak,VE,46.9833,17.9333,csopak
8229,Paloznak,VE,46.9833,17.95,paloznak
8230,Balatonfüred,VE,46.95,17.8833,balatonfüred
8230,Balatonszőlős,VE,46.9616,17.875,balatonszőlős
8231,Balatonszőlős,VE,46.9667,17.8333,balatonszőlős
8232,Balatonszőlős,VE,46.9667,17.8333,balatonszőlős
8233,Balatonszőlős,VE,46.9667,17.8333,balatonszőlős
8236,Balatonszőlős,VE,46.9667,17.8333,balatonszőlős
8237,Tihany,VE,46.9167,17.9,tihany
8241,Aszófő,VE,46.9333,17.8333,aszófő
8242,Örvényes,VE,46.9167,17.8167,örvényes
8242,Balatonudvari,VE,46.9,17.8167,balatonudvari
8243,Balatonakali,VE,46.8833,17.75,balatonakali
8244,Dörgicse,VE,46.9167,17.7167,dörgicse
8245,Pécsely,VE,46.95,17.7833,pécsely
8245,Vászoly,VE,46.9333,17.7667,vászoly
8246,Tótvázsony,VE,47.0167,17.7833,tótvázsony
8247,Hidegkút,VE,47.0,17.8333,hidegkút
8248,Veszprémfajsz,VE,47.0333,17.9,veszprémfajsz
8248,Nemesvámos,VE,47.05,17.8833,nemesvámos
8251,Zánka,VE,46.8833,17.6833,zánka
8252,Balatonszepezd,VE,46.85,17.6667,balatonszepezd
8253,Révfülöp,VE,46.8333,17.6333,révfülöp
8254,Kővágóörs,VE,46.85,17.6,kővágóörs
8254,Kékkút,VE,46.85,17.5667,kékkút
8255,Balatonrendes,VE,46.8333,17.5833,balatonrendes
8256,Salföld,VE,46.8333,17.55,salföld
8256,Ábrahámhegy,VE,46.8167,17.5667,ábrahámhegy
8257,Salföld,VE,46.8333,17.55,salföld
8258,Badacsonytomaj,VE,46.8,17.5167,badacsonytomaj
8261,Badacsonytomaj,VE,46.8,17.5167,badacsonytomaj
8263,Badacsonytördemic,VE,46.8167,17.4833,badacsonytördemic
8264,Szigliget,VE,46.8,17.4333,szigliget
8265,Hegymagas,VE,46.8333,17.4333,hegymagas
8271,Mencshely,VE,46.95,17.7,mencshely
8272,Balatoncsicsó,VE,46.9333,17.6667,balatoncsicsó
8272,Szentjakabfa,VE,46.9333,17.6667,szentjakabfa
8272,Szentantalfa,VE,46.9167,17.6833,szentantalfa
8272,Óbudavár,VE,46.9333,17.7,óbudavár
8272,Tagyon,VE,46.9,17.6833,tagyon
8273,Monoszló,VE,46.9,17.65,monoszló
8274,Köveskál,VE,46.8833,17.6,köveskál
8275,Balatonhenye,VE,46.9167,17.6167,balatonhenye
8281,Szentbékkálla,VE,46.8833,17.5667,szentbékkálla
8282,Mindszentkálla,VE,46.8667,17.55,mindszentkálla
8283,Káptalantóti,VE,46.85,17.5167,káptalantóti
8284,Kisapáti,VE,46.85,17.4667,kisapáti
8284,Nemesgulács,VE,46.8333,17.4833,nemesgulács
8286,Gyulakeszi,VE,46.8667,17.4833,gyulakeszi
8291,Vöröstó,VE,46.9667,17.7167,vöröstó
8291,Barnag,VE,46.9833,17.75,barnag
8291,Nagyvázsony,VE,46.9833,17.7,nagyvázsony
8291,Pula,VE,47.0,17.65,pula
8292,Öcs,VE,47.0,17.6167,öcs
8294,Kapolcs,VE,46.95,17.6167,kapolcs
8294,Vigántpetend,VE,46.9667,17.6333,vigántpetend
8295,Taliándörögd,VE,46.9833,17.5667,taliándörögd
8296,Hegyesd,VE,46.9167,17.5167,hegyesd
8296,Monostorapáti,VE,46.9167,17.5667,monostorapáti
8297,Hegyesd,VE,46.9167,17.5167,hegyesd
8300,Raposka,VE,46.8806,17.4362,raposka
8300,Tapolca,VE,46.8833,17.4333,tapolca
8301,Raposka,VE,46.85,17.4333,raposka
8302,Raposka,VE,46.85,17.4333,raposka
8303,Raposka,VE,46.85,17.4333,raposka
8308,Zalahaláp,VE,46.9167,17.4667,zalahaláp
8308,Sáska,VE,46.9333,17.4833,sáska
8311,Nemesvita,VE,46.8167,17.3667,nemesvita
8312,Balatonederics,VE,46.8167,17.3833,balatonederics
8313,Balatongyörök,ZA,46.75,17.3667,balatongyörök
8314,Vonyarcvashegy,ZA,46.75,17.3167,vonyarcvashegy
8315,Gyenesdiás,ZA,46.7667,17.2833,gyenesdiás
8316,Vállus,ZA,46.85,17.3,vállus
8316,Várvölgy,ZA,46.8667,17.3,várvölgy
8318,Lesencefalu,VE,46.85,17.35,lesencefalu
8318,Lesencetomaj,VE,46.85,17.3667,lesencetomaj
8319,Lesenceistvánd,VE,46.8667,17.35,lesenceistvánd
8321,Uzsa,VE,46.9,17.3333,uzsa
8330,Sümeg,VE,46.9833,17.2833,sümeg
8331,Sümeg,VE,46.9833,17.2833,sümeg
8341,Szalapa,ZA,46.9833,17.15,szalapa
8341,Kisvásárhely,ZA,47.0,17.2,kisvásárhely
8341,Mihályfa,ZA,46.9833,17.1833,mihályfa
8342,Óhíd,ZA,46.9667,17.1833,óhíd
8344,Hetyefő,VE,47.05,17.1667,hetyefő
8344,Zalaerdőd,VE,47.05,17.1333,zalaerdőd
8345,Dabronc,VE,47.0333,17.1667,dabronc
8346,Gógánfa,VE,47.0167,17.1833,gógánfa
8347,Ukk,VE,47.05,17.2167,ukk
8348,Megyer,VE,47.0667,17.2,megyer
8348,Zalameggyes,VE,47.0833,17.2167,zalameggyes
8348,Rigács,VE,47.0667,17.2167,rigács
8349,Zalagyömörő,VE,47.0167,17.2333,zalagyömörő
8351,Sümegprága,VE,46.9333,17.2833,sümegprága
8352,Bazsi,VE,46.9333,17.25,bazsi
8353,Vindornyalak,ZA,46.8833,17.2,vindornyalak
8353,Zalaszántó,ZA,46.8833,17.2333,zalaszántó
8354,Karmacs,ZA,46.8333,17.1833,karmacs
8354,Zalaköveskút,ZA,46.85,17.15,zalaköveskút
8354,Vindornyafok,ZA,46.85,17.1833,vindornyafok
8355,Vindornyaszőlős,ZA,46.9,17.1667,vindornyaszőlős
8356,Nagygörbő,ZA,46.9333,17.1833,nagygörbő
8356,Kisgörbő,ZA,46.9333,17.1667,kisgörbő
8357,Döbröce,ZA,46.9333,17.2,döbröce
8357,Sümegcsehi,ZA,46.95,17.2167,sümegcsehi
8360,Keszthely,ZA,46.7658,17.2574,keszthely
8361,Keszthely,ZA,46.7667,17.25,keszthely
8362,Keszthely,ZA,46.7667,17.25,keszthely
8363,Keszthely,ZA,46.7667,17.25,keszthely
8364,Keszthely,ZA,46.7667,17.25,keszthely
8371,Nemesbük,ZA,46.8167,17.15,nemesbük
8372,Cserszegtomaj,ZA,46.8,17.2167,cserszegtomaj
8373,Rezi,ZA,46.85,17.2167,rezi
8380,Felsőpáhok,ZA,46.7899,17.1838,felsőpáhok
8380,Hévíz,ZA,46.7833,17.1667,hévíz
8381,Felsőpáhok,ZA,46.7833,17.1667,felsőpáhok
8391,Sármellék,ZA,46.7167,17.1667,sármellék
8392,Zalavár,ZA,46.6667,17.1667,zalavár
8393,Szentgyörgyvár,ZA,46.75,17.1333,szentgyörgyvár
8394,Alsópáhok,ZA,46.7667,17.1833,alsópáhok
8400,Ajka,VE,47.1,17.5667,ajka
8401,Ajka,VE,47.1,17.5667,ajka
8403,Ajka,VE,47.1,17.5667,ajka
8404,Ajka,VE,47.1,17.5667,ajka
8408,Ajka,VE,47.1,17.5667,ajka
8409,Úrkút,VE,47.0833,17.6333,úrkút
8411,Úrkút,VE,47.0833,17.6333,úrkút
8412,Úrkút,VE,47.0833,17.6333,úrkút
8413,Eplény,VE,47.2167,17.9167,eplény
8414,Olaszfalu,VE,47.2333,17.9167,olaszfalu
8415,Nagyesztergár,VE,47.2833,17.9,nagyesztergár
8416,Dudar,VE,47.3,17.95,dudar
8417,Csetény,VE,47.3167,18.0,csetény
8418,Bakonyoszlop,VE,47.35,17.9333,bakonyoszlop
8419,Csesznek,VE,47.35,17.8833,csesznek
8420,Zirc,VE,47.2667,17.8667,zirc
8422,Bakonynána,VE,47.2833,17.9667,bakonynána
8423,Szápár,VE,47.3167,18.0333,szápár
8424,Jásd,VE,47.2833,18.0333,jásd
8425,Lókút,VE,47.2,17.8667,lókút
8426,Pénzesgyőr,VE,47.2333,17.7833,pénzesgyőr
8427,Bakonybél,VE,47.25,17.7333,bakonybél
8428,Borzavár,VE,47.3,17.8333,borzavár
8429,Porva,VE,47.3167,17.8167,porva
8430,Bakonyszentkirály,VE,47.3667,17.8833,bakonyszentkirály
8431,Bakonyszentlászló,VE,47.4,17.825,bakonyszentlászló
8432,Fenyőfő,VE,47.4,17.825,fenyőfő
8433,Bakonygyirót,VE,47.4,17.825,bakonygyirót
8434,Románd,VE,47.4,17.825,románd
8435,Gic,VE,47.4333,17.7667,gic
8436,Bakonypéterd,VE,47.4,17.825,bakonypéterd
8437,Lázi,VE,47.4,17.825,lázi
8438,Veszprémvarsány,VE,47.4,17.825,veszprémvarsány
8439,Sikátor,VE,47.4,17.825,sikátor
8440,Herend,VE,47.1333,17.75,herend
8441,Márkó,VE,47.1167,17.8167,márkó
8442,Hárskút,VE,47.1833,17.8167,hárskút
8443,Bánd,VE,47.1167,17.8,bánd
8444,Szentgál,VE,47.1167,17.7333,szentgál
8445,Csehbánya,VE,47.1833,17.6833,csehbánya
8445,Városlőd,VE,47.15,17.65,városlőd
8446,Kislőd,VE,47.15,17.6167,kislőd
8447,Kislőd,VE,47.15,17.6167,kislőd
8448,Kislőd,VE,47.15,17.6167,kislőd
8449,Magyarpolány,VE,47.1667,17.55,magyarpolány
8451,Magyarpolány,VE,47.1667,17.55,magyarpolány
8452,Halimba,VE,47.0333,17.5333,halimba
8452,Szőc,VE,47.0167,17.5167,szőc
8454,Nyirád,VE,47.0,17.45,nyirád
8455,Pusztamiske,VE,47.0667,17.45,pusztamiske
8456,Noszlop,VE,47.1833,17.4667,noszlop
8457,Bakonypölöske,VE,47.2,17.4833,bakonypölöske
8458,Oroszi,VE,47.15,17.4167,oroszi
8460,Devecser,VE,47.1,17.4333,devecser
8461,Devecser,VE,47.1,17.4333,devecser
8468,Kolontár,VE,47.0833,17.4833,kolontár
8469,Kamond,VE,47.1333,17.2,kamond
8471,Nemeshany,VE,47.0667,17.3667,nemeshany
8471,Káptalanfa,VE,47.0667,17.35,káptalanfa
8471,Bodorfa,VE,47.0667,17.3333,bodorfa
8473,Gyepükaján,VE,47.05,17.3333,gyepükaján
8474,Csabrendek,VE,47.0167,17.3,csabrendek
8475,Hosztót,VE,47.0833,17.25,hosztót
8475,Veszprémgalsa,VE,47.1,17.2833,veszprémgalsa
8475,Szentimrefalva,VE,47.0667,17.2833,szentimrefalva
8476,Zalaszegvár,VE,47.1,17.2333,zalaszegvár
8477,Apácatorna,VE,47.1167,17.3,apácatorna
8477,Tüskevár,VE,47.1167,17.3167,tüskevár
8477,Kisberzseny,VE,47.1,17.2667,kisberzseny
8478,Somlójenő,VE,47.1167,17.3667,somlójenő
8479,Borszörcsök,VE,47.1333,17.4,borszörcsök
8481,Somlóvásárhely,VE,47.1167,17.3833,somlóvásárhely
8482,Doba,VE,47.1667,17.3833,doba
8483,Kisszőlős,VE,47.2,17.3333,kisszőlős
8483,Somlószőlős,VE,47.1667,17.3667,somlószőlős
8484,Vid,VE,47.2167,17.35,vid
8484,Somlóvecse,VE,47.2,17.35,somlóvecse
8484,Nagyalásony,VE,47.2333,17.35,nagyalásony
8485,Dabrony,VE,47.25,17.3333,dabrony
8491,Karakószörcsök,VE,47.1333,17.2833,karakószörcsök
8492,Kerta,VE,47.1667,17.2833,kerta
8493,Iszkáz,VE,47.1667,17.3,iszkáz
8494,Kiscsősz,VE,47.2,17.2833,kiscsősz
8495,Csögle,VE,47.2167,17.2667,csögle
8496,Kispirit,VE,47.2,17.25,kispirit
8496,Nagypirit,VE,47.2,17.2333,nagypirit
8497,Adorjánháza,VE,47.2333,17.25,adorjánháza
8497,Egeralja,VE,47.2333,17.25,egeralja
8500,Pápa,VE,47.3333,17.4667,pápa
8501,Pápa,VE,47.3333,17.4667,pápa
8502,Pápa,VE,47.3333,17.4667,pápa
8503,Pápa,VE,47.3333,17.4667,pápa
8505,Pápa,VE,47.3333,17.4667,pápa
8510,Pápa,VE,47.3333,17.4667,pápa
8511,Pápa,VE,47.3333,17.4667,pápa
8512,Nyárád,VE,47.2833,17.3667,nyárád
8513,Mihályháza,VE,47.3,17.3333,mihályháza
8514,Mezőlak,VE,47.3333,17.3667,mezőlak
8515,Békás,VE,47.3333,17.35,békás
8516,Kemeneshőgyész,VE,47.35,17.3,kemeneshőgyész
8517,Magyargencs,VE,47.3667,17.3,magyargencs
8518,Kemenesszentpéter,VE,47.4333,17.2333,kemenesszentpéter
8521,Nagyacsád,VE,47.3667,17.3667,nagyacsád
8522,Nemesgörzsöny,VE,47.4,17.3667,nemesgörzsöny
8523,Egyházaskesző,VE,47.4167,17.3333,egyházaskesző
8523,Várkesző,VE,47.4333,17.3167,várkesző
8531,Várkesző,VE,47.4333,17.3167,várkesző
8532,Marcaltő,VE,47.4333,17.3667,marcaltő
8533,Malomsok,VE,47.45,17.4,malomsok
8534,Csikvánd,GS,47.4667,17.45,csikvánd
8541,Takácsi,VE,47.4,17.4833,takácsi
8542,Vaszar,VE,47.4,17.5167,vaszar
8543,Gecse,VE,47.45,17.5333,gecse
8544,Szerecseny,GS,47.4667,17.55,szerecseny
8545,Gyarmat,GS,47.4667,17.5,gyarmat
8551,Nagygyimót,VE,47.3333,17.55,nagygyimót
8552,Vanyola,VE,47.3833,17.5833,vanyola
8553,Lovászpatona,VE,47.4333,17.6333,lovászpatona
8554,Nagydém,VE,47.4333,17.6833,nagydém
8555,Bakonytamási,VE,47.4167,17.7333,bakonytamási
8556,Pápateszér,VE,47.3833,17.7,pápateszér
8557,Bakonyság,VE,47.4,17.65,bakonyság
8557,Bakonyszentiván,VE,47.4,17.6667,bakonyszentiván
8558,Csót,VE,47.3667,17.6167,csót
8561,Adásztevel,VE,47.3,17.55,adásztevel
8562,Nagytevel,VE,47.3,17.5667,nagytevel
8563,Homokbödöge,VE,47.3,17.6,homokbödöge
8564,Ugod,VE,47.3167,17.6,ugod
8565,Béb,VE,47.35,17.6,béb
8571,Bakonykoppány,VE,47.3333,17.6833,bakonykoppány
8572,Bakonyszücs,VE,47.3333,17.6833,bakonyszücs
8581,Németbánya,VE,47.2167,17.65,németbánya
8581,Bakonyjákó,VE,47.2167,17.6,bakonyjákó
8582,Farkasgyepű,VE,47.2,17.6333,farkasgyepű
8591,Farkasgyepű,VE,47.2,17.6333,farkasgyepű
8591,Nóráp,VE,47.2667,17.4667,nóráp
8592,Dáka,VE,47.2833,17.4333,dáka
8593,Pápadereske,VE,47.3,17.4,pápadereske
8594,Pápasalamon,VE,47.2333,17.4333,pápasalamon
8595,Kup,VE,47.25,17.4667,kup
8596,Pápakovácsi,VE,47.2667,17.4833,pápakovácsi
8597,Ganna,VE,47.2333,17.5333,ganna
8597,Döbrönte,VE,47.2333,17.55,döbrönte
8598,Döbrönte,VE,47.2333,17.55,döbrönte
8600,Siófok,SO,46.9058,18.0485,siófok
8601,Siófok,SO,46.9,18.05,siófok
8602,Siófok,SO,46.9,18.05,siófok
8604,Siófok,SO,46.9,18.05,siófok
8609,Siófok,SO,46.9,18.05,siófok
8611,Siófok,SO,46.9,18.05,siófok
8612,Nyim,SO,46.8,18.1167,nyim
8613,Balatonendréd,SO,46.8333,17.9833,balatonendréd
8614,Bálványos,SO,46.7833,17.95,bálványos
8617,Kőröshegy,SO,46.8333,17.9,kőröshegy
8618,Kereki,SO,46.8,17.9167,kereki
8619,Pusztaszemes,SO,46.7667,17.9333,pusztaszemes
8621,Zamárdi,SO,46.8833,17.95,zamárdi
8622,Szántód,SO,46.8667,17.9,szántód
8623,Balatonföldvár,SO,46.85,17.8833,balatonföldvár
8624,Balatonszárszó,SO,46.8333,17.8333,balatonszárszó
8625,Szólád,SO,46.7833,17.85,szólád
8626,Teleki,SO,46.7667,17.8333,teleki
8627,Kötcse,SO,46.75,17.8667,kötcse
8628,Nagycsepely,SO,46.75,17.8333,nagycsepely
8630,Balatonboglár,SO,46.7667,17.6667,balatonboglár
8631,Balatonboglár,SO,46.7667,17.6667,balatonboglár
8634,Balatonboglár,SO,46.7667,17.6667,balatonboglár
8635,Ordacsehi,SO,46.7333,17.6167,ordacsehi
8636,Balatonszemes,SO,46.8167,17.7833,balatonszemes
8637,Balatonőszöd,SO,46.8,17.8,balatonőszöd
8638,Balatonlelle,SO,46.7833,17.6833,balatonlelle
8640,Fonyód,SO,46.7333,17.55,fonyód
8641,Birján,SO,46.7111,17.4194,birján
8642,Birján,SO,46.7111,17.4194,birján
8644,Birján,SO,46.7111,17.4194,birján
8646,Balatonfenyves,SO,46.7167,17.5,balatonfenyves
8647,Balatonmáriafürdő,SO,46.7,17.3833,balatonmáriafürdő
8647,Balatonkeresztúr,SO,46.7,17.3833,balatonkeresztúr
8648,Balatonkeresztúr,SO,46.7,17.3833,balatonkeresztúr
8649,Balatonberény,SO,46.7167,17.3167,balatonberény
8651,Balatonszabadi,SO,46.8833,18.1333,balatonszabadi
8652,Siójut,SO,46.8833,18.1333,siójut
8653,Ádánd,SO,46.8667,18.1667,ádánd
8654,Ságvár,SO,46.8333,18.1167,ságvár
8655,Som,SO,46.8,18.15,som
8656,Nagyberény,SO,46.8,18.1667,nagyberény
8658,Bábonymegyer,SO,46.75,18.1167,bábonymegyer
8660,Tab,SO,46.7333,18.0333,tab
8660,Zala,SO,46.7333,18.0,zala
8660,Torvaj,SO,46.7667,18.05,torvaj
8660,Sérsekszőlős,SO,46.7667,18.0167,sérsekszőlős
8660,Lulla,SO,46.7833,18.0333,lulla
8666,Bedegkér,SO,46.65,18.0667,bedegkér
8666,Somogyegres,SO,46.6667,18.0333,somogyegres
8667,Kánya,SO,46.7,18.0667,kánya
8668,Tengőd,SO,46.7,18.1,tengőd
8669,Miklósi,SO,46.65,18.0,miklósi
8671,Kapoly,SO,46.7333,17.9667,kapoly
8672,Zics,SO,46.6833,17.9833,zics
8673,Somogymeggyes,SO,46.7167,17.9167,somogymeggyes
8674,Nágocs,SO,46.6667,17.9667,nágocs
8675,Andocs,SO,46.65,17.9333,andocs
8676,Karád,SO,46.6833,17.85,karád
8681,Visz,SO,46.7333,17.7833,visz
8681,Látrány,SO,46.75,17.75,látrány
8683,Somogytúr,SO,46.7,17.7667,somogytúr
8684,Somogybabod,SO,46.6667,17.7833,somogybabod
8685,Gamás,SO,46.6167,17.7667,gamás
8691,Gamás,SO,46.6167,17.7667,gamás
8692,Gyugy,SO,46.6833,17.6833,gyugy
8692,Szőlősgyörök,SO,46.7167,17.6833,szőlősgyörök
8693,Kisberény,SO,46.6333,17.6667,kisberény
8693,Lengyeltóti,SO,46.6667,17.65,lengyeltóti
8694,Hács,SO,46.65,17.6833,hács
8695,Buzsák,SO,46.65,17.5833,buzsák
8696,Táska,SO,46.6167,17.5333,táska
8697,Öreglak,SO,46.6,17.6167,öreglak
8698,Pamuk,SO,46.55,17.65,pamuk
8698,Somogyvár,SO,46.5833,17.6667,somogyvár
8699,Somogyvámos,SO,46.5667,17.6833,somogyvámos
8700,Csömend,SO,46.5667,17.5,csömend
8700,Marcali,SO,46.5833,17.4167,marcali
8701,Csömend,SO,46.5667,17.5,csömend
8705,Somogyszentpál,SO,46.65,17.4833,somogyszentpál
8706,Nikla,SO,46.5833,17.5167,nikla
8707,Pusztakovácsi,SO,46.5333,17.5833,pusztakovácsi
8707,Libickozma,SO,46.5167,17.5333,libickozma
8708,Somogyfajsz,SO,46.5167,17.5667,somogyfajsz
8709,Somogyfajsz,SO,46.5167,17.5667,somogyfajsz
8710,Balatonszentgyörgy,SO,46.6833,17.3,balatonszentgyörgy
8711,Vörs,SO,46.6667,17.2667,vörs
8712,Balatonújlak,SO,46.6667,17.3833,balatonújlak
8713,Kéthely,SO,46.65,17.4,kéthely
8714,Kéthely,SO,46.65,17.4,kéthely
8714,Kelevíz,SO,46.5167,17.4167,kelevíz
8716,Gadány,SO,46.5167,17.4,gadány
8716,Mesztegnyő,SO,46.5,17.4333,mesztegnyő
8716,Hosszúvíz,SO,46.5167,17.45,hosszúvíz
8717,Szenyér,SO,46.4667,17.3833,szenyér
8717,Nemeskisfalud,SO,46.4333,17.3667,nemeskisfalud
8718,Tapsony,SO,46.4667,17.3333,tapsony
8719,Böhönye,SO,46.4,17.4,böhönye
8721,Vése,SO,46.4167,17.3,vése
8722,Nemesdéd,SO,46.4333,17.25,nemesdéd
8723,Varászló,SO,46.4333,17.2167,varászló
8724,Inke,SO,46.4,17.2,inke
8725,Iharosberény,SO,46.3667,17.1167,iharosberény
8726,Somogycsicsó,SO,46.3167,17.1333,somogycsicsó
8726,Iharos,SO,46.3333,17.1,iharos
8728,Pogányszentpéter,SO,46.3833,17.0667,pogányszentpéter
8731,Hollád,SO,46.6333,17.3167,hollád
8731,Tikos,SO,46.6333,17.3,tikos
8732,Főnyed,SO,46.6333,17.2667,főnyed
8732,Sávoly,SO,46.5833,17.2667,sávoly
8732,Szegerdő,SO,46.6333,17.2833,szegerdő
8733,Somogysámson,SO,46.5833,17.3,somogysámson
8734,Somogyzsitfa,SO,46.5667,17.3,somogyzsitfa
8735,Csákány,SO,46.5333,17.2833,csákány
8736,Szőkedencs,SO,46.55,17.25,szőkedencs
8737,Somogysimonyi,SO,46.4833,17.2167,somogysimonyi
8738,Nemesvid,SO,46.5,17.2667,nemesvid
8739,Nagyszakácsi,SO,46.4833,17.3167,nagyszakácsi
8741,Zalaapáti,ZA,46.7333,17.1167,zalaapáti
8741,Bókaháza,ZA,46.7667,17.1,bókaháza
8742,Esztergályhorváti,ZA,46.7,17.1167,esztergályhorváti
8743,Zalaszabar,ZA,46.65,17.1167,zalaszabar
8744,Orosztony,ZA,46.6333,17.0667,orosztony
8745,Kerecseny,ZA,46.6167,17.05,kerecseny
8746,Nagyrada,ZA,46.6167,17.1167,nagyrada
8747,Garabonc,ZA,46.5833,17.1333,garabonc
8747,Zalamerenye,ZA,46.5667,17.1,zalamerenye
8749,Zalakaros,ZA,46.5667,17.1333,zalakaros
8751,Zalakomár,ZA,46.55,17.1833,zalakomár
8752,Zalakomár,ZA,46.55,17.1833,zalakomár
8753,Balatonmagyaród,ZA,46.6,17.1833,balatonmagyaród
8754,Galambok,ZA,46.5167,17.1333,galambok
8756,Kisrécse,ZA,46.5,17.0667,kisrécse
8756,Csapi,ZA,46.5333,17.1,csapi
8756,Zalasárszeg,ZA,46.5,17.0833,zalasárszeg
8756,Nagyrécse,ZA,46.4833,17.05,nagyrécse
8761,Zalaigrice,ZA,46.75,17.0167,zalaigrice
8761,Pacsa,ZA,46.7167,17.0167,pacsa
8762,Gétye,ZA,46.7667,17.0667,gétye
8762,Szentpéterúr,ZA,46.7667,17.0333,szentpéterúr
8764,Dióskál,ZA,46.6667,17.05,dióskál
8764,Zalaszentmárton,ZA,46.7,17.0667,zalaszentmárton
8765,Egeraracsa,ZA,46.6667,17.0833,egeraracsa
8767,Pötréte,ZA,46.6833,16.95,pötréte
8767,Felsőrajk,ZA,46.6833,17.0,felsőrajk
8767,Alsórajk,ZA,46.65,17.0,alsórajk
8771,Hahót,ZA,46.6425,16.9236,hahót
8772,Zalaszentbalázs,ZA,46.5878,16.9186,zalaszentbalázs
8772,Börzönce,ZA,46.5833,16.9,börzönce
8773,Pölöskefő,ZA,46.6,16.95,pölöskefő
8773,Kacorlak,ZA,46.5667,16.9667,kacorlak
8774,Kilimán,ZA,46.6333,17.0,kilimán
8774,Gelse,ZA,46.6,17.0,gelse
8774,Gelsesziget,ZA,46.5667,17.0,gelsesziget
8776,Magyarszerdahely,ZA,46.55,16.9333,magyarszerdahely
8776,Bocska,ZA,46.55,16.9167,bocska
8776,Magyarszentmiklós,ZA,46.5344,16.9383,magyarszentmiklós
8777,Fűzvölgy,ZA,46.5167,16.95,fűzvölgy
8777,Homokkomárom,ZA,46.5,16.9167,homokkomárom
8777,Hosszúvölgy,ZA,46.5167,16.9333,hosszúvölgy
8778,Újudvar,ZA,46.5333,17.0,újudvar
8782,Ligetfalva,ZA,46.8333,17.0667,ligetfalva
8782,Zalacsány,ZA,46.8,17.1167,zalacsány
8782,Tilaj,ZA,46.8,17.05,tilaj
8784,Kehidakustány,ZA,46.85,17.1,kehidakustány
8785,Kallósd,ZA,46.8667,17.0667,kallósd
8785,Kehidakustány,ZA,46.85,17.1,kehidakustány
8788,Zalaszentlászló,ZA,46.8833,17.1167,zalaszentlászló
8788,Sénye,ZA,46.9,17.1333,sénye
8789,Sénye,ZA,46.9,17.1333,sénye
8790,Zalaszentgrót,ZA,46.95,17.0833,zalaszentgrót
8792,Zalavég,ZA,47.0,17.0333,zalavég
8793,Zalavég,ZA,47.0,17.0333,zalavég
8795,Zalavég,ZA,47.0,17.0333,zalavég
8796,Türje,ZA,46.9833,17.1,türje
8797,Batyk,ZA,46.9833,17.0333,batyk
8798,Zalabér,ZA,46.9667,17.0333,zalabér
8799,Dötk,ZA,46.95,17.0167,dötk
8799,Pakod,ZA,46.9667,17.0,pakod
8800,Nagykanizsa,ZA,46.4618,17.0102,nagykanizsa
8801,Nagykanizsa,ZA,46.5142,16.9717,nagykanizsa
8802,Nagykanizsa,ZA,46.5142,16.9717,nagykanizsa
8803,Nagykanizsa,ZA,46.5142,16.9717,nagykanizsa
8804,Nagykanizsa,ZA,46.5142,16.9717,nagykanizsa
8808,Nagykanizsa,ZA,46.5142,16.9717,nagykanizsa
8809,Nagykanizsa,ZA,46.5142,16.9717,nagykanizsa
8821,Nagybakónak,ZA,46.55,17.05,nagybakónak
8822,Zalaújlak,ZA,46.55,17.0833,zalaújlak
8824,Sand,ZA,46.4167,17.1333,sand
8825,Miháld,ZA,46.45,17.1333,miháld
8825,Pat,ZA,46.4333,17.1833,pat
8827,Zalaszentjakab,ZA,46.4833,17.1333,zalaszentjakab
8831,Zalaszentjakab,ZA,46.4833,17.1333,zalaszentjakab
8831,Liszó,ZA,46.3667,17.0,liszó
8834,Murakeresztúr,ZA,46.3522,16.8781,murakeresztúr
8835,Fityeház,ZA,46.3667,16.9167,fityeház
8840,Csurgónagymarton,SO,46.3,17.0833,csurgónagymarton
8840,Csurgó,SO,46.2667,17.1,csurgó
8849,Szenta,SO,46.25,17.1833,szenta
8851,Gyékényes,SO,46.2378,17.0053,gyékényes
8852,Zákány,SO,46.2744,16.9511,zákány
8852,Gyékényes,SO,46.2378,17.0053,gyékényes
8853,Zákányfalu,SO,46.2858,16.9926,zákányfalu
8854,Őrtilos,SO,46.2797,16.9294,őrtilos
8855,Belezna,ZA,46.3278,16.94,belezna
8856,Nemespátró,ZA,46.3167,17.0167,nemespátró
8856,Surd,ZA,46.3192,16.9706,surd
8857,Nemespátró,ZA,46.3167,17.0167,nemespátró
8858,Somogybükkösd,SO,46.3,17.0,somogybükkösd
8858,Porrogszentkirály,SO,46.2833,17.05,porrogszentkirály
8858,Porrogszentpál,SO,46.2833,17.0167,porrogszentpál
8858,Porrog,SO,46.2833,17.0333,porrog
8861,Szepetnek,ZA,46.4308,16.905,szepetnek
8862,Semjénháza,ZA,46.4,16.85,semjénháza
8863,Molnári,ZA,46.3833,16.8333,molnári
8864,Tótszerdahely,ZA,46.4,16.8,tótszerdahely
8865,Tótszentmárton,ZA,46.4167,16.8167,tótszentmárton
8866,Becsehely,ZA,46.4458,16.7928,becsehely
8866,Petrivente,ZA,46.4333,16.85,petrivente
8868,Kistolmács,ZA,46.4833,16.75,kistolmács
8868,Letenye,ZA,46.4286,16.7306,letenye
8868,Zajk,ZA,46.4833,16.7167,zajk
8868,Murarátka,ZA,46.4531,16.685,murarátka
8872,Szentmargitfalva,ZA,46.5,16.6667,szentmargitfalva
8872,Muraszemenye,ZA,46.4667,16.6167,muraszemenye
8873,Csörnyeföld,ZA,46.5008,16.6319,csörnyeföld
8874,Kerkaszentkirály,ZA,46.5,16.5833,kerkaszentkirály
8874,Dobri,ZA,46.5167,16.5833,dobri
8876,Tormafölde,ZA,46.5386,16.5944,tormafölde
8877,Tornyiszentmiklós,ZA,46.515,16.5578,tornyiszentmiklós
8878,Lovászi,ZA,46.55,16.5667,lovászi
8879,Kerkateskánd,ZA,46.5833,16.5833,kerkateskánd
8879,Szécsisziget,ZA,46.5667,16.6,szécsisziget
8881,Sormás,ZA,46.45,16.9167,sormás
8882,Eszteregnye,ZA,46.4667,16.8833,eszteregnye
8883,Rigyác,ZA,46.4667,16.8667,rigyác
8885,Borsfa,ZA,46.5167,16.7833,borsfa
8885,Valkonya,ZA,46.5,16.8167,valkonya
8886,Oltárc,ZA,46.5272,16.8372,oltárc
8887,Bázakerettye,ZA,46.5233,16.7294,bázakerettye
8887,Lasztonya,ZA,46.5667,16.7167,lasztonya
8888,Lispeszentadorján,ZA,46.5333,16.7,lispeszentadorján
8888,Kiscsehi,ZA,46.5167,16.6667,kiscsehi
8888,Maróc,ZA,46.55,16.6667,maróc
8891,Bánokszentgyörgy,ZA,46.5456,16.7872,bánokszentgyörgy
8891,Várfölde,ZA,46.5667,16.7667,várfölde
8893,Bucsuta,ZA,46.5667,16.85,bucsuta
8893,Szentliszló,ZA,46.5756,16.8239,szentliszló
8895,Pusztamagyaród,ZA,46.6,16.8333,pusztamagyaród
8896,Pusztaszentlászló,ZA,46.6369,16.8442,pusztaszentlászló
8897,Söjtör,ZA,46.6672,16.8583,söjtör
8900,Zalaegerszeg,ZA,46.84,16.8439,zalaegerszeg
8901,Zalaegerszeg,ZA,46.84,16.8439,zalaegerszeg
8902,Zalaegerszeg,ZA,46.84,16.8439,zalaegerszeg
8903,Zalaegerszeg,ZA,46.84,16.8439,zalaegerszeg
8904,Zalaegerszeg,ZA,46.84,16.8439,zalaegerszeg
8905,Zalaegerszeg,ZA,46.84,16.8439,zalaegerszeg
8906,Zalaegerszeg,ZA,46.84,16.8439,zalaegerszeg
8907,Zalaegerszeg,ZA,46.84,16.8439,zalaegerszeg
8908,Zalaegerszeg,ZA,46.84,16.8439,zalaegerszeg
8909,Zalaegerszeg,ZA,46.84,16.8439,zalaegerszeg
8911,Kiskutas,ZA,46.9167,16.8,kiskutas
8911,Nagykutas,ZA,46.9236,16.8078,nagykutas
8912,Kispáli,ZA,46.9167,16.8167,kispáli
8912,Nagypáli,ZA,46.9167,16.85,nagypáli
8913,Egervár,ZA,46.9336,16.8553,egervár
8913,Lakhegy,ZA,46.9333,16.8667,lakhegy
8913,Gősfa,ZA,46.9667,16.8667,gősfa
8914,Vasboldogasszony,ZA,46.95,16.8833,vasboldogasszony
8915,Nemesrádó,ZA,46.7833,17.0,nemesrádó
8917,Dobronhegy,ZA,46.8167,16.75,dobronhegy
8917,Pálfiszeg,ZA,46.7833,16.7333,pálfiszeg
8917,Milejszeg,ZA,46.8,16.75,milejszeg
8918,Csonkahegyhát,ZA,46.7983,16.7242,csonkahegyhát
8918,Németfalu,ZA,46.8208,16.6736,németfalu
8919,Kustánszeg,ZA,46.7839,16.6875,kustánszeg
8921,Zalaszentiván,ZA,46.8886,16.8994,zalaszentiván
8921,Zalaszentlőrinc,ZA,46.9167,16.8833,zalaszentlőrinc
8921,Alibánfa,ZA,46.8833,16.9333,alibánfa
8921,Pethőhenye,ZA,46.8833,16.9167,pethőhenye
8923,Nemesapáti,ZA,46.8667,16.95,nemesapáti
8924,Alsónemesapáti,ZA,46.8481,16.935,alsónemesapáti
8925,Nemessándorháza,ZA,46.7833,16.95,nemessándorháza
8925,Búcsúszentlászló,ZA,46.7861,16.9314,búcsúszentlászló
8925,Nemesszentandrás,ZA,46.7667,16.95,nemesszentandrás
8925,Kisbucsa,ZA,46.8167,16.95,kisbucsa
8925,Nemeshetés,ZA,46.8,16.9167,nemeshetés
8929,Pölöske,ZA,46.75,16.9333,pölöske
8931,Vöckönd,ZA,46.8833,16.95,vöckönd
8931,Kemendollár,ZA,46.9,16.9667,kemendollár
8932,Gyűrűs,ZA,46.8833,17.0,gyűrűs
8932,Pókaszepetk,ZA,46.9233,16.9683,pókaszepetk
8932,Zalaistvánd,ZA,46.9167,16.9833,zalaistvánd
8934,Bezeréd,ZA,46.8667,17.0167,bezeréd
8935,Orbányosfa,ZA,46.85,16.9833,orbányosfa
8935,Almásháza,ZA,46.85,17.05,almásháza
8935,Nagykapornak,ZA,46.8167,17.0,nagykapornak
8935,Misefa,ZA,46.8,16.9833,misefa
8935,Padár,ZA,46.85,17.0167,padár
8936,Zalaszentmihály,ZA,46.725,16.9494,zalaszentmihály
8943,Bocfölde,ZA,46.7833,16.8333,bocfölde
8943,Csatár,ZA,46.7833,16.8833,csatár
8944,Sárhida,ZA,46.75,16.85,sárhida
8945,Bak,ZA,46.7292,16.8464,bak
8946,Tófej,ZA,46.6703,16.8056,tófej
8946,Baktüttös,ZA,46.7,16.8167,baktüttös
8946,Pusztaederics,ZA,46.65,16.8,pusztaederics
8947,Szentkozmadombja,ZA,46.6833,16.7667,szentkozmadombja
8947,Zalatárnok,ZA,46.7019,16.7628,zalatárnok
8948,Barlahida,ZA,46.7158,16.7025,barlahida
8948,Nova,ZA,46.6839,16.6839,nova
8949,Mikekarácsonyfa,ZA,46.65,16.7,mikekarácsonyfa
8951,Gutorfölde,ZA,46.6414,16.7383,gutorfölde
8951,Csertalakos,ZA,46.65,16.7,csertalakos
8953,Szentpéterfölde,ZA,46.6167,16.7667,szentpéterfölde
8954,Ortaháza,ZA,46.6167,16.6833,ortaháza
8956,Kányavár,ZA,46.5667,16.6833,kányavár
8956,Pördefölde,ZA,46.5833,16.7167,pördefölde
8956,Páka,ZA,46.5894,16.6506,páka
8957,Csömödér,ZA,46.6083,16.6442,csömödér
8957,Kissziget,ZA,46.6167,16.6667,kissziget
8957,Hernyék,ZA,46.65,16.65,hernyék
8957,Zebecke,ZA,46.65,16.6833,zebecke
8958,Iklódbördőce,ZA,46.6,16.6167,iklódbördőce
8960,Lenti,ZA,46.6217,16.5392,lenti
8961,Lenti,ZA,46.6217,16.5392,lenti
8966,Lenti,ZA,46.6217,16.5392,lenti
8969,Bödeháza,ZA,46.65,16.4167,bödeháza
8969,Zalaszombatfa,ZA,46.6333,16.45,zalaszombatfa
8969,Gáborjánháza,ZA,46.6333,16.4167,gáborjánháza
8969,Szijártóháza,ZA,46.6333,16.45,szijártóháza
8971,Zalabaksa,ZA,46.6997,16.5522,zalabaksa
8971,Kerkabarabás,ZA,46.6833,16.5667,kerkabarabás
8973,Felsőszenterzsébet,ZA,46.75,16.45,felsőszenterzsébet
8973,Magyarföld,ZA,46.7833,16.4167,magyarföld
8973,Alsószenterzsébet,ZA,46.75,16.4833,alsószenterzsébet
8973,Ramocsa,ZA,46.7833,16.45,ramocsa
8973,Csesztreg,ZA,46.7136,16.5203,csesztreg
8973,Kerkafalva,ZA,46.7667,16.5,kerkafalva
8973,Kerkakutas,ZA,46.7667,16.5,kerkakutas
8975,Szentgyörgyvölgy,ZA,46.7244,16.4156,szentgyörgyvölgy
8976,Nemesnép,ZA,46.7006,16.4625,nemesnép
8976,Márokföld,ZA,46.7167,16.45,márokföld
8977,Baglad,ZA,46.6833,16.4833,baglad
8977,Lendvajakabfa,ZA,46.6833,16.45,lendvajakabfa
8977,Resznek,ZA,46.6619,16.4792,resznek
8978,Belsősárd,ZA,46.65,16.4833,belsősárd
8978,Lendvadedes,ZA,46.5833,16.5167,lendvadedes
8978,Gosztola,ZA,46.5833,16.5333,gosztola
8978,Rédics,ZA,46.6142,16.4775,rédics
8978,Külsősárd,ZA,46.6333,16.5,külsősárd
8981,Gellénháza,ZA,46.7614,16.7878,gellénháza
8981,Lickóvadamos,ZA,46.75,16.7667,lickóvadamos
8983,Babosdöbréte,ZA,46.8167,16.7833,babosdöbréte
8983,Nagylengyel,ZA,46.7833,16.7667,nagylengyel
8983,Ormándlak,ZA,46.75,16.75,ormándlak
8984,Iborfia,ZA,46.7333,16.75,iborfia
8984,Petrikeresztúr,ZA,46.7333,16.7333,petrikeresztúr
8984,Gombosszeg,ZA,46.75,16.7333,gombosszeg
8985,Becsvölgye,ZA,46.7667,16.7,becsvölgye
8986,Pusztaapáti,ZA,46.7667,16.6167,pusztaapáti
8986,Szilvágy,ZA,46.7333,16.6333,szilvágy
8986,Pórszombat,ZA,46.7264,16.5781,pórszombat
8988,Kálócfa,ZA,46.75,16.5667,kálócfa
8988,Kozmadombja,ZA,46.7667,16.55,kozmadombja
8989,Dobronhegy,ZA,46.8167,16.75,dobronhegy
8990,Pálfiszeg,ZA,46.7833,16.7333,pálfiszeg
8991,Hottó,ZA,46.85,16.75,hottó
8991,Teskánd,ZA,46.8469,16.7758,teskánd
8991,Böde,ZA,46.8375,16.7206,böde
8992,Zalaboldogfa,ZA,46.9,16.7667,zalaboldogfa
8992,Boncodfölde,ZA,46.8667,16.7333,boncodfölde
8992,Bagod,ZA,46.8781,16.7444,bagod
8992,Hagyárosbörönd,ZA,46.9,16.7167,hagyárosbörönd
8994,Zalaszentgyörgy,ZA,46.8667,16.7167,zalaszentgyörgy
8994,Kávás,ZA,46.8667,16.7167,kávás
8995,Keménfa,ZA,46.8333,16.6333,keménfa
8995,Salomvár,ZA,46.8489,16.6633,salomvár
8996,Zalacséb,ZA,46.8603,16.6639,zalacséb
8997,Zalaháshágy,ZA,46.89,16.6328,zalaháshágy
8998,Vaspör,ZA,46.9161,16.65,vaspör
8998,Ozmánbük,ZA,46.9167,16.6833,ozmánbük
8999,Csöde,ZA,46.8167,16.5333,csöde
8999,Zalalövő,ZA,46.8483,16.5936,zalalövő
9000,Győr,GS,47.6076,17.7819,győr
9001,Győr,GS,47.6076,17.7819,győr
9002,Győr,GS,47.6076,17.7819,győr
9003,Győr,GS,47.6076,17.7819,győr
9004,Győr,GS,47.6076,17.7819,győr
9005,Győr,GS,47.6076,17.7819,győr
9006,Győr,GS,47.6076,17.7819,győr
9007,Győr,GS,47.6076,17.7819,győr
9008,Győr,GS,47.6076,17.7819,győr
9009,Győr,GS,47.6076,17.7819,győr
9010,Győr,GS,47.6076,17.7819,győr
9011,Győr,GS,47.6076,17.7819,győr
9012,Győr,GS,47.6076,17.7819,győr
9013,Győr,GS,47.6076,17.7819,győr
9019,Győr,GS,47.6076,17.7819,győr
9020,Győr,GS,47.6076,17.7819,győr
9021,Győr,GS,47.6076,17.7819,győr
9022,Győr,GS,47.6076,17.7819,győr
9023,Győr,GS,47.6076,17.7819,győr
9024,Győr,GS,47.6076,17.7819,győr
9025,Győr,GS,47.6076,17.7819,győr
9026,Győr,GS,47.6076,17.7819,győr
9027,Győr,GS,47.6076,17.7819,győr
9028,Győr,GS,47.6076,17.7819,győr
9029,Győr,GS,47.6076,17.7819,győr
9030,Győr,GS,47.6076,17.7819,győr
9061,Vámosszabadi,GS,47.7667,17.65,vámosszabadi
9062,Vének,GS,47.7333,17.7667,vének
9062,Kisbajcs,GS,47.75,17.6833,kisbajcs
9063,Nagybajcs,GS,47.7667,17.7,nagybajcs
9071,Gönyű,GS,47.7333,17.8333,gönyű
9072,Nagyszentjános,GS,47.7167,17.8833,nagyszentjános
9073,Bőny,GS,47.65,17.8667,bőny
9074,Rétalap,GS,47.6,17.9167,rétalap
9081,Győrújbarát,GS,47.6,17.65,győrújbarát
9082,Nyúl,GS,47.5833,17.6833,nyúl
9083,Écs,GS,47.55,17.7167,écs
9084,Győrság,GS,47.5667,17.75,győrság
9085,Pázmándfalu,GS,47.5667,17.7833,pázmándfalu
9086,Töltéstava,GS,47.6167,17.7333,töltéstava
9088,Bakonypéterd,VE,47.4,17.825,bakonypéterd
9089,Lázi,VE,47.4,17.825,lázi
9090,Pannonhalma,GS,47.55,17.75,pannonhalma
9091,Ravazd,GS,47.5167,17.75,ravazd
9092,Tarjánpuszta,GS,47.5,17.7833,tarjánpuszta
9093,Győrasszonyfa,GS,47.5,17.8,győrasszonyfa
9094,Tápszentmiklós,GS,47.5,17.85,tápszentmiklós
9095,Táp,GS,47.5167,17.8333,táp
9096,Nyalka,GS,47.55,17.8167,nyalka
9097,Mezőörs,GS,47.5667,17.8833,mezőörs
9098,Mezőörs,GS,47.5667,17.8833,mezőörs
9099,Pér,GS,47.6167,17.8,pér
9100,Tét,GS,47.5167,17.5167,tét
9111,Tényő,GS,47.5333,17.65,tényő
9112,Sokorópátka,GS,47.4833,17.7,sokorópátka
9113,Koroncó,GS,47.6,17.5333,koroncó
9121,Győrszemere,GS,47.55,17.5667,győrszemere
9122,Felpéc,GS,47.5167,17.6,felpéc
9123,Kajárpéc,GS,47.4833,17.6333,kajárpéc
9124,Gyömöre,GS,47.5,17.5667,gyömöre
9125,Szerecseny,GS,47.4667,17.55,szerecseny
9126,Gyarmat,GS,47.4667,17.5,gyarmat
9127,Csikvánd,GS,47.4667,17.45,csikvánd
9131,Mórichida,GS,47.5167,17.4167,mórichida
9132,Árpás,GS,47.5167,17.4,árpás
9133,Rábaszentmiklós,GS,47.5333,17.4167,rábaszentmiklós
9133,Kisbabot,GS,47.55,17.4167,kisbabot
9134,Bodonhely,GS,47.5667,17.4,bodonhely
9135,Rábaszentmihály,GS,47.5833,17.4333,rábaszentmihály
9136,Rábacsécsény,GS,47.5833,17.4333,rábacsécsény
9136,Mérges,GS,47.6,17.45,mérges
9141,Ikrény,GS,47.65,17.5333,ikrény
9142,Rábapatona,GS,47.6333,17.4833,rábapatona
9143,Enese,GS,47.65,17.4167,enese
9144,Kóny,GS,47.6333,17.3667,kóny
9145,Bágyogszovát,GS,47.5833,17.3667,bágyogszovát
9146,Rábapordány,GS,47.5667,17.3333,rábapordány
9147,Dör,GS,47.6,17.3,dör
9151,Abda,GS,47.7,17.55,abda
9152,Börcs,GS,47.6833,17.5,börcs
9153,Öttevény,GS,47.7333,17.4833,öttevény
9154,Mosonszentmiklós,GS,47.7333,17.3833,mosonszentmiklós
9155,Lébény,GS,47.7333,17.3833,lébény
9161,Győrsövényház,GS,47.7,17.3667,győrsövényház
9162,Bezi,GS,47.6667,17.4,bezi
9163,Fehértó,GS,47.6833,17.35,fehértó
9164,Markotabödöge,GS,47.6833,17.3167,markotabödöge
9165,Cakóháza,GS,47.7,17.2833,cakóháza
9165,Rábcakapi,GS,47.7,17.2833,rábcakapi
9165,Tárnokréti,GS,47.7167,17.3167,tárnokréti
9167,Bősárkány,GS,47.6833,17.25,bősárkány
9168,Acsalag,GS,47.6833,17.2,acsalag
9169,Maglóca,GS,47.6667,17.2833,maglóca
9169,Barbacs,GS,47.65,17.3,barbacs
9171,Győrújfalu,GS,47.7167,17.6167,győrújfalu
9172,Győrzámoly,GS,47.7333,17.5833,győrzámoly
9173,Győrladamér,GS,47.75,17.5667,győrladamér
9174,Dunaszeg,GS,47.7667,17.55,dunaszeg
9175,Dunaszentpál,GS,47.7833,17.5,dunaszentpál
9176,Mecsér,GS,47.8,17.4833,mecsér
9177,Ásványráró,GS,47.8333,17.5,ásványráró
9178,Hédervár,GS,47.8333,17.4667,hédervár
9181,Kimle,GS,47.8333,17.3667,kimle
9182,Károlyháza,GS,47.6333,17.5833,károlyháza
9183,Károlyháza,GS,47.6333,17.5833,károlyháza
9184,Kunsziget,GS,47.7333,17.5167,kunsziget
9200,Mosonmagyaróvár,GS,47.8667,17.2833,mosonmagyaróvár
9201,Mosonmagyaróvár,GS,47.8667,17.2833,mosonmagyaróvár
9202,Mosonmagyaróvár,GS,47.8667,17.2833,mosonmagyaróvár
9203,Mosonmagyaróvár,GS,47.8667,17.2833,mosonmagyaróvár
9211,Feketeerdő,GS,47.9333,17.2833,feketeerdő
9221,Levél,GS,47.9,17.2,levél
9222,Hegyeshalom,GS,47.9167,17.1667,hegyeshalom
9223,Bezenye,GS,47.9667,17.2167,bezenye
9224,Rajka,GS,48.0,17.2,rajka
9225,Dunakiliti,GS,47.9667,17.2833,dunakiliti
9226,Dunasziget,GS,47.9333,17.3667,dunasziget
9228,Halászi,GS,47.8833,17.3333,halászi
9231,Máriakálnok,GS,47.8667,17.3167,máriakálnok
9232,Darnózseli,GS,47.85,17.4333,darnózseli
9233,Lipót,GS,47.8667,17.4667,lipót
9234,Kisbodak,GS,47.9,17.4167,kisbodak
9235,Dunaremete,GS,47.8833,17.4333,dunaremete
9235,Püski,GS,47.8833,17.4,püski
9241,Jánossomorja,GS,47.8,17.1167,jánossomorja
9242,Jánossomorja,GS,47.8,17.1167,jánossomorja
9243,Várbalog,GS,47.85,17.0833,várbalog
9244,Újrónafő,GS,47.8,17.2,újrónafő
9245,Mosonszolnok,GS,47.85,17.1833,mosonszolnok
9300,Csorna,GS,47.6167,17.25,csorna
9301,Csorna,GS,47.6167,17.25,csorna
9311,Pásztori,GS,47.55,17.2667,pásztori
9312,Szilsárkány,GS,47.55,17.2667,szilsárkány
9313,Rábacsanak,GS,47.5333,17.3,rábacsanak
9314,Egyed,GS,47.5167,17.35,egyed
9315,Sobor,GS,47.4833,17.3833,sobor
9316,Rábaszentandrás,GS,47.45,17.3333,rábaszentandrás
9317,Szany,GS,47.4667,17.3,szany
9321,Farád,GS,47.6,17.2,farád
9322,Rábatamási,GS,47.5833,17.1667,rábatamási
9323,Jobaháza,GS,47.5833,17.2,jobaháza
9324,Potyond,GS,47.55,17.1833,potyond
9324,Bogyoszló,GS,47.5667,17.1833,bogyoszló
9325,Sopronnémeti,GS,47.5333,17.2167,sopronnémeti
9326,Szil,GS,47.5,17.2333,szil
9327,Rábasebes,GS,47.4333,17.2333,rábasebes
9327,Vág,GS,47.45,17.2167,vág
9330,Kapuvár,GS,47.6,17.0333,kapuvár
9331,Kapuvár,GS,47.6,17.0333,kapuvár
9332,Kapuvár,GS,47.6,17.0333,kapuvár
9339,Kapuvár,GS,47.6,17.0333,kapuvár
9341,Kisfalud,GS,47.5167,17.1,kisfalud
9342,Mihályi,GS,47.5167,17.1,mihályi
9343,Beled,GS,47.4667,17.1,beled
9343,Vásárosfalu,GS,47.45,17.1167,vásárosfalu
9343,Edve,GS,47.45,17.1333,edve
9344,Rábakecöl,GS,47.4333,17.1167,rábakecöl
9345,Páli,GS,47.4667,17.1667,páli
9346,Magyarkeresztúr,GS,47.5167,17.1667,magyarkeresztúr
9346,Vadosfa,GS,47.5,17.1333,vadosfa
9346,Zsebeháza,GS,47.5167,17.2,zsebeháza
9351,Babót,GS,47.5667,17.0833,babót
9352,Veszkény,GS,47.6,17.0833,veszkény
9353,Szárföld,GS,47.6,17.1167,szárföld
9354,Osli,GS,47.6333,17.0833,osli
9361,Hövej,GS,47.55,17.0167,hövej
9362,Himod,GS,47.5167,17.0167,himod
9363,Gyóró,GS,47.5,17.0167,gyóró
9364,Cirák,GS,47.4667,17.0333,cirák
9365,Dénesfa,GS,47.45,17.0333,dénesfa
9371,Vitnyéd,GS,47.5833,16.9833,vitnyéd
9372,Csapod,GS,47.5167,16.9167,csapod
9373,Pusztacsalád,GS,47.4833,16.9,pusztacsalád
9374,Iván,GS,47.45,16.9167,iván
9375,Répceszemere,GS,47.4333,16.9833,répceszemere
9375,Csáfordjánosfa,GS,47.4167,16.95,csáfordjánosfa
9375,Csér,GS,47.4167,16.9333,csér
9400,Sopron,GS,47.672,16.5852,sopron
9401,Sopron,GS,47.6833,16.6,sopron
9402,Sopron,GS,47.6833,16.6,sopron
9403,Sopron,GS,47.6833,16.6,sopron
9404,Sopron,GS,47.6833,16.6,sopron
9405,Sopron,GS,47.6833,16.6,sopron
9406,Sopron,GS,47.6833,16.6,sopron
9407,Sopron,GS,47.6833,16.6,sopron
9408,Sopron,GS,47.6833,16.6,sopron
9409,Sopron,GS,47.6833,16.6,sopron
9421,Fertőrákos,GS,47.7167,16.65,fertőrákos
9422,Harka,GS,47.6333,16.6,harka
9423,Ágfalva,GS,47.6833,16.5167,ágfalva
9431,Fertőd,GS,47.6167,16.8667,fertőd
9433,Fertőd,GS,47.6167,16.8667,fertőd
9434,Fertőd,GS,47.6167,16.8667,fertőd
9435,Sarród,GS,47.6333,16.8667,sarród
9436,Fertőszéplak,GS,47.6167,16.8333,fertőszéplak
9437,Hegykő,GS,47.6167,16.8,hegykő
9438,Sarród,GS,47.6333,16.8667,sarród
9441,Agyagosszergény,GS,47.6167,16.95,agyagosszergény
9442,Fertőendréd,GS,47.6,16.9167,fertőendréd
9443,Petőháza,GS,47.6,16.9,petőháza
9444,Fertőszentmiklós,GS,47.5833,16.8833,fertőszentmiklós
9451,Röjtökmuzsaj,GS,47.55,16.8333,röjtökmuzsaj
9451,Ebergőc,GS,47.5667,16.8167,ebergőc
9461,Lövő,GS,47.5,16.7833,lövő
9462,Völcsej,GS,47.4833,16.7667,völcsej
9463,Sopronhorpács,GS,47.4833,16.7333,sopronhorpács
9464,Und,GS,47.4833,16.7,und
9471,Nemeskér,GS,47.4833,16.8,nemeskér
9472,Újkér,GS,47.4667,16.8167,újkér
9473,Egyházasfalu,GS,47.4667,16.7667,egyházasfalu
9474,Szakony,GS,47.4333,16.7167,szakony
9474,Gyalóka,GS,47.45,16.7,gyalóka
9475,Répcevis,GS,47.45,16.6833,répcevis
9476,Zsira,GS,47.45,16.6833,zsira
9481,Pinnye,GS,47.5833,16.7667,pinnye
9482,Nagylózs,GS,47.5667,16.7833,nagylózs
9483,Sopronkövesd,GS,47.55,16.75,sopronkövesd
9484,Pereszteg,GS,47.6,16.7333,pereszteg
9485,Nagycenk,GS,47.6,16.7,nagycenk
9491,Hidegség,GS,47.6333,16.75,hidegség
9492,Fertőhomok,GS,47.6167,16.7667,fertőhomok
9493,Fertőboz,GS,47.6333,16.7,fertőboz
9494,Fertőboz,GS,47.6333,16.7,fertőboz
9495,Kópháza,GS,47.6333,16.65,kópháza
9500,Celldömölk,VA,47.25,17.15,celldömölk
9501,Celldömölk,VA,47.25,17.15,celldömölk
9502,Celldömölk,VA,47.25,17.15,celldömölk
9503,Celldömölk,VA,47.25,17.15,celldömölk
9511,Kemenesmihályfa,VA,47.2833,17.1167,kemenesmihályfa
9512,Ostffyasszonyfa,VA,47.3167,17.05,ostffyasszonyfa
9513,Csönge,VA,47.3361,17.1139,csönge
9514,Kenyeri,VA,47.3833,17.0833,kenyeri
9515,Pápoc,VA,47.4167,17.1333,pápoc
9516,Vönöck,VA,47.3167,17.1667,vönöck
9517,Kemenessömjén,VA,47.3,17.1333,kemenessömjén
9521,Kemenesszentmárton,VA,47.3,17.1667,kemenesszentmárton
9522,Kemenesmagasi,VA,47.3333,17.2167,kemenesmagasi
9523,Szergény,VA,47.3167,17.2667,szergény
9531,Mersevát,VA,47.2833,17.2167,mersevát
9532,Külsővat,VE,47.3,17.2333,külsővat
9533,Nemesszalók,VE,47.2833,17.3,nemesszalók
9534,Vinár,VE,47.3167,17.2833,vinár
9534,Marcalgergelyi,VE,47.3167,17.2667,marcalgergelyi
9541,Vinár,VA,47.125,17.175,vinár
9542,Nemeskocs,VA,47.2,17.1833,nemeskocs
9542,Boba,VA,47.2,17.1833,boba
9544,Kemenespálfa,VA,47.1333,17.1833,kemenespálfa
9545,Jánosháza,VA,47.1167,17.1667,jánosháza
9547,Karakó,VA,47.1167,17.2,karakó
9548,Nemeskeresztúr,VA,47.1,17.2,nemeskeresztúr
9549,Keléd,VA,47.0833,17.1167,keléd
9551,Mesteri,VA,47.2167,17.0833,mesteri
9552,Vásárosmiske,VA,47.2,17.0667,vásárosmiske
9553,Köcsk,VA,47.1833,17.0833,köcsk
9553,Kemeneskápolna,VA,47.2,17.1167,kemeneskápolna
9554,Borgáta,VA,47.1667,17.0833,borgáta
9554,Egyházashetye,VA,47.1667,17.1167,egyházashetye
9555,Kissomlyó,VA,47.1333,17.1,kissomlyó
9556,Duka,VA,47.181,17.0929,duka
9561,Nagysimonyi,VA,47.2667,17.0667,nagysimonyi
9561,Tokorcs,VA,47.2667,17.1,tokorcs
9600,Sárvár,VA,47.255,16.944,sárvár
9601,Sárvár,VA,47.25,16.9333,sárvár
9602,Sárvár,VA,47.25,16.9333,sárvár
9608,Sárvár,VA,47.25,16.9333,sárvár
9609,Sárvár,VA,47.25,16.9333,sárvár
9611,Csénye,VA,47.2333,16.8667,csénye
9612,Porpác,VA,47.25,16.8,porpác
9612,Bögöt,VA,47.25,16.8,bögöt
9621,Ölbő,VA,47.3,16.8667,ölbő
9622,Szeleste,VA,47.3167,16.8333,szeleste
9623,Répceszentgyörgy,VA,47.35,16.85,répceszentgyörgy
9624,Chernelházadamonya,VA,47.35,16.85,chernelházadamonya
9625,Bő,VA,47.3667,16.8,bő
9625,Gór,VA,47.3667,16.8,gór
9631,Hegyfalu,VA,47.35,16.8833,hegyfalu
9632,Sajtoskál,VA,47.4,16.8667,sajtoskál
9633,Simaság,VA,47.4167,16.85,simaság
9634,Iklanberény,VA,47.4167,16.8,iklanberény
9634,Lócs,VA,47.4,16.8167,lócs
9635,Zsédeny,VA,47.3333,16.9,zsédeny
9636,Pósfa,VA,47.3333,16.85,pósfa
9641,Rábapaty,VA,47.3,16.9333,rábapaty
9643,Jákfa,VA,47.3333,16.9667,jákfa
9651,Uraiújfalu,VA,47.3667,16.9833,uraiújfalu
9652,Nick,VA,47.4,17.0167,nick
9653,Répcelak,VA,47.4167,17.0167,répcelak
9654,Csánig,VA,47.3944,17.0056,csánig
9661,Vasegerszeg,VA,47.3667,16.9167,vasegerszeg
9662,Tompaládony,VA,47.3833,16.9,tompaládony
9662,Mesterháza,VA,47.3667,16.8667,mesterháza
9663,Nemesládony,VA,47.4,16.8833,nemesládony
9664,Nagygeresd,VA,47.3833,16.9167,nagygeresd
9665,Vámoscsalád,VA,47.3833,16.9667,vámoscsalád
9671,Sitke,VA,47.2333,17.0333,sitke
9672,Gérce,VA,47.2167,17.0167,gérce
9673,Káld,VA,47.1667,17.05,káld
9674,Vashosszúfalu,VA,47.1167,17.0667,vashosszúfalu
9675,Bögöte,VA,47.1667,17.0367,bögöte
9676,Hosszúpereszteg,VA,47.1,17.0167,hosszúpereszteg
9681,Sótony,VA,47.2,16.95,sótony
9682,Nyőgér,VA,47.1833,16.9333,nyőgér
9683,Bejcgyertyános,VA,47.15,16.925,bejcgyertyános
9684,Egervölgy,VA,47.1167,16.9167,egervölgy
9685,Szemenye,VA,47.1,16.9,szemenye
9700,Szombathely,VA,47.2448,16.6168,szombathely
9701,Szombathely,VA,47.2333,16.6167,szombathely
9702,Szombathely,VA,47.2333,16.6167,szombathely
9703,Szombathely,VA,47.2333,16.6167,szombathely
9704,Szombathely,VA,47.2333,16.6167,szombathely
9705,Szombathely,VA,47.2333,16.6167,szombathely
9706,Szombathely,VA,47.2333,16.6167,szombathely
9707,Szombathely,VA,47.2333,16.6167,szombathely
9708,Szombathely,VA,47.2333,16.6167,szombathely
9709,Szombathely,VA,47.2333,16.6167,szombathely
9710,Szombathely,VA,47.2333,16.6167,szombathely
9719,Szombathely,VA,47.2333,16.6167,szombathely
9721,Gencsapáti,VA,47.2833,16.6,gencsapáti
9722,Perenye,VA,47.3,16.5833,perenye
9723,Lukácsháza,VA,47.35,16.5833,lukácsháza
9724,Gyöngyösfalu,VA,47.3167,16.5833,gyöngyösfalu
9725,Kőszegszerdahely,VA,47.3333,16.5167,kőszegszerdahely
9725,Cák,VA,47.35,16.5167,cák
9725,Kőszegdoroszló,VA,47.35,16.55,kőszegdoroszló
9726,Velem,VA,47.35,16.5,velem
9727,Bozsok,VA,47.3333,16.5,bozsok
9730,Kőszeg,VA,47.3833,16.55,kőszeg
9731,Kőszeg,VA,47.3833,16.55,kőszeg
9732,Kőszeg,VA,47.3833,16.55,kőszeg
9733,Horvátzsidány,VA,47.4167,16.6167,horvátzsidány
9733,Kiszsidány,VA,47.4167,16.65,kiszsidány
9733,Ólmod,VA,47.4167,16.6,ólmod
9734,Peresznye,VA,47.4333,16.65,peresznye
9735,Csepreg,VA,47.4,16.7167,csepreg
9736,Tormásliget,VA,47.3846,16.6321,tormásliget
9737,Bük,VA,47.3833,16.75,bük
9738,Tömörd,VA,47.3667,16.6833,tömörd
9739,Pusztacsó,VA,47.3333,16.6333,pusztacsó
9739,Kőszegpaty,VA,47.3333,16.65,kőszegpaty
9739,Nemescsó,VA,47.35,16.6167,nemescsó
9740,Pusztacsó,VA,47.3333,16.6333,pusztacsó
9741,Vassurány,VA,47.2833,16.7,vassurány
9742,Salköveskút,VA,47.3,16.7,salköveskút
9743,Söpte,VA,47.2833,16.65,söpte
9744,Vasasszonyfa,VA,47.3167,16.6667,vasasszonyfa
9745,Meszlen,VA,47.3333,16.7,meszlen
9746,Acsád,VA,47.3167,16.7333,acsád
9747,Vasszilvágy,VA,47.3,16.75,vasszilvágy
9748,Vát,VA,47.2833,16.7833,vát
9749,Nemesbőd,VA,47.2667,16.7333,nemesbőd
9751,Vép,VA,47.2333,16.7333,vép
9752,Bozzai,VA,47.2,16.7667,bozzai
9752,Kenéz,VA,47.2,16.7833,kenéz
9754,Pecöl,VA,47.2,16.8333,pecöl
9754,Megyehíd,VA,47.2167,16.8333,megyehíd
9756,Ikervár,VA,47.2,16.9,ikervár
9757,Meggyeskovácsi,VA,47.1667,16.8667,meggyeskovácsi
9761,Táplánszentkereszt,VA,47.2,16.7,táplánszentkereszt
9762,Tanakajd,VA,47.2,16.7333,tanakajd
9763,Vasszécseny,VA,47.1833,16.7667,vasszécseny
9764,Csempeszkopács,VA,47.15,16.8,csempeszkopács
9766,Rábatöttös,VA,47.125,16.8333,rábatöttös
9766,Zsennye,VA,47.1167,16.8167,zsennye
9766,Rum,VA,47.1333,16.85,rum
9771,Balogunyom,VA,47.1667,16.65,balogunyom
9772,Kisunyom,VA,47.15,16.65,kisunyom
9773,Sorokpolány,VA,47.1333,16.6667,sorokpolány
9774,Gyanógeregye,VA,47.1167,16.7667,gyanógeregye
9774,Sorkikápolna,VA,47.1333,16.7,sorkikápolna
9774,Sorkifalud,VA,47.1333,16.7333,sorkifalud
9775,Nemeskolta,VA,47.15,16.7667,nemeskolta
9776,Püspökmolnári,VA,47.1,16.8,püspökmolnári
9777,Rábahídvég,VA,47.0667,16.75,rábahídvég
9781,Egyházashollós,VA,47.05,16.6833,egyházashollós
9782,Nemesrempehollós,VA,47.0833,16.6833,nemesrempehollós
9783,Egyházasrádóc,VA,47.0833,16.6167,egyházasrádóc
9784,Rádóckölked,VA,47.0833,16.6,rádóckölked
9784,Harasztifalu,VA,47.05,16.55,harasztifalu
9784,Nagykölked,VA,47.0667,16.55,nagykölked
9789,Sé,VA,47.2333,16.5667,sé
9791,Dozmat,VA,47.2333,16.5167,dozmat
9791,Torony,VA,47.2333,16.5333,torony
9792,Bucsu,VA,47.2667,16.5,bucsu
9793,Narda,VA,47.2333,16.4667,narda
9794,Felsőcsatár,VA,47.2167,16.45,felsőcsatár
9795,Vaskeresztes,VA,47.2,16.45,vaskeresztes
9796,Horvátlövő,VA,47.1833,16.45,horvátlövő
9796,Pornóapáti,VA,47.15,16.4667,pornóapáti
9797,Nárai,VA,47.2,16.5667,nárai
9798,Ják,VA,47.1333,16.5833,ják
9799,Szentpéterfa,VA,47.1,16.4833,szentpéterfa
9800,Vasvár,VA,47.05,16.8,vasvár
9801,Vasvár,VA,47.05,16.8,vasvár
9811,Andrásfa,VA,46.9667,16.8,andrásfa
9812,Telekes,VA,46.9389,16.7725,telekes
9813,Gersekarát,VA,46.9739,16.7467,gersekarát
9813,Sárfimizdó,VA,46.95,16.7167,sárfimizdó
9814,Halastó,VA,46.95,16.7,halastó
9821,Hegyhátszentpéter,VA,46.9833,16.8167,hegyhátszentpéter
9821,Győrvár,VA,46.9878,16.8417,győrvár
9823,Pácsony,VA,47.0167,16.8667,pácsony
9824,Olaszfa,VA,47.0167,16.8833,olaszfa
9825,Oszkó,VA,47.0333,16.8833,oszkó
9826,Petőmihályfa,VA,46.9833,16.7833,petőmihályfa
9831,Bérbaltavár,VA,47.0167,16.9667,bérbaltavár
9832,Nagytilaj,VA,46.9733,16.9653,nagytilaj
9833,Csehi,VA,47.0333,16.95,csehi
9834,Csehimindszent,VA,47.05,16.95,csehimindszent
9835,Mikosszéplak,VA,47.0333,16.9833,mikosszéplak
9836,Csipkerek,VA,47.0667,16.95,csipkerek
9841,Kám,VA,47.1,16.8833,kám
9842,Alsóújlak,VA,47.05,16.8,alsóújlak
9900,Körmend,VA,47.0167,16.6,körmend
9901,Körmend,VA,47.0167,16.6,körmend
9909,Magyarnádalja,VA,47.0,16.5333,magyarnádalja
9909,Körmend,VA,47.0167,16.6,körmend
9912,Magyarszecsőd,VA,47.0333,16.65,magyarszecsőd
9912,Molnaszecsőd,VA,47.05,16.6833,molnaszecsőd
9913,Döröske,VA,47.0167,16.7,döröske
9913,Szarvaskend,VA,46.9833,16.6833,szarvaskend
9913,Nagymizdó,VA,46.9833,16.6667,nagymizdó
9914,Döbörhegy,VA,46.9833,16.7,döbörhegy
9915,Nádasd,VA,46.9636,16.6192,nádasd
9915,Katafa,VA,46.9833,16.6333,katafa
9915,Hegyháthodász,VA,46.9333,16.65,hegyháthodász
9915,Hegyhátsál,VA,46.9667,16.65,hegyhátsál
9917,Halogy,VA,46.9667,16.5667,halogy
9917,Daraboshegy,VA,46.9667,16.5667,daraboshegy
9918,Felsőmarác,VA,46.9333,16.5167,felsőmarác
9919,Csákánydoroszló,VA,46.9708,16.5069,csákánydoroszló
9921,Vasalja,VA,47.0167,16.5167,vasalja
9922,Pinkamindszent,VA,47.0333,16.4833,pinkamindszent
9923,Kemestaródfa,VA,47.0,16.5167,kemestaródfa
9931,Ivánc,VA,46.9333,16.5,ivánc
9931,Hegyhátszentmárton,VA,46.9333,16.4833,hegyhátszentmárton
9932,Viszák,VA,46.8833,16.5,viszák
9933,Őrimagyarósd,VA,46.8883,16.5397,őrimagyarósd
9934,Felsőjánosfa,VA,46.85,16.5667,felsőjánosfa
9934,Szaknyér,VA,46.8667,16.5333,szaknyér
9934,Hegyhátszentjakab,VA,46.8661,16.5547,hegyhátszentjakab
9935,Szőce,VA,46.8833,16.5833,szőce
9936,Kisrákos,VA,46.8667,16.5,kisrákos
9937,Pankasz,VA,46.8333,16.5,pankasz
9938,Szatta,VA,46.8,16.4833,szatta
9938,Nagyrákos,VA,46.8333,16.4667,nagyrákos
9941,Ispánk,VA,46.8667,16.45,ispánk
9941,Őriszentpéter,VA,46.8408,16.4294,őriszentpéter
9942,Szalafő,VA,46.8667,16.3667,szalafő
9943,Kondorfa,VA,46.895,16.4017,kondorfa
9944,Bajánsenye,VA,46.8,16.3833,bajánsenye
9944,Kerkáskápolna,VA,46.7833,16.4333,kerkáskápolna
9945,Kercaszomor,VA,46.7833,16.3667,kercaszomor
9946,Magyarszombatfa,VA,46.7628,16.3467,magyarszombatfa
9946,Velemér,VA,46.7333,16.3833,velemér
9951,Rátót,VA,46.9667,16.4333,rátót
9952,Gasztony,VA,46.9625,16.4594,gasztony
9953,Nemesmedves,VA,47.0,16.4,nemesmedves
9953,Vasszentmihály,VA,46.9667,16.4167,vasszentmihály
9954,Rönök,VA,46.9833,16.35,rönök
9955,Rönök,VA,46.9833,16.35,rönök
9961,Rábagyarmat,VA,46.9406,16.4286,rábagyarmat
9962,Csörötnek,VA,46.9514,16.3764,csörötnek
9962,Magyarlak,VA,46.95,16.35,magyarlak
9970,Szentgotthárd,VA,46.9519,16.3256,szentgotthárd
9971,Szentgotthárd,VA,46.9519,16.3256,szentgotthárd
9981,Szentgotthárd,VA,46.9519,16.3256,szentgotthárd
9982,Apátistvánfalva,VA,46.9006,16.2647,apátistvánfalva
9982,Kétvölgy,VA,46.8833,16.2167,kétvölgy
9982,Orfalu,VA,46.8833,16.2833,orfalu
9983,Alsószölnök,VA,46.9278,16.2086,alsószölnök
9983,Szakonyfalu,VA,46.9167,16.2333,szakonyfalu
9985,Felsőszölnök,VA,46.8797,16.1731,felsőszölnök
2087,Piliscsaba,PE,47.6167,18.8333,piliscsaba
2099,Pilisszentkereszt,PE,47.7,18.9,pilisszentkereszt
2738,Cegléd,PE,47.1667,19.8,cegléd
2835,Tata,KE,47.65,18.3167,tata
2921,Komárom,KE,47.7333,18.1167,komárom
3024,Lőrinci,HE,47.7333,19.6833,lőrinci
3065,Pásztó,NO,47.9167,19.7,pásztó
3078,Bátonyterenye,NO,47.9667,19.8333,bátonyterenye
3082,Pásztó,NO,47.9167,19.7,pásztó
3141,Salgótarján,NO,48.1167,19.8167,salgótarján
3147,Kazár,NO,48.05,19.8667,kazár
3221,Gyöngyös,HE,47.7833,19.9333,gyöngyös
3232,Gyöngyös,HE,47.7833,19.9333,gyöngyös
3233,Gyöngyös,HE,47.7833,19.9333,gyöngyös
3234,Mátraszentimre,HE,47.9167,19.8833,mátraszentimre
3244,Parád,HE,47.9167,20.0333,parád
3625,Ózd,BZ,48.2167,20.3,ózd
3651,Ózd,BZ,48.2167,20.3,ózd
3661,Ózd,BZ,48.2167,20.3,ózd
3662,Ózd,BZ,48.2167,20.3,ózd
3783,Edelény,BZ,48.3,20.7333,edelény
3923,Gesztely,BZ,48.1,20.9667,gesztely
3944,Sátoraljaújhely,BZ,48.4,21.6667,sátoraljaújhely
3945,Sátoraljaújhely,BZ,48.4,21.6667,sátoraljaújhely
3988,Sátoraljaújhely,BZ,48.4,21.6667,sátoraljaújhely
4067,Egyek,HB,47.6333,20.9,egyek
4074,Hajdúböszörmény,HB,47.6667,21.5167,hajdúböszörmény
4078,Debrecen,HB,47.7675,21.24,debrecen
4079,Debrecen,HB,47.7675,21.24,debrecen
4086,Hajdúböszörmény,HB,47.6667,21.5167,hajdúböszörmény
4162,Szerep,HB,47.2333,21.15,szerep
4246,Nyíregyháza,SZ,47.95,21.7167,nyíregyháza
4252,Nyíradony,HB,47.6833,21.9167,nyíradony
4253,Nyíradony,HB,47.6833,21.9167,nyíradony
4446,Tiszaeszlár,SZ,48.05,21.4667,tiszaeszlár
4447,Tiszalök,SZ,48.0167,21.3833,tiszalök
4481,Nyíregyháza,SZ,47.95,21.7167,nyíregyháza
4486,Tiszatelek,SZ,48.2,21.8,tiszatelek
4551,Nyíregyháza,SZ,47.95,21.7167,nyíregyháza
5095,Tiszavárkony,JN,47.0667,20.1833,tiszavárkony
5152,Jászberény,JN,47.5,19.9167,jászberény
5212,Törökszentmiklós,JN,47.1833,20.4167,törökszentmiklós
5213,Fegyvernek,JN,47.2667,20.5333,fegyvernek
5349,Kenderes,JN,47.25,20.6833,kenderes
5461,Tiszaföldvár,JN,46.9833,20.25,tiszaföldvár
5623,Békéscsaba,BE,46.6833,21.1,békéscsaba
5671,Békéscsaba,BE,46.6833,21.1,békéscsaba
5752,Medgyesegyháza,BE,46.5,21.0333,medgyesegyháza
6044,Kecskemét,BK,46.9,19.7833,kecskemét
6648,Csongrád,CS,46.7,20.15,csongrád
7018,Sárbogárd,FE,46.8833,18.6333,sárbogárd
7019,Sárbogárd,FE,46.8833,18.6333,sárbogárd
7027,Paks,TO,46.6333,18.8667,paks
7187,Bonyhád,TO,46.3,18.5333,bonyhád
7409,Kaposvár,SO,46.3667,17.8,kaposvár
7557,Barcs,SO,45.96,17.4586,barcs
7714,Mohács,BA,45.9931,18.6831,mohács
7715,Mohács,BA,45.9931,18.6831,mohács
8054,Balinka,FE,47.3167,18.1833,balinka
8172,Balatonkenese,VE,47.0333,18.1167,balatonkenese
8173,Balatonkenese,VE,47.0333,18.1167,balatonkenese
8184,Balatonfűzfő,VE,47.0667,18.05,balatonfűzfő
8236,Balatonfüred,VE,46.95,17.8833,balatonfüred
8257,Badacsonytomaj,VE,46.8,17.5167,badacsonytomaj
8297,Tapolca,VE,46.8833,17.4333,tapolca
8411,Veszprém,VE,47.1,17.9167,veszprém
8412,Veszprém,VE,47.1,17.9167,veszprém
8447,Ajka,VE,47.1,17.5667,ajka
8448,Ajka,VE,47.1,17.5667,ajka
8451,Ajka,VE,47.1,17.5667,ajka
8531,Marcaltő,VE,47.4333,17.3667,marcaltő
8591,Pápa,VE,47.3333,17.4667,pápa
8598,Pápa,VE,47.3333,17.4667,pápa
8691,Balatonboglár,SO,46.7667,17.6667,balatonboglár
8709,Marcali,SO,46.5833,17.4167,marcali
8714,Marcali,SO,46.5833,17.4167,marcali
8785,Zalaszentgrót,ZA,46.95,17.0833,zalaszentgrót
8789,Zalaszentgrót,ZA,46.95,17.0833,zalaszentgrót
8793,Zalaszentgrót,ZA,46.95,17.0833,zalaszentgrót
8795,Zalaszentgrót,ZA,46.95,17.0833,zalaszentgrót
8831,Nagykanizsa,ZA,46.4618,17.0102,nagykanizsa
9183,Mosonszentmiklós,GS,47.7333,17.3833,mosonszentmiklós
9434,Sarród,GS,47.6333,16.8667,sarród
9494,Sopron,GS,47.672,16.5852,sopron
9541,Celldömölk,VA,47.25,17.15,celldömölk
9740,Bük,VA,47.3833,16.75,bük
9955,Szentgotthárd,VA,46.9519,16.3256,szentgotthárd
